METAR WAFF 022300Z 09002KT 6000 SCT019 25/24 Q1014 NOSIG=
METAR WAFF 022200Z 14002KT 6000 SCT019 25/24 Q1013 NOSIG=
METAR WAFF 022100Z 17002KT 5000 SCT019 25/24 Q1013 NOSIG=
METAR WAFF 021800Z 15003KT 5000 -RA SCT019 25/24 Q1013=
METAR WAFF 021500Z 13002KT 6000 -RA SCT019 27/25 Q1014=
METAR WAFF 021430Z 32005KT 5000 -RA BKN018 28/25 Q1015=
METAR WAFF 021400Z 32005KT 7000 FEW020 28/25 Q1015=
METAR WAFF 021300Z 34003KT 7000 FEW020 28/25 Q1014=
METAR WAFF 021200Z 33006KT 7000 FEWCB018 SCT019 28/25 Q1013 RMK CB TO N E=
METAR WAFF 021000Z 32009KT 8000 FEW018CB SCT020 29/24 Q1012 RMK CB TO E=
METAR WAFF 020900Z 32010KT 9999 SCT020 30/24 Q1011 NOSIG=
METAR WAFF 020800Z 33010KT 9999 FEW018CB SCT020 31/24 Q1010 RMK CB TO E=
METAR WAFF 020700Z 33012KT 9999 FEW018CB SCT020 31/23 Q1010 RMK CB TO E=
METAR WAFF 020600Z 33014KT 9999 TS FEW018CB SCT020 32/23 Q1011 RMK CB TO E=
METAR WAFF 020500Z 33011KT 8000 SCT019 34/23 Q1012 NOSIG=
METAR WAFF 020400Z 07002KT 8000 SCT019 32/23 Q1013 NOSIG=
METAR WAFF 020300Z 00000KT 7000 SCT019 29/24 Q1015 RMK RERA=
METAR WAFF 020205Z 18003KT 7000 -RA SCT018 BKN020 28/23 Q1015 NOSIG=
METAR WAFF 020200Z 18003KT 7000 SCT018 BKN020 28/23 Q1015 NOSIG=
METAR WAFF 020100Z 18003KT 7000 SCT019 27/23 Q1015 NOSIG=
METAR WAFF 020000Z 20002KT 7000 SCT018 BKN020 26/24 Q1015 NOSIG=
METAR WAFF 012300Z 21003KT 6000 RA BKN020 26/24 Q1014 NOSIG=
METAR WAFF 012200Z 14004KT 6000 RA BKN019 26/23 Q1014 NOSIG=
METAR WAFF 012100Z 19003KT 7000 SCT019 26/24 Q1014 NOSIG=
METAR WAFF 012000Z 16002KT 7000 SCT019 27/24 Q1013 NOSIG=
METAR WAFF 011900Z 19002KT 7000 SCT019 27/24 Q1012 NOSIG=
METAR WAFF 011800Z 20002KT 7000 SCT019 27/24 Q1013 NOSIG=
METAR WAFF 011600Z 05002KT 6000 RA SCT019 28/24 Q1014 NOSIG=
METAR WAFF 011500Z 32004KT 7000 SCT019 29/24 Q1014 NOSIG=
METAR WAFF 011400Z 30002KT 7000 SCT019 29/24 Q1014 NOSIG=
METAR WAFF 011300Z 35004KT 7000 SCT019 29/24 Q1013 NOSIG=
METAR WAFF 011200Z 32006KT 8000 SCT019 30/25 Q1013 NOSIG=
METAR WAFF 011100Z 34009KT 8000 FEW018CB BKN020 29/25 Q1012 RMK CB TO NW=
METAR WAFF 011000Z 33011KT 8000 SCT018 BKN020 30/25 Q1011 NOSIG=
METAR WAFF 010900Z 34009KT 9000 SCT019TCU 31/25 Q1010 RMK TCU TO S=
METAR WAFF 010800Z 33012KT 9000 SCT019 32/24 Q1010 NOSIG=
METAR WAFF 010700Z 32014KT 9999 SCT019 33/24 Q1010 NOSIG=
METAR WAFF 010600Z 32012KT 9999 FEW018 SCT020 35/23 Q1010 NOSIG=
METAR WAFF 010500Z 33013KT 9999 FEW020 34/22 Q1011 NOSIG=
METAR WAFF 010400Z 30008KT 9999 FEW020 35/22 Q1012 NOSIG=
METAR WAFF 010300Z 28004KT 9999 FEW020 34/22 Q1013 NOSIG=
METAR WAFF 010200Z 13003KT 9999 FEW020 31/24 Q1014 NOSIG=
METAR WAFF 010100Z 18003KT 9999 FEW020 29/23 Q1014 NOSIG=
METAR WAFF 010000Z 13002KT 9999 FEW020 27/24 Q1015 NOSIG=
METAR WAFF 022300Z 09002KT 6000 SCT019 25/24 Q1014 NOSIG=
METAR WAFF 022200Z 14002KT 6000 SCT019 25/24 Q1013 NOSIG=
METAR WAFF 022100Z 17002KT 5000 SCT019 25/24 Q1013 NOSIG=
METAR WAFF 021800Z 15003KT 5000 -RA SCT019 25/24 Q1013=
METAR WAFF 021500Z 13002KT 6000 -RA SCT019 27/25 Q1014=
METAR WAFF 021430Z 32005KT 5000 -RA BKN018 28/25 Q1015=
METAR WAFF 021400Z 32005KT 7000 FEW020 28/25 Q1015=
METAR WAFF 021300Z 34003KT 7000 FEW020 28/25 Q1014=
METAR WAFF 021200Z 33006KT 7000 FEWCB018 SCT019 28/25 Q1013 RMK CB TO N E=
METAR WAFF 021000Z 32009KT 8000 FEW018CB SCT020 29/24 Q1012 RMK CB TO E=
METAR WAFF 020900Z 32010KT 9999 SCT020 30/24 Q1011 NOSIG=
METAR WAFF 020800Z 33010KT 9999 FEW018CB SCT020 31/24 Q1010 RMK CB TO E=
METAR WAFF 020700Z 33012KT 9999 FEW018CB SCT020 31/23 Q1010 RMK CB TO E=
METAR WAFF 020600Z 33014KT 9999 TS FEW018CB SCT020 32/23 Q1011 RMK CB TO E=
METAR WAFF 020500Z 33011KT 8000 SCT019 34/23 Q1012 NOSIG=
METAR WAFF 020400Z 07002KT 8000 SCT019 32/23 Q1013 NOSIG=
METAR WAFF 020300Z 00000KT 7000 SCT019 29/24 Q1015 RMK RERA=
METAR WAFF 020205Z 18003KT 7000 -RA SCT018 BKN020 28/23 Q1015 NOSIG=
METAR WAFF 020200Z 18003KT 7000 SCT018 BKN020 28/23 Q1015 NOSIG=
METAR WAFF 020100Z 18003KT 7000 SCT019 27/23 Q1015 NOSIG=
METAR WAFF 020000Z 20002KT 7000 SCT018 BKN020 26/24 Q1015 NOSIG=
METAR WAFF 012300Z 21003KT 6000 RA BKN020 26/24 Q1014 NOSIG=
METAR WAFF 012200Z 14004KT 6000 RA BKN019 26/23 Q1014 NOSIG=
METAR WAFF 012100Z 19003KT 7000 SCT019 26/24 Q1014 NOSIG=
METAR WAFF 012000Z 16002KT 7000 SCT019 27/24 Q1013 NOSIG=
METAR WAFF 011900Z 19002KT 7000 SCT019 27/24 Q1012 NOSIG=
METAR WAFF 011800Z 20002KT 7000 SCT019 27/24 Q1013 NOSIG=
METAR WAFF 011600Z 05002KT 6000 RA SCT019 28/24 Q1014 NOSIG=
METAR WAFF 011500Z 32004KT 7000 SCT019 29/24 Q1014 NOSIG=
METAR WAFF 011400Z 30002KT 7000 SCT019 29/24 Q1014 NOSIG=
METAR WAFF 011300Z 35004KT 7000 SCT019 29/24 Q1013 NOSIG=
METAR WAFF 011200Z 32006KT 8000 SCT019 30/25 Q1013 NOSIG=
METAR WAFF 011100Z 34009KT 8000 FEW018CB BKN020 29/25 Q1012 RMK CB TO NW=
METAR WAFF 011000Z 33011KT 8000 SCT018 BKN020 30/25 Q1011 NOSIG=
METAR WAFF 010900Z 34009KT 9000 SCT019TCU 31/25 Q1010 RMK TCU TO S=
METAR WAFF 010800Z 33012KT 9000 SCT019 32/24 Q1010 NOSIG=
METAR WAFF 010700Z 32014KT 9999 SCT019 33/24 Q1010 NOSIG=
METAR WAFF 010600Z 32012KT 9999 FEW018 SCT020 35/23 Q1010 NOSIG=
METAR WAFF 010500Z 33013KT 9999 FEW020 34/22 Q1011 NOSIG=
METAR WAFF 010400Z 30008KT 9999 FEW020 35/22 Q1012 NOSIG=
METAR WAFF 010300Z 28004KT 9999 FEW020 34/22 Q1013 NOSIG=
METAR WAFF 010200Z 13003KT 9999 FEW020 31/24 Q1014 NOSIG=
METAR WAFF 010100Z 18003KT 9999 FEW020 29/23 Q1014 NOSIG=
METAR WAFF 010000Z 13002KT 9999 FEW020 27/24 Q1015 NOSIG=
METAR WAFF 022300Z 09002KT 6000 SCT019 25/24 Q1014 NOSIG=
METAR WAFF 022200Z 14002KT 6000 SCT019 25/24 Q1013 NOSIG=
METAR WAFF 022100Z 17002KT 5000 SCT019 25/24 Q1013 NOSIG=
METAR WAFF 021800Z 15003KT 5000 -RA SCT019 25/24 Q1013=
METAR WAFF 021500Z 13002KT 6000 -RA SCT019 27/25 Q1014=
METAR WAFF 021430Z 32005KT 5000 -RA BKN018 28/25 Q1015=
METAR WAFF 021400Z 32005KT 7000 FEW020 28/25 Q1015=
METAR WAFF 021300Z 34003KT 7000 FEW020 28/25 Q1014=
METAR WAFF 021200Z 33006KT 7000 FEWCB018 SCT019 28/25 Q1013 RMK CB TO N E=
METAR WAFF 021000Z 32009KT 8000 FEW018CB SCT020 29/24 Q1012 RMK CB TO E=
METAR WAFF 020900Z 32010KT 9999 SCT020 30/24 Q1011 NOSIG=
METAR WAFF 020800Z 33010KT 9999 FEW018CB SCT020 31/24 Q1010 RMK CB TO E=
METAR WAFF 020700Z 33012KT 9999 FEW018CB SCT020 31/23 Q1010 RMK CB TO E=
METAR WAFF 020600Z 33014KT 9999 TS FEW018CB SCT020 32/23 Q1011 RMK CB TO E=
METAR WAFF 020500Z 33011KT 8000 SCT019 34/23 Q1012 NOSIG=
METAR WAFF 020400Z 07002KT 8000 SCT019 32/23 Q1013 NOSIG=
METAR WAFF 020300Z 00000KT 7000 SCT019 29/24 Q1015 RMK RERA=
METAR WAFF 020205Z 18003KT 7000 -RA SCT018 BKN020 28/23 Q1015 NOSIG=
METAR WAFF 020200Z 18003KT 7000 SCT018 BKN020 28/23 Q1015 NOSIG=
METAR WAFF 020100Z 18003KT 7000 SCT019 27/23 Q1015 NOSIG=
METAR WAFF 020000Z 20002KT 7000 SCT018 BKN020 26/24 Q1015 NOSIG=
METAR WAFF 012300Z 21003KT 6000 RA BKN020 26/24 Q1014 NOSIG=
METAR WAFF 012200Z 14004KT 6000 RA BKN019 26/23 Q1014 NOSIG=
METAR WAFF 012100Z 19003KT 7000 SCT019 26/24 Q1014 NOSIG=
METAR WAFF 012000Z 16002KT 7000 SCT019 27/24 Q1013 NOSIG=
METAR WAFF 011900Z 19002KT 7000 SCT019 27/24 Q1012 NOSIG=
METAR WAFF 011800Z 20002KT 7000 SCT019 27/24 Q1013 NOSIG=
METAR WAFF 011600Z 05002KT 6000 RA SCT019 28/24 Q1014 NOSIG=
METAR WAFF 011500Z 32004KT 7000 SCT019 29/24 Q1014 NOSIG=
METAR WAFF 011400Z 30002KT 7000 SCT019 29/24 Q1014 NOSIG=
METAR WAFF 011300Z 35004KT 7000 SCT019 29/24 Q1013 NOSIG=
METAR WAFF 011200Z 32006KT 8000 SCT019 30/25 Q1013 NOSIG=
METAR WAFF 011100Z 34009KT 8000 FEW018CB BKN020 29/25 Q1012 RMK CB TO NW=
METAR WAFF 011000Z 33011KT 8000 SCT018 BKN020 30/25 Q1011 NOSIG=
METAR WAFF 010900Z 34009KT 9000 SCT019TCU 31/25 Q1010 RMK TCU TO S=
METAR WAFF 010800Z 33012KT 9000 SCT019 32/24 Q1010 NOSIG=
METAR WAFF 010700Z 32014KT 9999 SCT019 33/24 Q1010 NOSIG=
METAR WAFF 010600Z 32012KT 9999 FEW018 SCT020 35/23 Q1010 NOSIG=
METAR WAFF 010500Z 33013KT 9999 FEW020 34/22 Q1011 NOSIG=
METAR WAFF 010400Z 30008KT 9999 FEW020 35/22 Q1012 NOSIG=
METAR WAFF 010300Z 28004KT 9999 FEW020 34/22 Q1013 NOSIG=
METAR WAFF 010200Z 13003KT 9999 FEW020 31/24 Q1014 NOSIG=
METAR WAFF 010100Z 18003KT 9999 FEW020 29/23 Q1014 NOSIG=
METAR WAFF 010000Z 13002KT 9999 FEW020 27/24 Q1015 NOSIG=
METAR WAFF 022300Z 09002KT 6000 SCT019 25/24 Q1014 NOSIG=
METAR WAFF 022200Z 14002KT 6000 SCT019 25/24 Q1013 NOSIG=
METAR WAFF 022100Z 17002KT 5000 SCT019 25/24 Q1013 NOSIG=
METAR WAFF 021800Z 15003KT 5000 -RA SCT019 25/24 Q1013=
METAR WAFF 021500Z 13002KT 6000 -RA SCT019 27/25 Q1014=
METAR WAFF 021430Z 32005KT 5000 -RA BKN018 28/25 Q1015=
METAR WAFF 021400Z 32005KT 7000 FEW020 28/25 Q1015=
METAR WAFF 021300Z 34003KT 7000 FEW020 28/25 Q1014=
METAR WAFF 021200Z 33006KT 7000 FEWCB018 SCT019 28/25 Q1013 RMK CB TO N E=
METAR WAFF 021000Z 32009KT 8000 FEW018CB SCT020 29/24 Q1012 RMK CB TO E=
METAR WAFF 020900Z 32010KT 9999 SCT020 30/24 Q1011 NOSIG=
METAR WAFF 020800Z 33010KT 9999 FEW018CB SCT020 31/24 Q1010 RMK CB TO E=
METAR WAFF 020700Z 33012KT 9999 FEW018CB SCT020 31/23 Q1010 RMK CB TO E=
METAR WAFF 020600Z 33014KT 9999 TS FEW018CB SCT020 32/23 Q1011 RMK CB TO E=
METAR WAFF 020500Z 33011KT 8000 SCT019 34/23 Q1012 NOSIG=
METAR WAFF 020400Z 07002KT 8000 SCT019 32/23 Q1013 NOSIG=
METAR WAFF 020300Z 00000KT 7000 SCT019 29/24 Q1015 RMK RERA=
METAR WAFF 020205Z 18003KT 7000 -RA SCT018 BKN020 28/23 Q1015 NOSIG=
METAR WAFF 020200Z 18003KT 7000 SCT018 BKN020 28/23 Q1015 NOSIG=
METAR WAFF 020100Z 18003KT 7000 SCT019 27/23 Q1015 NOSIG=
METAR WAFF 020000Z 20002KT 7000 SCT018 BKN020 26/24 Q1015 NOSIG=
METAR WAFF 012300Z 21003KT 6000 RA BKN020 26/24 Q1014 NOSIG=
METAR WAFF 012200Z 14004KT 6000 RA BKN019 26/23 Q1014 NOSIG=
METAR WAFF 012100Z 19003KT 7000 SCT019 26/24 Q1014 NOSIG=
METAR WAFF 012000Z 16002KT 7000 SCT019 27/24 Q1013 NOSIG=
METAR WAFF 011900Z 19002KT 7000 SCT019 27/24 Q1012 NOSIG=
METAR WAFF 011800Z 20002KT 7000 SCT019 27/24 Q1013 NOSIG=
METAR WAFF 011600Z 05002KT 6000 RA SCT019 28/24 Q1014 NOSIG=
METAR WAFF 011500Z 32004KT 7000 SCT019 29/24 Q1014 NOSIG=
METAR WAFF 011400Z 30002KT 7000 SCT019 29/24 Q1014 NOSIG=
METAR WAFF 011300Z 35004KT 7000 SCT019 29/24 Q1013 NOSIG=
METAR WAFF 011200Z 32006KT 8000 SCT019 30/25 Q1013 NOSIG=
METAR WAFF 011100Z 34009KT 8000 FEW018CB BKN020 29/25 Q1012 RMK CB TO NW=
METAR WAFF 011000Z 33011KT 8000 SCT018 BKN020 30/25 Q1011 NOSIG=
METAR WAFF 010900Z 34009KT 9000 SCT019TCU 31/25 Q1010 RMK TCU TO S=
METAR WAFF 010800Z 33012KT 9000 SCT019 32/24 Q1010 NOSIG=
METAR WAFF 010700Z 32014KT 9999 SCT019 33/24 Q1010 NOSIG=
METAR WAFF 010600Z 32012KT 9999 FEW018 SCT020 35/23 Q1010 NOSIG=
METAR WAFF 010500Z 33013KT 9999 FEW020 34/22 Q1011 NOSIG=
METAR WAFF 010400Z 30008KT 9999 FEW020 35/22 Q1012 NOSIG=
METAR WAFF 010300Z 28004KT 9999 FEW020 34/22 Q1013 NOSIG=
METAR WAFF 010200Z 13003KT 9999 FEW020 31/24 Q1014 NOSIG=
METAR WAFF 010100Z 18003KT 9999 FEW020 29/23 Q1014 NOSIG=
METAR WAFF 010000Z 13002KT 9999 FEW020 27/24 Q1015 NOSIG=
METAR WAFF 022300Z 09002KT 6000 SCT019 25/24 Q1014 NOSIG=
METAR WAFF 022200Z 14002KT 6000 SCT019 25/24 Q1013 NOSIG=
METAR WAFF 022100Z 17002KT 5000 SCT019 25/24 Q1013 NOSIG=
METAR WAFF 021800Z 15003KT 5000 -RA SCT019 25/24 Q1013=
METAR WAFF 021500Z 13002KT 6000 -RA SCT019 27/25 Q1014=
METAR WAFF 021430Z 32005KT 5000 -RA BKN018 28/25 Q1015=
METAR WAFF 021400Z 32005KT 7000 FEW020 28/25 Q1015=
METAR WAFF 021300Z 34003KT 7000 FEW020 28/25 Q1014=
METAR WAFF 021200Z 33006KT 7000 FEWCB018 SCT019 28/25 Q1013 RMK CB TO N E=
METAR WAFF 021000Z 32009KT 8000 FEW018CB SCT020 29/24 Q1012 RMK CB TO E=
METAR WAFF 020900Z 32010KT 9999 SCT020 30/24 Q1011 NOSIG=
METAR WAFF 020800Z 33010KT 9999 FEW018CB SCT020 31/24 Q1010 RMK CB TO E=
METAR WAFF 020700Z 33012KT 9999 FEW018CB SCT020 31/23 Q1010 RMK CB TO E=
METAR WAFF 020600Z 33014KT 9999 TS FEW018CB SCT020 32/23 Q1011 RMK CB TO E=
METAR WAFF 020500Z 33011KT 8000 SCT019 34/23 Q1012 NOSIG=
METAR WAFF 020400Z 07002KT 8000 SCT019 32/23 Q1013 NOSIG=
METAR WAFF 020300Z 00000KT 7000 SCT019 29/24 Q1015 RMK RERA=
METAR WAFF 020205Z 18003KT 7000 -RA SCT018 BKN020 28/23 Q1015 NOSIG=
METAR WAFF 020200Z 18003KT 7000 SCT018 BKN020 28/23 Q1015 NOSIG=
METAR WAFF 020100Z 18003KT 7000 SCT019 27/23 Q1015 NOSIG=
METAR WAFF 020000Z 20002KT 7000 SCT018 BKN020 26/24 Q1015 NOSIG=
METAR WAFF 012300Z 21003KT 6000 RA BKN020 26/24 Q1014 NOSIG=
METAR WAFF 012200Z 14004KT 6000 RA BKN019 26/23 Q1014 NOSIG=
METAR WAFF 012100Z 19003KT 7000 SCT019 26/24 Q1014 NOSIG=
METAR WAFF 012000Z 16002KT 7000 SCT019 27/24 Q1013 NOSIG=
METAR WAFF 011900Z 19002KT 7000 SCT019 27/24 Q1012 NOSIG=
METAR WAFF 011800Z 20002KT 7000 SCT019 27/24 Q1013 NOSIG=
METAR WAFF 011600Z 05002KT 6000 RA SCT019 28/24 Q1014 NOSIG=
METAR WAFF 011500Z 32004KT 7000 SCT019 29/24 Q1014 NOSIG=
METAR WAFF 011400Z 30002KT 7000 SCT019 29/24 Q1014 NOSIG=
METAR WAFF 011300Z 35004KT 7000 SCT019 29/24 Q1013 NOSIG=
METAR WAFF 011200Z 32006KT 8000 SCT019 30/25 Q1013 NOSIG=
METAR WAFF 011100Z 34009KT 8000 FEW018CB BKN020 29/25 Q1012 RMK CB TO NW=
METAR WAFF 011000Z 33011KT 8000 SCT018 BKN020 30/25 Q1011 NOSIG=
METAR WAFF 010900Z 34009KT 9000 SCT019TCU 31/25 Q1010 RMK TCU TO S=
METAR WAFF 010800Z 33012KT 9000 SCT019 32/24 Q1010 NOSIG=
METAR WAFF 010700Z 32014KT 9999 SCT019 33/24 Q1010 NOSIG=
METAR WAFF 010600Z 32012KT 9999 FEW018 SCT020 35/23 Q1010 NOSIG=
METAR WAFF 010500Z 33013KT 9999 FEW020 34/22 Q1011 NOSIG=
METAR WAFF 010400Z 30008KT 9999 FEW020 35/22 Q1012 NOSIG=
METAR WAFF 010300Z 28004KT 9999 FEW020 34/22 Q1013 NOSIG=
METAR WAFF 010200Z 13003KT 9999 FEW020 31/24 Q1014 NOSIG=
METAR WAFF 010100Z 18003KT 9999 FEW020 29/23 Q1014 NOSIG=
METAR WAFF 010000Z 13002KT 9999 FEW020 27/24 Q1015 NOSIG=
METAR WAFF 022300Z 09002KT 6000 SCT019 25/24 Q1014 NOSIG=
METAR WAFF 022200Z 14002KT 6000 SCT019 25/24 Q1013 NOSIG=
METAR WAFF 022100Z 17002KT 5000 SCT019 25/24 Q1013 NOSIG=
METAR WAFF 021800Z 15003KT 5000 -RA SCT019 25/24 Q1013=
METAR WAFF 021500Z 13002KT 6000 -RA SCT019 27/25 Q1014=
METAR WAFF 021430Z 32005KT 5000 -RA BKN018 28/25 Q1015=
METAR WAFF 021400Z 32005KT 7000 FEW020 28/25 Q1015=
METAR WAFF 021300Z 34003KT 7000 FEW020 28/25 Q1014=
METAR WAFF 021200Z 33006KT 7000 FEWCB018 SCT019 28/25 Q1013 RMK CB TO N E=
METAR WAFF 021000Z 32009KT 8000 FEW018CB SCT020 29/24 Q1012 RMK CB TO E=
METAR WAFF 020900Z 32010KT 9999 SCT020 30/24 Q1011 NOSIG=
METAR WAFF 020800Z 33010KT 9999 FEW018CB SCT020 31/24 Q1010 RMK CB TO E=
METAR WAFF 020700Z 33012KT 9999 FEW018CB SCT020 31/23 Q1010 RMK CB TO E=
METAR WAFF 020600Z 33014KT 9999 TS FEW018CB SCT020 32/23 Q1011 RMK CB TO E=
METAR WAFF 020500Z 33011KT 8000 SCT019 34/23 Q1012 NOSIG=
METAR WAFF 020400Z 07002KT 8000 SCT019 32/23 Q1013 NOSIG=
METAR WAFF 020300Z 00000KT 7000 SCT019 29/24 Q1015 RMK RERA=
METAR WAFF 020205Z 18003KT 7000 -RA SCT018 BKN020 28/23 Q1015 NOSIG=
METAR WAFF 020200Z 18003KT 7000 SCT018 BKN020 28/23 Q1015 NOSIG=
METAR WAFF 020100Z 18003KT 7000 SCT019 27/23 Q1015 NOSIG=
METAR WAFF 020000Z 20002KT 7000 SCT018 BKN020 26/24 Q1015 NOSIG=
METAR WAFF 012300Z 21003KT 6000 RA BKN020 26/24 Q1014 NOSIG=
METAR WAFF 012200Z 14004KT 6000 RA BKN019 26/23 Q1014 NOSIG=
METAR WAFF 012100Z 19003KT 7000 SCT019 26/24 Q1014 NOSIG=
METAR WAFF 012000Z 16002KT 7000 SCT019 27/24 Q1013 NOSIG=
METAR WAFF 011900Z 19002KT 7000 SCT019 27/24 Q1012 NOSIG=
METAR WAFF 011800Z 20002KT 7000 SCT019 27/24 Q1013 NOSIG=
METAR WAFF 011600Z 05002KT 6000 RA SCT019 28/24 Q1014 NOSIG=
METAR WAFF 011500Z 32004KT 7000 SCT019 29/24 Q1014 NOSIG=
METAR WAFF 011400Z 30002KT 7000 SCT019 29/24 Q1014 NOSIG=
METAR WAFF 011300Z 35004KT 7000 SCT019 29/24 Q1013 NOSIG=
METAR WAFF 011200Z 32006KT 8000 SCT019 30/25 Q1013 NOSIG=
METAR WAFF 011100Z 34009KT 8000 FEW018CB BKN020 29/25 Q1012 RMK CB TO NW=
METAR WAFF 011000Z 33011KT 8000 SCT018 BKN020 30/25 Q1011 NOSIG=
METAR WAFF 010900Z 34009KT 9000 SCT019TCU 31/25 Q1010 RMK TCU TO S=
METAR WAFF 010800Z 33012KT 9000 SCT019 32/24 Q1010 NOSIG=
METAR WAFF 010700Z 32014KT 9999 SCT019 33/24 Q1010 NOSIG=
METAR WAFF 010600Z 32012KT 9999 FEW018 SCT020 35/23 Q1010 NOSIG=
METAR WAFF 010500Z 33013KT 9999 FEW020 34/22 Q1011 NOSIG=
METAR WAFF 010400Z 30008KT 9999 FEW020 35/22 Q1012 NOSIG=
METAR WAFF 010300Z 28004KT 9999 FEW020 34/22 Q1013 NOSIG=
METAR WAFF 010200Z 13003KT 9999 FEW020 31/24 Q1014 NOSIG=
METAR WAFF 010100Z 18003KT 9999 FEW020 29/23 Q1014 NOSIG=
METAR WAFF 010000Z 13002KT 9999 FEW020 27/24 Q1015 NOSIG=
METAR WAFF 022300Z 09002KT 6000 SCT019 25/24 Q1014 NOSIG=
METAR WAFF 022200Z 14002KT 6000 SCT019 25/24 Q1013 NOSIG=
METAR WAFF 022100Z 17002KT 5000 SCT019 25/24 Q1013 NOSIG=
METAR WAFF 021800Z 15003KT 5000 -RA SCT019 25/24 Q1013=
METAR WAFF 021500Z 13002KT 6000 -RA SCT019 27/25 Q1014=
METAR WAFF 021430Z 32005KT 5000 -RA BKN018 28/25 Q1015=
METAR WAFF 021400Z 32005KT 7000 FEW020 28/25 Q1015=
METAR WAFF 021300Z 34003KT 7000 FEW020 28/25 Q1014=
METAR WAFF 021200Z 33006KT 7000 FEWCB018 SCT019 28/25 Q1013 RMK CB TO N E=
METAR WAFF 021000Z 32009KT 8000 FEW018CB SCT020 29/24 Q1012 RMK CB TO E=
METAR WAFF 020900Z 32010KT 9999 SCT020 30/24 Q1011 NOSIG=
METAR WAFF 020800Z 33010KT 9999 FEW018CB SCT020 31/24 Q1010 RMK CB TO E=
METAR WAFF 020700Z 33012KT 9999 FEW018CB SCT020 31/23 Q1010 RMK CB TO E=
METAR WAFF 020600Z 33014KT 9999 TS FEW018CB SCT020 32/23 Q1011 RMK CB TO E=
METAR WAFF 020500Z 33011KT 8000 SCT019 34/23 Q1012 NOSIG=
METAR WAFF 020400Z 07002KT 8000 SCT019 32/23 Q1013 NOSIG=
METAR WAFF 020300Z 00000KT 7000 SCT019 29/24 Q1015 RMK RERA=
METAR WAFF 020205Z 18003KT 7000 -RA SCT018 BKN020 28/23 Q1015 NOSIG=
METAR WAFF 020200Z 18003KT 7000 SCT018 BKN020 28/23 Q1015 NOSIG=
METAR WAFF 020100Z 18003KT 7000 SCT019 27/23 Q1015 NOSIG=
METAR WAFF 020000Z 20002KT 7000 SCT018 BKN020 26/24 Q1015 NOSIG=
METAR WAFF 012300Z 21003KT 6000 RA BKN020 26/24 Q1014 NOSIG=
METAR WAFF 012200Z 14004KT 6000 RA BKN019 26/23 Q1014 NOSIG=
METAR WAFF 012100Z 19003KT 7000 SCT019 26/24 Q1014 NOSIG=
METAR WAFF 012000Z 16002KT 7000 SCT019 27/24 Q1013 NOSIG=
METAR WAFF 011900Z 19002KT 7000 SCT019 27/24 Q1012 NOSIG=
METAR WAFF 011800Z 20002KT 7000 SCT019 27/24 Q1013 NOSIG=
METAR WAFF 011600Z 05002KT 6000 RA SCT019 28/24 Q1014 NOSIG=
METAR WAFF 011500Z 32004KT 7000 SCT019 29/24 Q1014 NOSIG=
METAR WAFF 011400Z 30002KT 7000 SCT019 29/24 Q1014 NOSIG=
METAR WAFF 011300Z 35004KT 7000 SCT019 29/24 Q1013 NOSIG=
METAR WAFF 011200Z 32006KT 8000 SCT019 30/25 Q1013 NOSIG=
METAR WAFF 011100Z 34009KT 8000 FEW018CB BKN020 29/25 Q1012 RMK CB TO NW=
METAR WAFF 011000Z 33011KT 8000 SCT018 BKN020 30/25 Q1011 NOSIG=
METAR WAFF 010900Z 34009KT 9000 SCT019TCU 31/25 Q1010 RMK TCU TO S=
METAR WAFF 010800Z 33012KT 9000 SCT019 32/24 Q1010 NOSIG=
METAR WAFF 010700Z 32014KT 9999 SCT019 33/24 Q1010 NOSIG=
METAR WAFF 010600Z 32012KT 9999 FEW018 SCT020 35/23 Q1010 NOSIG=
METAR WAFF 010500Z 33013KT 9999 FEW020 34/22 Q1011 NOSIG=
METAR WAFF 010400Z 30008KT 9999 FEW020 35/22 Q1012 NOSIG=
METAR WAFF 010300Z 28004KT 9999 FEW020 34/22 Q1013 NOSIG=
METAR WAFF 010200Z 13003KT 9999 FEW020 31/24 Q1014 NOSIG=
METAR WAFF 010100Z 18003KT 9999 FEW020 29/23 Q1014 NOSIG=
METAR WAFF 010000Z 13002KT 9999 FEW020 27/24 Q1015 NOSIG=
METAR WAFF 022300Z 09002KT 6000 SCT019 25/24 Q1014 NOSIG=
METAR WAFF 022200Z 14002KT 6000 SCT019 25/24 Q1013 NOSIG=
METAR WAFF 022100Z 17002KT 5000 SCT019 25/24 Q1013 NOSIG=
METAR WAFF 021800Z 15003KT 5000 -RA SCT019 25/24 Q1013=
METAR WAFF 021500Z 13002KT 6000 -RA SCT019 27/25 Q1014=
METAR WAFF 021430Z 32005KT 5000 -RA BKN018 28/25 Q1015=
METAR WAFF 021400Z 32005KT 7000 FEW020 28/25 Q1015=
METAR WAFF 021300Z 34003KT 7000 FEW020 28/25 Q1014=
METAR WAFF 021200Z 33006KT 7000 FEWCB018 SCT019 28/25 Q1013 RMK CB TO N E=
METAR WAFF 021000Z 32009KT 8000 FEW018CB SCT020 29/24 Q1012 RMK CB TO E=
METAR WAFF 020900Z 32010KT 9999 SCT020 30/24 Q1011 NOSIG=
METAR WAFF 020800Z 33010KT 9999 FEW018CB SCT020 31/24 Q1010 RMK CB TO E=
METAR WAFF 020700Z 33012KT 9999 FEW018CB SCT020 31/23 Q1010 RMK CB TO E=
METAR WAFF 020600Z 33014KT 9999 TS FEW018CB SCT020 32/23 Q1011 RMK CB TO E=
METAR WAFF 020500Z 33011KT 8000 SCT019 34/23 Q1012 NOSIG=
METAR WAFF 020400Z 07002KT 8000 SCT019 32/23 Q1013 NOSIG=
METAR WAFF 020300Z 00000KT 7000 SCT019 29/24 Q1015 RMK RERA=
METAR WAFF 020205Z 18003KT 7000 -RA SCT018 BKN020 28/23 Q1015 NOSIG=
METAR WAFF 020200Z 18003KT 7000 SCT018 BKN020 28/23 Q1015 NOSIG=
METAR WAFF 020100Z 18003KT 7000 SCT019 27/23 Q1015 NOSIG=
METAR WAFF 020000Z 20002KT 7000 SCT018 BKN020 26/24 Q1015 NOSIG=
METAR WAFF 012300Z 21003KT 6000 RA BKN020 26/24 Q1014 NOSIG=
METAR WAFF 012200Z 14004KT 6000 RA BKN019 26/23 Q1014 NOSIG=
METAR WAFF 012100Z 19003KT 7000 SCT019 26/24 Q1014 NOSIG=
METAR WAFF 012000Z 16002KT 7000 SCT019 27/24 Q1013 NOSIG=
METAR WAFF 011900Z 19002KT 7000 SCT019 27/24 Q1012 NOSIG=
METAR WAFF 011800Z 20002KT 7000 SCT019 27/24 Q1013 NOSIG=
METAR WAFF 011600Z 05002KT 6000 RA SCT019 28/24 Q1014 NOSIG=
METAR WAFF 011500Z 32004KT 7000 SCT019 29/24 Q1014 NOSIG=
METAR WAFF 011400Z 30002KT 7000 SCT019 29/24 Q1014 NOSIG=
METAR WAFF 011300Z 35004KT 7000 SCT019 29/24 Q1013 NOSIG=
METAR WAFF 011200Z 32006KT 8000 SCT019 30/25 Q1013 NOSIG=
METAR WAFF 011100Z 34009KT 8000 FEW018CB BKN020 29/25 Q1012 RMK CB TO NW=
METAR WAFF 011000Z 33011KT 8000 SCT018 BKN020 30/25 Q1011 NOSIG=
METAR WAFF 010900Z 34009KT 9000 SCT019TCU 31/25 Q1010 RMK TCU TO S=
METAR WAFF 010800Z 33012KT 9000 SCT019 32/24 Q1010 NOSIG=
METAR WAFF 010700Z 32014KT 9999 SCT019 33/24 Q1010 NOSIG=
METAR WAFF 010600Z 32012KT 9999 FEW018 SCT020 35/23 Q1010 NOSIG=
METAR WAFF 010500Z 33013KT 9999 FEW020 34/22 Q1011 NOSIG=
METAR WAFF 010400Z 30008KT 9999 FEW020 35/22 Q1012 NOSIG=
METAR WAFF 010300Z 28004KT 9999 FEW020 34/22 Q1013 NOSIG=
METAR WAFF 010200Z 13003KT 9999 FEW020 31/24 Q1014 NOSIG=
METAR WAFF 010100Z 18003KT 9999 FEW020 29/23 Q1014 NOSIG=
METAR WAFF 010000Z 13002KT 9999 FEW020 27/24 Q1015 NOSIG=
METAR WAFF 022300Z 09002KT 6000 SCT019 25/24 Q1014 NOSIG=
METAR WAFF 022200Z 14002KT 6000 SCT019 25/24 Q1013 NOSIG=
METAR WAFF 022100Z 17002KT 5000 SCT019 25/24 Q1013 NOSIG=
METAR WAFF 021800Z 15003KT 5000 -RA SCT019 25/24 Q1013=
METAR WAFF 021500Z 13002KT 6000 -RA SCT019 27/25 Q1014=
METAR WAFF 021430Z 32005KT 5000 -RA BKN018 28/25 Q1015=
METAR WAFF 021400Z 32005KT 7000 FEW020 28/25 Q1015=
METAR WAFF 021300Z 34003KT 7000 FEW020 28/25 Q1014=
METAR WAFF 021200Z 33006KT 7000 FEWCB018 SCT019 28/25 Q1013 RMK CB TO N E=
METAR WAFF 021000Z 32009KT 8000 FEW018CB SCT020 29/24 Q1012 RMK CB TO E=
METAR WAFF 020900Z 32010KT 9999 SCT020 30/24 Q1011 NOSIG=
METAR WAFF 020800Z 33010KT 9999 FEW018CB SCT020 31/24 Q1010 RMK CB TO E=
METAR WAFF 020700Z 33012KT 9999 FEW018CB SCT020 31/23 Q1010 RMK CB TO E=
METAR WAFF 020600Z 33014KT 9999 TS FEW018CB SCT020 32/23 Q1011 RMK CB TO E=
METAR WAFF 020500Z 33011KT 8000 SCT019 34/23 Q1012 NOSIG=
METAR WAFF 020400Z 07002KT 8000 SCT019 32/23 Q1013 NOSIG=
METAR WAFF 020300Z 00000KT 7000 SCT019 29/24 Q1015 RMK RERA=
METAR WAFF 020205Z 18003KT 7000 -RA SCT018 BKN020 28/23 Q1015 NOSIG=
METAR WAFF 020200Z 18003KT 7000 SCT018 BKN020 28/23 Q1015 NOSIG=
METAR WAFF 020100Z 18003KT 7000 SCT019 27/23 Q1015 NOSIG=
METAR WAFF 020000Z 20002KT 7000 SCT018 BKN020 26/24 Q1015 NOSIG=
METAR WAFF 012300Z 21003KT 6000 RA BKN020 26/24 Q1014 NOSIG=
METAR WAFF 012200Z 14004KT 6000 RA BKN019 26/23 Q1014 NOSIG=
METAR WAFF 012100Z 19003KT 7000 SCT019 26/24 Q1014 NOSIG=
METAR WAFF 012000Z 16002KT 7000 SCT019 27/24 Q1013 NOSIG=
METAR WAFF 011900Z 19002KT 7000 SCT019 27/24 Q1012 NOSIG=
METAR WAFF 011800Z 20002KT 7000 SCT019 27/24 Q1013 NOSIG=
METAR WAFF 011600Z 05002KT 6000 RA SCT019 28/24 Q1014 NOSIG=
METAR WAFF 011500Z 32004KT 7000 SCT019 29/24 Q1014 NOSIG=
METAR WAFF 011400Z 30002KT 7000 SCT019 29/24 Q1014 NOSIG=
METAR WAFF 011300Z 35004KT 7000 SCT019 29/24 Q1013 NOSIG=
METAR WAFF 011200Z 32006KT 8000 SCT019 30/25 Q1013 NOSIG=
METAR WAFF 011100Z 34009KT 8000 FEW018CB BKN020 29/25 Q1012 RMK CB TO NW=
METAR WAFF 011000Z 33011KT 8000 SCT018 BKN020 30/25 Q1011 NOSIG=
METAR WAFF 010900Z 34009KT 9000 SCT019TCU 31/25 Q1010 RMK TCU TO S=
METAR WAFF 010800Z 33012KT 9000 SCT019 32/24 Q1010 NOSIG=
METAR WAFF 010700Z 32014KT 9999 SCT019 33/24 Q1010 NOSIG=
METAR WAFF 010600Z 32012KT 9999 FEW018 SCT020 35/23 Q1010 NOSIG=
METAR WAFF 010500Z 33013KT 9999 FEW020 34/22 Q1011 NOSIG=
METAR WAFF 010400Z 30008KT 9999 FEW020 35/22 Q1012 NOSIG=
METAR WAFF 010300Z 28004KT 9999 FEW020 34/22 Q1013 NOSIG=
METAR WAFF 010200Z 13003KT 9999 FEW020 31/24 Q1014 NOSIG=
METAR WAFF 010100Z 18003KT 9999 FEW020 29/23 Q1014 NOSIG=
METAR WAFF 010000Z 13002KT 9999 FEW020 27/24 Q1015 NOSIG=
METAR WAFF 022300Z 09002KT 6000 SCT019 25/24 Q1014 NOSIG=
METAR WAFF 022200Z 14002KT 6000 SCT019 25/24 Q1013 NOSIG=
METAR WAFF 022100Z 17002KT 5000 SCT019 25/24 Q1013 NOSIG=
METAR WAFF 021800Z 15003KT 5000 -RA SCT019 25/24 Q1013=
METAR WAFF 021500Z 13002KT 6000 -RA SCT019 27/25 Q1014=
METAR WAFF 021430Z 32005KT 5000 -RA BKN018 28/25 Q1015=
METAR WAFF 021400Z 32005KT 7000 FEW020 28/25 Q1015=
METAR WAFF 021300Z 34003KT 7000 FEW020 28/25 Q1014=
METAR WAFF 021200Z 33006KT 7000 FEWCB018 SCT019 28/25 Q1013 RMK CB TO N E=
METAR WAFF 021000Z 32009KT 8000 FEW018CB SCT020 29/24 Q1012 RMK CB TO E=
METAR WAFF 020900Z 32010KT 9999 SCT020 30/24 Q1011 NOSIG=
METAR WAFF 020800Z 33010KT 9999 FEW018CB SCT020 31/24 Q1010 RMK CB TO E=
METAR WAFF 020700Z 33012KT 9999 FEW018CB SCT020 31/23 Q1010 RMK CB TO E=
METAR WAFF 020600Z 33014KT 9999 TS FEW018CB SCT020 32/23 Q1011 RMK CB TO E=
METAR WAFF 020500Z 33011KT 8000 SCT019 34/23 Q1012 NOSIG=
METAR WAFF 020400Z 07002KT 8000 SCT019 32/23 Q1013 NOSIG=
METAR WAFF 020300Z 00000KT 7000 SCT019 29/24 Q1015 RMK RERA=
METAR WAFF 020205Z 18003KT 7000 -RA SCT018 BKN020 28/23 Q1015 NOSIG=
METAR WAFF 020200Z 18003KT 7000 SCT018 BKN020 28/23 Q1015 NOSIG=
METAR WAFF 020100Z 18003KT 7000 SCT019 27/23 Q1015 NOSIG=
METAR WAFF 020000Z 20002KT 7000 SCT018 BKN020 26/24 Q1015 NOSIG=
METAR WAFF 012300Z 21003KT 6000 RA BKN020 26/24 Q1014 NOSIG=
METAR WAFF 012200Z 14004KT 6000 RA BKN019 26/23 Q1014 NOSIG=
METAR WAFF 012100Z 19003KT 7000 SCT019 26/24 Q1014 NOSIG=
METAR WAFF 012000Z 16002KT 7000 SCT019 27/24 Q1013 NOSIG=
METAR WAFF 011900Z 19002KT 7000 SCT019 27/24 Q1012 NOSIG=
METAR WAFF 011800Z 20002KT 7000 SCT019 27/24 Q1013 NOSIG=
METAR WAFF 011600Z 05002KT 6000 RA SCT019 28/24 Q1014 NOSIG=
METAR WAFF 011500Z 32004KT 7000 SCT019 29/24 Q1014 NOSIG=
METAR WAFF 011400Z 30002KT 7000 SCT019 29/24 Q1014 NOSIG=
METAR WAFF 011300Z 35004KT 7000 SCT019 29/24 Q1013 NOSIG=
METAR WAFF 011200Z 32006KT 8000 SCT019 30/25 Q1013 NOSIG=
METAR WAFF 011100Z 34009KT 8000 FEW018CB BKN020 29/25 Q1012 RMK CB TO NW=
METAR WAFF 011000Z 33011KT 8000 SCT018 BKN020 30/25 Q1011 NOSIG=
METAR WAFF 010900Z 34009KT 9000 SCT019TCU 31/25 Q1010 RMK TCU TO S=
METAR WAFF 010800Z 33012KT 9000 SCT019 32/24 Q1010 NOSIG=
METAR WAFF 010700Z 32014KT 9999 SCT019 33/24 Q1010 NOSIG=
METAR WAFF 010600Z 32012KT 9999 FEW018 SCT020 35/23 Q1010 NOSIG=
METAR WAFF 010500Z 33013KT 9999 FEW020 34/22 Q1011 NOSIG=
METAR WAFF 010400Z 30008KT 9999 FEW020 35/22 Q1012 NOSIG=
METAR WAFF 010300Z 28004KT 9999 FEW020 34/22 Q1013 NOSIG=
METAR WAFF 010200Z 13003KT 9999 FEW020 31/24 Q1014 NOSIG=
METAR WAFF 010100Z 18003KT 9999 FEW020 29/23 Q1014 NOSIG=
METAR WAFF 010000Z 13002KT 9999 FEW020 27/24 Q1015 NOSIG=
METAR WAFF 022300Z 09002KT 6000 SCT019 25/24 Q1014 NOSIG=
METAR WAFF 022200Z 14002KT 6000 SCT019 25/24 Q1013 NOSIG=
METAR WAFF 022100Z 17002KT 5000 SCT019 25/24 Q1013 NOSIG=
METAR WAFF 021800Z 15003KT 5000 -RA SCT019 25/24 Q1013=
METAR WAFF 021500Z 13002KT 6000 -RA SCT019 27/25 Q1014=
METAR WAFF 021430Z 32005KT 5000 -RA BKN018 28/25 Q1015=
METAR WAFF 021400Z 32005KT 7000 FEW020 28/25 Q1015=
METAR WAFF 021300Z 34003KT 7000 FEW020 28/25 Q1014=
METAR WAFF 021200Z 33006KT 7000 FEWCB018 SCT019 28/25 Q1013 RMK CB TO N E=
METAR WAFF 021000Z 32009KT 8000 FEW018CB SCT020 29/24 Q1012 RMK CB TO E=
METAR WAFF 020900Z 32010KT 9999 SCT020 30/24 Q1011 NOSIG=
METAR WAFF 020800Z 33010KT 9999 FEW018CB SCT020 31/24 Q1010 RMK CB TO E=
METAR WAFF 020700Z 33012KT 9999 FEW018CB SCT020 31/23 Q1010 RMK CB TO E=
METAR WAFF 020600Z 33014KT 9999 TS FEW018CB SCT020 32/23 Q1011 RMK CB TO E=
METAR WAFF 020500Z 33011KT 8000 SCT019 34/23 Q1012 NOSIG=
METAR WAFF 020400Z 07002KT 8000 SCT019 32/23 Q1013 NOSIG=
METAR WAFF 020300Z 00000KT 7000 SCT019 29/24 Q1015 RMK RERA=
METAR WAFF 020205Z 18003KT 7000 -RA SCT018 BKN020 28/23 Q1015 NOSIG=
METAR WAFF 020200Z 18003KT 7000 SCT018 BKN020 28/23 Q1015 NOSIG=
METAR WAFF 020100Z 18003KT 7000 SCT019 27/23 Q1015 NOSIG=
METAR WAFF 020000Z 20002KT 7000 SCT018 BKN020 26/24 Q1015 NOSIG=
METAR WAFF 012300Z 21003KT 6000 RA BKN020 26/24 Q1014 NOSIG=
METAR WAFF 012200Z 14004KT 6000 RA BKN019 26/23 Q1014 NOSIG=
METAR WAFF 012100Z 19003KT 7000 SCT019 26/24 Q1014 NOSIG=
METAR WAFF 012000Z 16002KT 7000 SCT019 27/24 Q1013 NOSIG=
METAR WAFF 011900Z 19002KT 7000 SCT019 27/24 Q1012 NOSIG=
METAR WAFF 011800Z 20002KT 7000 SCT019 27/24 Q1013 NOSIG=
METAR WAFF 011600Z 05002KT 6000 RA SCT019 28/24 Q1014 NOSIG=
METAR WAFF 011500Z 32004KT 7000 SCT019 29/24 Q1014 NOSIG=
METAR WAFF 011400Z 30002KT 7000 SCT019 29/24 Q1014 NOSIG=
METAR WAFF 011300Z 35004KT 7000 SCT019 29/24 Q1013 NOSIG=
METAR WAFF 011200Z 32006KT 8000 SCT019 30/25 Q1013 NOSIG=
METAR WAFF 011100Z 34009KT 8000 FEW018CB BKN020 29/25 Q1012 RMK CB TO NW=
METAR WAFF 011000Z 33011KT 8000 SCT018 BKN020 30/25 Q1011 NOSIG=
METAR WAFF 010900Z 34009KT 9000 SCT019TCU 31/25 Q1010 RMK TCU TO S=
METAR WAFF 010800Z 33012KT 9000 SCT019 32/24 Q1010 NOSIG=
METAR WAFF 010700Z 32014KT 9999 SCT019 33/24 Q1010 NOSIG=
METAR WAFF 010600Z 32012KT 9999 FEW018 SCT020 35/23 Q1010 NOSIG=
METAR WAFF 010500Z 33013KT 9999 FEW020 34/22 Q1011 NOSIG=
METAR WAFF 010400Z 30008KT 9999 FEW020 35/22 Q1012 NOSIG=
METAR WAFF 010300Z 28004KT 9999 FEW020 34/22 Q1013 NOSIG=
METAR WAFF 010200Z 13003KT 9999 FEW020 31/24 Q1014 NOSIG=
METAR WAFF 010100Z 18003KT 9999 FEW020 29/23 Q1014 NOSIG=
METAR WAFF 010000Z 13002KT 9999 FEW020 27/24 Q1015 NOSIG=
METAR WAFF 022300Z 09002KT 6000 SCT019 25/24 Q1014 NOSIG=
METAR WAFF 022200Z 14002KT 6000 SCT019 25/24 Q1013 NOSIG=
METAR WAFF 022100Z 17002KT 5000 SCT019 25/24 Q1013 NOSIG=
METAR WAFF 021800Z 15003KT 5000 -RA SCT019 25/24 Q1013=
METAR WAFF 021500Z 13002KT 6000 -RA SCT019 27/25 Q1014=
METAR WAFF 021430Z 32005KT 5000 -RA BKN018 28/25 Q1015=
METAR WAFF 021400Z 32005KT 7000 FEW020 28/25 Q1015=
METAR WAFF 021300Z 34003KT 7000 FEW020 28/25 Q1014=
METAR WAFF 021200Z 33006KT 7000 FEWCB018 SCT019 28/25 Q1013 RMK CB TO N E=
METAR WAFF 021000Z 32009KT 8000 FEW018CB SCT020 29/24 Q1012 RMK CB TO E=
METAR WAFF 020900Z 32010KT 9999 SCT020 30/24 Q1011 NOSIG=
METAR WAFF 020800Z 33010KT 9999 FEW018CB SCT020 31/24 Q1010 RMK CB TO E=
METAR WAFF 020700Z 33012KT 9999 FEW018CB SCT020 31/23 Q1010 RMK CB TO E=
METAR WAFF 020600Z 33014KT 9999 TS FEW018CB SCT020 32/23 Q1011 RMK CB TO E=
METAR WAFF 020500Z 33011KT 8000 SCT019 34/23 Q1012 NOSIG=
METAR WAFF 020400Z 07002KT 8000 SCT019 32/23 Q1013 NOSIG=
METAR WAFF 020300Z 00000KT 7000 SCT019 29/24 Q1015 RMK RERA=
METAR WAFF 020205Z 18003KT 7000 -RA SCT018 BKN020 28/23 Q1015 NOSIG=
METAR WAFF 020200Z 18003KT 7000 SCT018 BKN020 28/23 Q1015 NOSIG=
METAR WAFF 020100Z 18003KT 7000 SCT019 27/23 Q1015 NOSIG=
METAR WAFF 020000Z 20002KT 7000 SCT018 BKN020 26/24 Q1015 NOSIG=
METAR WAFF 012300Z 21003KT 6000 RA BKN020 26/24 Q1014 NOSIG=
METAR WAFF 012200Z 14004KT 6000 RA BKN019 26/23 Q1014 NOSIG=
METAR WAFF 012100Z 19003KT 7000 SCT019 26/24 Q1014 NOSIG=
METAR WAFF 012000Z 16002KT 7000 SCT019 27/24 Q1013 NOSIG=
METAR WAFF 011900Z 19002KT 7000 SCT019 27/24 Q1012 NOSIG=
METAR WAFF 011800Z 20002KT 7000 SCT019 27/24 Q1013 NOSIG=
METAR WAFF 011600Z 05002KT 6000 RA SCT019 28/24 Q1014 NOSIG=
METAR WAFF 011500Z 32004KT 7000 SCT019 29/24 Q1014 NOSIG=
METAR WAFF 011400Z 30002KT 7000 SCT019 29/24 Q1014 NOSIG=
METAR WAFF 011300Z 35004KT 7000 SCT019 29/24 Q1013 NOSIG=
METAR WAFF 011200Z 32006KT 8000 SCT019 30/25 Q1013 NOSIG=
METAR WAFF 011100Z 34009KT 8000 FEW018CB BKN020 29/25 Q1012 RMK CB TO NW=
METAR WAFF 011000Z 33011KT 8000 SCT018 BKN020 30/25 Q1011 NOSIG=
METAR WAFF 010900Z 34009KT 9000 SCT019TCU 31/25 Q1010 RMK TCU TO S=
METAR WAFF 010800Z 33012KT 9000 SCT019 32/24 Q1010 NOSIG=
METAR WAFF 010700Z 32014KT 9999 SCT019 33/24 Q1010 NOSIG=
METAR WAFF 010600Z 32012KT 9999 FEW018 SCT020 35/23 Q1010 NOSIG=
METAR WAFF 010500Z 33013KT 9999 FEW020 34/22 Q1011 NOSIG=
METAR WAFF 010400Z 30008KT 9999 FEW020 35/22 Q1012 NOSIG=
METAR WAFF 010300Z 28004KT 9999 FEW020 34/22 Q1013 NOSIG=
METAR WAFF 010200Z 13003KT 9999 FEW020 31/24 Q1014 NOSIG=
METAR WAFF 010100Z 18003KT 9999 FEW020 29/23 Q1014 NOSIG=
METAR WAFF 010000Z 13002KT 9999 FEW020 27/24 Q1015 NOSIG=
METAR WAFF 022300Z 09002KT 6000 SCT019 25/24 Q1014 NOSIG=
METAR WAFF 022200Z 14002KT 6000 SCT019 25/24 Q1013 NOSIG=
METAR WAFF 022100Z 17002KT 5000 SCT019 25/24 Q1013 NOSIG=
METAR WAFF 021800Z 15003KT 5000 -RA SCT019 25/24 Q1013=
METAR WAFF 021500Z 13002KT 6000 -RA SCT019 27/25 Q1014=
METAR WAFF 021430Z 32005KT 5000 -RA BKN018 28/25 Q1015=
METAR WAFF 021400Z 32005KT 7000 FEW020 28/25 Q1015=
METAR WAFF 021300Z 34003KT 7000 FEW020 28/25 Q1014=
METAR WAFF 021200Z 33006KT 7000 FEWCB018 SCT019 28/25 Q1013 RMK CB TO N E=
METAR WAFF 021000Z 32009KT 8000 FEW018CB SCT020 29/24 Q1012 RMK CB TO E=
METAR WAFF 020900Z 32010KT 9999 SCT020 30/24 Q1011 NOSIG=
METAR WAFF 020800Z 33010KT 9999 FEW018CB SCT020 31/24 Q1010 RMK CB TO E=
METAR WAFF 020700Z 33012KT 9999 FEW018CB SCT020 31/23 Q1010 RMK CB TO E=
METAR WAFF 020600Z 33014KT 9999 TS FEW018CB SCT020 32/23 Q1011 RMK CB TO E=
METAR WAFF 020500Z 33011KT 8000 SCT019 34/23 Q1012 NOSIG=
METAR WAFF 020400Z 07002KT 8000 SCT019 32/23 Q1013 NOSIG=
METAR WAFF 020300Z 00000KT 7000 SCT019 29/24 Q1015 RMK RERA=
METAR WAFF 020205Z 18003KT 7000 -RA SCT018 BKN020 28/23 Q1015 NOSIG=
METAR WAFF 020200Z 18003KT 7000 SCT018 BKN020 28/23 Q1015 NOSIG=
METAR WAFF 020100Z 18003KT 7000 SCT019 27/23 Q1015 NOSIG=
METAR WAFF 020000Z 20002KT 7000 SCT018 BKN020 26/24 Q1015 NOSIG=
METAR WAFF 012300Z 21003KT 6000 RA BKN020 26/24 Q1014 NOSIG=
METAR WAFF 012200Z 14004KT 6000 RA BKN019 26/23 Q1014 NOSIG=
METAR WAFF 012100Z 19003KT 7000 SCT019 26/24 Q1014 NOSIG=
METAR WAFF 012000Z 16002KT 7000 SCT019 27/24 Q1013 NOSIG=
METAR WAFF 011900Z 19002KT 7000 SCT019 27/24 Q1012 NOSIG=
METAR WAFF 011800Z 20002KT 7000 SCT019 27/24 Q1013 NOSIG=
METAR WAFF 011600Z 05002KT 6000 RA SCT019 28/24 Q1014 NOSIG=
METAR WAFF 011500Z 32004KT 7000 SCT019 29/24 Q1014 NOSIG=
METAR WAFF 011400Z 30002KT 7000 SCT019 29/24 Q1014 NOSIG=
METAR WAFF 011300Z 35004KT 7000 SCT019 29/24 Q1013 NOSIG=
METAR WAFF 011200Z 32006KT 8000 SCT019 30/25 Q1013 NOSIG=
METAR WAFF 011100Z 34009KT 8000 FEW018CB BKN020 29/25 Q1012 RMK CB TO NW=
METAR WAFF 011000Z 33011KT 8000 SCT018 BKN020 30/25 Q1011 NOSIG=
METAR WAFF 010900Z 34009KT 9000 SCT019TCU 31/25 Q1010 RMK TCU TO S=
METAR WAFF 010800Z 33012KT 9000 SCT019 32/24 Q1010 NOSIG=
METAR WAFF 010700Z 32014KT 9999 SCT019 33/24 Q1010 NOSIG=
METAR WAFF 010600Z 32012KT 9999 FEW018 SCT020 35/23 Q1010 NOSIG=
METAR WAFF 010500Z 33013KT 9999 FEW020 34/22 Q1011 NOSIG=
METAR WAFF 010400Z 30008KT 9999 FEW020 35/22 Q1012 NOSIG=
METAR WAFF 010300Z 28004KT 9999 FEW020 34/22 Q1013 NOSIG=
METAR WAFF 010200Z 13003KT 9999 FEW020 31/24 Q1014 NOSIG=
METAR WAFF 010100Z 18003KT 9999 FEW020 29/23 Q1014 NOSIG=
METAR WAFF 010000Z 13002KT 9999 FEW020 27/24 Q1015 NOSIG=
METAR WAFF 022300Z 09002KT 6000 SCT019 25/24 Q1014 NOSIG=
METAR WAFF 022200Z 14002KT 6000 SCT019 25/24 Q1013 NOSIG=
METAR WAFF 022100Z 17002KT 5000 SCT019 25/24 Q1013 NOSIG=
METAR WAFF 021800Z 15003KT 5000 -RA SCT019 25/24 Q1013=
METAR WAFF 021500Z 13002KT 6000 -RA SCT019 27/25 Q1014=
METAR WAFF 021430Z 32005KT 5000 -RA BKN018 28/25 Q1015=
METAR WAFF 021400Z 32005KT 7000 FEW020 28/25 Q1015=
METAR WAFF 021300Z 34003KT 7000 FEW020 28/25 Q1014=
METAR WAFF 021200Z 33006KT 7000 FEWCB018 SCT019 28/25 Q1013 RMK CB TO N E=
METAR WAFF 021000Z 32009KT 8000 FEW018CB SCT020 29/24 Q1012 RMK CB TO E=
METAR WAFF 020900Z 32010KT 9999 SCT020 30/24 Q1011 NOSIG=
METAR WAFF 020800Z 33010KT 9999 FEW018CB SCT020 31/24 Q1010 RMK CB TO E=
METAR WAFF 020700Z 33012KT 9999 FEW018CB SCT020 31/23 Q1010 RMK CB TO E=
METAR WAFF 020600Z 33014KT 9999 TS FEW018CB SCT020 32/23 Q1011 RMK CB TO E=
METAR WAFF 020500Z 33011KT 8000 SCT019 34/23 Q1012 NOSIG=
METAR WAFF 020400Z 07002KT 8000 SCT019 32/23 Q1013 NOSIG=
METAR WAFF 020300Z 00000KT 7000 SCT019 29/24 Q1015 RMK RERA=
METAR WAFF 020205Z 18003KT 7000 -RA SCT018 BKN020 28/23 Q1015 NOSIG=
METAR WAFF 020200Z 18003KT 7000 SCT018 BKN020 28/23 Q1015 NOSIG=
METAR WAFF 020100Z 18003KT 7000 SCT019 27/23 Q1015 NOSIG=
METAR WAFF 020000Z 20002KT 7000 SCT018 BKN020 26/24 Q1015 NOSIG=
METAR WAFF 012300Z 21003KT 6000 RA BKN020 26/24 Q1014 NOSIG=
METAR WAFF 012200Z 14004KT 6000 RA BKN019 26/23 Q1014 NOSIG=
METAR WAFF 012100Z 19003KT 7000 SCT019 26/24 Q1014 NOSIG=
METAR WAFF 012000Z 16002KT 7000 SCT019 27/24 Q1013 NOSIG=
METAR WAFF 011900Z 19002KT 7000 SCT019 27/24 Q1012 NOSIG=
METAR WAFF 011800Z 20002KT 7000 SCT019 27/24 Q1013 NOSIG=
METAR WAFF 011600Z 05002KT 6000 RA SCT019 28/24 Q1014 NOSIG=
METAR WAFF 011500Z 32004KT 7000 SCT019 29/24 Q1014 NOSIG=
METAR WAFF 011400Z 30002KT 7000 SCT019 29/24 Q1014 NOSIG=
METAR WAFF 011300Z 35004KT 7000 SCT019 29/24 Q1013 NOSIG=
METAR WAFF 011200Z 32006KT 8000 SCT019 30/25 Q1013 NOSIG=
METAR WAFF 011100Z 34009KT 8000 FEW018CB BKN020 29/25 Q1012 RMK CB TO NW=
METAR WAFF 011000Z 33011KT 8000 SCT018 BKN020 30/25 Q1011 NOSIG=
METAR WAFF 010900Z 34009KT 9000 SCT019TCU 31/25 Q1010 RMK TCU TO S=
METAR WAFF 010800Z 33012KT 9000 SCT019 32/24 Q1010 NOSIG=
METAR WAFF 010700Z 32014KT 9999 SCT019 33/24 Q1010 NOSIG=
METAR WAFF 010600Z 32012KT 9999 FEW018 SCT020 35/23 Q1010 NOSIG=
METAR WAFF 010500Z 33013KT 9999 FEW020 34/22 Q1011 NOSIG=
METAR WAFF 010400Z 30008KT 9999 FEW020 35/22 Q1012 NOSIG=
METAR WAFF 010300Z 28004KT 9999 FEW020 34/22 Q1013 NOSIG=
METAR WAFF 010200Z 13003KT 9999 FEW020 31/24 Q1014 NOSIG=
METAR WAFF 010100Z 18003KT 9999 FEW020 29/23 Q1014 NOSIG=
METAR WAFF 010000Z 13002KT 9999 FEW020 27/24 Q1015 NOSIG=
METAR WAFF 022300Z 09002KT 6000 SCT019 25/24 Q1014 NOSIG=
METAR WAFF 022200Z 14002KT 6000 SCT019 25/24 Q1013 NOSIG=
METAR WAFF 022100Z 17002KT 5000 SCT019 25/24 Q1013 NOSIG=
METAR WAFF 021800Z 15003KT 5000 -RA SCT019 25/24 Q1013=
METAR WAFF 021500Z 13002KT 6000 -RA SCT019 27/25 Q1014=
METAR WAFF 021430Z 32005KT 5000 -RA BKN018 28/25 Q1015=
METAR WAFF 021400Z 32005KT 7000 FEW020 28/25 Q1015=
METAR WAFF 021300Z 34003KT 7000 FEW020 28/25 Q1014=
METAR WAFF 021200Z 33006KT 7000 FEWCB018 SCT019 28/25 Q1013 RMK CB TO N E=
METAR WAFF 021000Z 32009KT 8000 FEW018CB SCT020 29/24 Q1012 RMK CB TO E=
METAR WAFF 020900Z 32010KT 9999 SCT020 30/24 Q1011 NOSIG=
METAR WAFF 020800Z 33010KT 9999 FEW018CB SCT020 31/24 Q1010 RMK CB TO E=
METAR WAFF 020700Z 33012KT 9999 FEW018CB SCT020 31/23 Q1010 RMK CB TO E=
METAR WAFF 020600Z 33014KT 9999 TS FEW018CB SCT020 32/23 Q1011 RMK CB TO E=
METAR WAFF 020500Z 33011KT 8000 SCT019 34/23 Q1012 NOSIG=
METAR WAFF 020400Z 07002KT 8000 SCT019 32/23 Q1013 NOSIG=
METAR WAFF 020300Z 00000KT 7000 SCT019 29/24 Q1015 RMK RERA=
METAR WAFF 020205Z 18003KT 7000 -RA SCT018 BKN020 28/23 Q1015 NOSIG=
METAR WAFF 020200Z 18003KT 7000 SCT018 BKN020 28/23 Q1015 NOSIG=
METAR WAFF 020100Z 18003KT 7000 SCT019 27/23 Q1015 NOSIG=
METAR WAFF 020000Z 20002KT 7000 SCT018 BKN020 26/24 Q1015 NOSIG=
METAR WAFF 012300Z 21003KT 6000 RA BKN020 26/24 Q1014 NOSIG=
METAR WAFF 012200Z 14004KT 6000 RA BKN019 26/23 Q1014 NOSIG=
METAR WAFF 012100Z 19003KT 7000 SCT019 26/24 Q1014 NOSIG=
METAR WAFF 012000Z 16002KT 7000 SCT019 27/24 Q1013 NOSIG=
METAR WAFF 011900Z 19002KT 7000 SCT019 27/24 Q1012 NOSIG=
METAR WAFF 011800Z 20002KT 7000 SCT019 27/24 Q1013 NOSIG=
METAR WAFF 011600Z 05002KT 6000 RA SCT019 28/24 Q1014 NOSIG=
METAR WAFF 011500Z 32004KT 7000 SCT019 29/24 Q1014 NOSIG=
METAR WAFF 011400Z 30002KT 7000 SCT019 29/24 Q1014 NOSIG=
METAR WAFF 011300Z 35004KT 7000 SCT019 29/24 Q1013 NOSIG=
METAR WAFF 011200Z 32006KT 8000 SCT019 30/25 Q1013 NOSIG=
METAR WAFF 011100Z 34009KT 8000 FEW018CB BKN020 29/25 Q1012 RMK CB TO NW=
METAR WAFF 011000Z 33011KT 8000 SCT018 BKN020 30/25 Q1011 NOSIG=
METAR WAFF 010900Z 34009KT 9000 SCT019TCU 31/25 Q1010 RMK TCU TO S=
METAR WAFF 010800Z 33012KT 9000 SCT019 32/24 Q1010 NOSIG=
METAR WAFF 010700Z 32014KT 9999 SCT019 33/24 Q1010 NOSIG=
METAR WAFF 010600Z 32012KT 9999 FEW018 SCT020 35/23 Q1010 NOSIG=
METAR WAFF 010500Z 33013KT 9999 FEW020 34/22 Q1011 NOSIG=
METAR WAFF 010400Z 30008KT 9999 FEW020 35/22 Q1012 NOSIG=
METAR WAFF 010300Z 28004KT 9999 FEW020 34/22 Q1013 NOSIG=
METAR WAFF 010200Z 13003KT 9999 FEW020 31/24 Q1014 NOSIG=
METAR WAFF 010100Z 18003KT 9999 FEW020 29/23 Q1014 NOSIG=
METAR WAFF 010000Z 13002KT 9999 FEW020 27/24 Q1015 NOSIG=
METAR WAFF 022300Z 09002KT 6000 SCT019 25/24 Q1014 NOSIG=
METAR WAFF 022200Z 14002KT 6000 SCT019 25/24 Q1013 NOSIG=
METAR WAFF 022100Z 17002KT 5000 SCT019 25/24 Q1013 NOSIG=
METAR WAFF 021800Z 15003KT 5000 -RA SCT019 25/24 Q1013=
METAR WAFF 021500Z 13002KT 6000 -RA SCT019 27/25 Q1014=
METAR WAFF 021430Z 32005KT 5000 -RA BKN018 28/25 Q1015=
METAR WAFF 021400Z 32005KT 7000 FEW020 28/25 Q1015=
METAR WAFF 021300Z 34003KT 7000 FEW020 28/25 Q1014=
METAR WAFF 021200Z 33006KT 7000 FEWCB018 SCT019 28/25 Q1013 RMK CB TO N E=
METAR WAFF 021000Z 32009KT 8000 FEW018CB SCT020 29/24 Q1012 RMK CB TO E=
METAR WAFF 020900Z 32010KT 9999 SCT020 30/24 Q1011 NOSIG=
METAR WAFF 020800Z 33010KT 9999 FEW018CB SCT020 31/24 Q1010 RMK CB TO E=
METAR WAFF 020700Z 33012KT 9999 FEW018CB SCT020 31/23 Q1010 RMK CB TO E=
METAR WAFF 020600Z 33014KT 9999 TS FEW018CB SCT020 32/23 Q1011 RMK CB TO E=
METAR WAFF 020500Z 33011KT 8000 SCT019 34/23 Q1012 NOSIG=
METAR WAFF 020400Z 07002KT 8000 SCT019 32/23 Q1013 NOSIG=
METAR WAFF 020300Z 00000KT 7000 SCT019 29/24 Q1015 RMK RERA=
METAR WAFF 020205Z 18003KT 7000 -RA SCT018 BKN020 28/23 Q1015 NOSIG=
METAR WAFF 020200Z 18003KT 7000 SCT018 BKN020 28/23 Q1015 NOSIG=
METAR WAFF 020100Z 18003KT 7000 SCT019 27/23 Q1015 NOSIG=
METAR WAFF 020000Z 20002KT 7000 SCT018 BKN020 26/24 Q1015 NOSIG=
METAR WAFF 012300Z 21003KT 6000 RA BKN020 26/24 Q1014 NOSIG=
METAR WAFF 012200Z 14004KT 6000 RA BKN019 26/23 Q1014 NOSIG=
METAR WAFF 012100Z 19003KT 7000 SCT019 26/24 Q1014 NOSIG=
METAR WAFF 012000Z 16002KT 7000 SCT019 27/24 Q1013 NOSIG=
METAR WAFF 011900Z 19002KT 7000 SCT019 27/24 Q1012 NOSIG=
METAR WAFF 011800Z 20002KT 7000 SCT019 27/24 Q1013 NOSIG=
METAR WAFF 011600Z 05002KT 6000 RA SCT019 28/24 Q1014 NOSIG=
METAR WAFF 011500Z 32004KT 7000 SCT019 29/24 Q1014 NOSIG=
METAR WAFF 011400Z 30002KT 7000 SCT019 29/24 Q1014 NOSIG=
METAR WAFF 011300Z 35004KT 7000 SCT019 29/24 Q1013 NOSIG=
METAR WAFF 011200Z 32006KT 8000 SCT019 30/25 Q1013 NOSIG=
METAR WAFF 011100Z 34009KT 8000 FEW018CB BKN020 29/25 Q1012 RMK CB TO NW=
METAR WAFF 011000Z 33011KT 8000 SCT018 BKN020 30/25 Q1011 NOSIG=
METAR WAFF 010900Z 34009KT 9000 SCT019TCU 31/25 Q1010 RMK TCU TO S=
METAR WAFF 010800Z 33012KT 9000 SCT019 32/24 Q1010 NOSIG=
METAR WAFF 010700Z 32014KT 9999 SCT019 33/24 Q1010 NOSIG=
METAR WAFF 010600Z 32012KT 9999 FEW018 SCT020 35/23 Q1010 NOSIG=
METAR WAFF 010500Z 33013KT 9999 FEW020 34/22 Q1011 NOSIG=
METAR WAFF 010400Z 30008KT 9999 FEW020 35/22 Q1012 NOSIG=
METAR WAFF 010300Z 28004KT 9999 FEW020 34/22 Q1013 NOSIG=
METAR WAFF 010200Z 13003KT 9999 FEW020 31/24 Q1014 NOSIG=
METAR WAFF 010100Z 18003KT 9999 FEW020 29/23 Q1014 NOSIG=
METAR WAFF 010000Z 13002KT 9999 FEW020 27/24 Q1015 NOSIG=
METAR WAFF 022300Z 09002KT 6000 SCT019 25/24 Q1014 NOSIG=
METAR WAFF 022200Z 14002KT 6000 SCT019 25/24 Q1013 NOSIG=
METAR WAFF 022100Z 17002KT 5000 SCT019 25/24 Q1013 NOSIG=
METAR WAFF 021800Z 15003KT 5000 -RA SCT019 25/24 Q1013=
METAR WAFF 021500Z 13002KT 6000 -RA SCT019 27/25 Q1014=
METAR WAFF 021430Z 32005KT 5000 -RA BKN018 28/25 Q1015=
METAR WAFF 021400Z 32005KT 7000 FEW020 28/25 Q1015=
METAR WAFF 021300Z 34003KT 7000 FEW020 28/25 Q1014=
METAR WAFF 021200Z 33006KT 7000 FEWCB018 SCT019 28/25 Q1013 RMK CB TO N E=
METAR WAFF 021000Z 32009KT 8000 FEW018CB SCT020 29/24 Q1012 RMK CB TO E=
METAR WAFF 020900Z 32010KT 9999 SCT020 30/24 Q1011 NOSIG=
METAR WAFF 020800Z 33010KT 9999 FEW018CB SCT020 31/24 Q1010 RMK CB TO E=
METAR WAFF 020700Z 33012KT 9999 FEW018CB SCT020 31/23 Q1010 RMK CB TO E=
METAR WAFF 020600Z 33014KT 9999 TS FEW018CB SCT020 32/23 Q1011 RMK CB TO E=
METAR WAFF 020500Z 33011KT 8000 SCT019 34/23 Q1012 NOSIG=
METAR WAFF 020400Z 07002KT 8000 SCT019 32/23 Q1013 NOSIG=
METAR WAFF 020300Z 00000KT 7000 SCT019 29/24 Q1015 RMK RERA=
METAR WAFF 020205Z 18003KT 7000 -RA SCT018 BKN020 28/23 Q1015 NOSIG=
METAR WAFF 020200Z 18003KT 7000 SCT018 BKN020 28/23 Q1015 NOSIG=
METAR WAFF 020100Z 18003KT 7000 SCT019 27/23 Q1015 NOSIG=
METAR WAFF 020000Z 20002KT 7000 SCT018 BKN020 26/24 Q1015 NOSIG=
METAR WAFF 012300Z 21003KT 6000 RA BKN020 26/24 Q1014 NOSIG=
METAR WAFF 012200Z 14004KT 6000 RA BKN019 26/23 Q1014 NOSIG=
METAR WAFF 012100Z 19003KT 7000 SCT019 26/24 Q1014 NOSIG=
METAR WAFF 012000Z 16002KT 7000 SCT019 27/24 Q1013 NOSIG=
METAR WAFF 011900Z 19002KT 7000 SCT019 27/24 Q1012 NOSIG=
METAR WAFF 011800Z 20002KT 7000 SCT019 27/24 Q1013 NOSIG=
METAR WAFF 011600Z 05002KT 6000 RA SCT019 28/24 Q1014 NOSIG=
METAR WAFF 011500Z 32004KT 7000 SCT019 29/24 Q1014 NOSIG=
METAR WAFF 011400Z 30002KT 7000 SCT019 29/24 Q1014 NOSIG=
METAR WAFF 011300Z 35004KT 7000 SCT019 29/24 Q1013 NOSIG=
METAR WAFF 011200Z 32006KT 8000 SCT019 30/25 Q1013 NOSIG=
METAR WAFF 011100Z 34009KT 8000 FEW018CB BKN020 29/25 Q1012 RMK CB TO NW=
METAR WAFF 011000Z 33011KT 8000 SCT018 BKN020 30/25 Q1011 NOSIG=
METAR WAFF 010900Z 34009KT 9000 SCT019TCU 31/25 Q1010 RMK TCU TO S=
METAR WAFF 010800Z 33012KT 9000 SCT019 32/24 Q1010 NOSIG=
METAR WAFF 010700Z 32014KT 9999 SCT019 33/24 Q1010 NOSIG=
METAR WAFF 010600Z 32012KT 9999 FEW018 SCT020 35/23 Q1010 NOSIG=
METAR WAFF 010500Z 33013KT 9999 FEW020 34/22 Q1011 NOSIG=
METAR WAFF 010400Z 30008KT 9999 FEW020 35/22 Q1012 NOSIG=
METAR WAFF 010300Z 28004KT 9999 FEW020 34/22 Q1013 NOSIG=
METAR WAFF 010200Z 13003KT 9999 FEW020 31/24 Q1014 NOSIG=
METAR WAFF 010100Z 18003KT 9999 FEW020 29/23 Q1014 NOSIG=
METAR WAFF 010000Z 13002KT 9999 FEW020 27/24 Q1015 NOSIG=
METAR WAFF 022300Z 09002KT 6000 SCT019 25/24 Q1014 NOSIG=
METAR WAFF 022200Z 14002KT 6000 SCT019 25/24 Q1013 NOSIG=
METAR WAFF 022100Z 17002KT 5000 SCT019 25/24 Q1013 NOSIG=
METAR WAFF 021800Z 15003KT 5000 -RA SCT019 25/24 Q1013=
METAR WAFF 021500Z 13002KT 6000 -RA SCT019 27/25 Q1014=
METAR WAFF 021430Z 32005KT 5000 -RA BKN018 28/25 Q1015=
METAR WAFF 021400Z 32005KT 7000 FEW020 28/25 Q1015=
METAR WAFF 021300Z 34003KT 7000 FEW020 28/25 Q1014=
METAR WAFF 021200Z 33006KT 7000 FEWCB018 SCT019 28/25 Q1013 RMK CB TO N E=
METAR WAFF 021000Z 32009KT 8000 FEW018CB SCT020 29/24 Q1012 RMK CB TO E=
METAR WAFF 020900Z 32010KT 9999 SCT020 30/24 Q1011 NOSIG=
METAR WAFF 020800Z 33010KT 9999 FEW018CB SCT020 31/24 Q1010 RMK CB TO E=
METAR WAFF 020700Z 33012KT 9999 FEW018CB SCT020 31/23 Q1010 RMK CB TO E=
METAR WAFF 020600Z 33014KT 9999 TS FEW018CB SCT020 32/23 Q1011 RMK CB TO E=
METAR WAFF 020500Z 33011KT 8000 SCT019 34/23 Q1012 NOSIG=
METAR WAFF 020400Z 07002KT 8000 SCT019 32/23 Q1013 NOSIG=
METAR WAFF 020300Z 00000KT 7000 SCT019 29/24 Q1015 RMK RERA=
METAR WAFF 020205Z 18003KT 7000 -RA SCT018 BKN020 28/23 Q1015 NOSIG=
METAR WAFF 020200Z 18003KT 7000 SCT018 BKN020 28/23 Q1015 NOSIG=
METAR WAFF 020100Z 18003KT 7000 SCT019 27/23 Q1015 NOSIG=
METAR WAFF 020000Z 20002KT 7000 SCT018 BKN020 26/24 Q1015 NOSIG=
METAR WAFF 012300Z 21003KT 6000 RA BKN020 26/24 Q1014 NOSIG=
METAR WAFF 012200Z 14004KT 6000 RA BKN019 26/23 Q1014 NOSIG=
METAR WAFF 012100Z 19003KT 7000 SCT019 26/24 Q1014 NOSIG=
METAR WAFF 012000Z 16002KT 7000 SCT019 27/24 Q1013 NOSIG=
METAR WAFF 011900Z 19002KT 7000 SCT019 27/24 Q1012 NOSIG=
METAR WAFF 011800Z 20002KT 7000 SCT019 27/24 Q1013 NOSIG=
METAR WAFF 011600Z 05002KT 6000 RA SCT019 28/24 Q1014 NOSIG=
METAR WAFF 011500Z 32004KT 7000 SCT019 29/24 Q1014 NOSIG=
METAR WAFF 011400Z 30002KT 7000 SCT019 29/24 Q1014 NOSIG=
METAR WAFF 011300Z 35004KT 7000 SCT019 29/24 Q1013 NOSIG=
METAR WAFF 011200Z 32006KT 8000 SCT019 30/25 Q1013 NOSIG=
METAR WAFF 011100Z 34009KT 8000 FEW018CB BKN020 29/25 Q1012 RMK CB TO NW=
METAR WAFF 011000Z 33011KT 8000 SCT018 BKN020 30/25 Q1011 NOSIG=
METAR WAFF 010900Z 34009KT 9000 SCT019TCU 31/25 Q1010 RMK TCU TO S=
METAR WAFF 010800Z 33012KT 9000 SCT019 32/24 Q1010 NOSIG=
METAR WAFF 010700Z 32014KT 9999 SCT019 33/24 Q1010 NOSIG=
METAR WAFF 010600Z 32012KT 9999 FEW018 SCT020 35/23 Q1010 NOSIG=
METAR WAFF 010500Z 33013KT 9999 FEW020 34/22 Q1011 NOSIG=
METAR WAFF 010400Z 30008KT 9999 FEW020 35/22 Q1012 NOSIG=
METAR WAFF 010300Z 28004KT 9999 FEW020 34/22 Q1013 NOSIG=
METAR WAFF 010200Z 13003KT 9999 FEW020 31/24 Q1014 NOSIG=
METAR WAFF 010100Z 18003KT 9999 FEW020 29/23 Q1014 NOSIG=
METAR WAFF 010000Z 13002KT 9999 FEW020 27/24 Q1015 NOSIG=
METAR WAFF 022300Z 09002KT 6000 SCT019 25/24 Q1014 NOSIG=
METAR WAFF 022200Z 14002KT 6000 SCT019 25/24 Q1013 NOSIG=
METAR WAFF 022100Z 17002KT 5000 SCT019 25/24 Q1013 NOSIG=
METAR WAFF 021800Z 15003KT 5000 -RA SCT019 25/24 Q1013=
METAR WAFF 021500Z 13002KT 6000 -RA SCT019 27/25 Q1014=
METAR WAFF 021430Z 32005KT 5000 -RA BKN018 28/25 Q1015=
METAR WAFF 021400Z 32005KT 7000 FEW020 28/25 Q1015=
METAR WAFF 021300Z 34003KT 7000 FEW020 28/25 Q1014=
METAR WAFF 021200Z 33006KT 7000 FEWCB018 SCT019 28/25 Q1013 RMK CB TO N E=
METAR WAFF 021000Z 32009KT 8000 FEW018CB SCT020 29/24 Q1012 RMK CB TO E=
METAR WAFF 020900Z 32010KT 9999 SCT020 30/24 Q1011 NOSIG=
METAR WAFF 020800Z 33010KT 9999 FEW018CB SCT020 31/24 Q1010 RMK CB TO E=
METAR WAFF 020700Z 33012KT 9999 FEW018CB SCT020 31/23 Q1010 RMK CB TO E=
METAR WAFF 020600Z 33014KT 9999 TS FEW018CB SCT020 32/23 Q1011 RMK CB TO E=
METAR WAFF 020500Z 33011KT 8000 SCT019 34/23 Q1012 NOSIG=
METAR WAFF 020400Z 07002KT 8000 SCT019 32/23 Q1013 NOSIG=
METAR WAFF 020300Z 00000KT 7000 SCT019 29/24 Q1015 RMK RERA=
METAR WAFF 020205Z 18003KT 7000 -RA SCT018 BKN020 28/23 Q1015 NOSIG=
METAR WAFF 020200Z 18003KT 7000 SCT018 BKN020 28/23 Q1015 NOSIG=
METAR WAFF 020100Z 18003KT 7000 SCT019 27/23 Q1015 NOSIG=
METAR WAFF 020000Z 20002KT 7000 SCT018 BKN020 26/24 Q1015 NOSIG=
METAR WAFF 012300Z 21003KT 6000 RA BKN020 26/24 Q1014 NOSIG=
METAR WAFF 012200Z 14004KT 6000 RA BKN019 26/23 Q1014 NOSIG=
METAR WAFF 012100Z 19003KT 7000 SCT019 26/24 Q1014 NOSIG=
METAR WAFF 012000Z 16002KT 7000 SCT019 27/24 Q1013 NOSIG=
METAR WAFF 011900Z 19002KT 7000 SCT019 27/24 Q1012 NOSIG=
METAR WAFF 011800Z 20002KT 7000 SCT019 27/24 Q1013 NOSIG=
METAR WAFF 011600Z 05002KT 6000 RA SCT019 28/24 Q1014 NOSIG=
METAR WAFF 011500Z 32004KT 7000 SCT019 29/24 Q1014 NOSIG=
METAR WAFF 011400Z 30002KT 7000 SCT019 29/24 Q1014 NOSIG=
METAR WAFF 011300Z 35004KT 7000 SCT019 29/24 Q1013 NOSIG=
METAR WAFF 011200Z 32006KT 8000 SCT019 30/25 Q1013 NOSIG=
METAR WAFF 011100Z 34009KT 8000 FEW018CB BKN020 29/25 Q1012 RMK CB TO NW=
METAR WAFF 011000Z 33011KT 8000 SCT018 BKN020 30/25 Q1011 NOSIG=
METAR WAFF 010900Z 34009KT 9000 SCT019TCU 31/25 Q1010 RMK TCU TO S=
METAR WAFF 010800Z 33012KT 9000 SCT019 32/24 Q1010 NOSIG=
METAR WAFF 010700Z 32014KT 9999 SCT019 33/24 Q1010 NOSIG=
METAR WAFF 010600Z 32012KT 9999 FEW018 SCT020 35/23 Q1010 NOSIG=
METAR WAFF 010500Z 33013KT 9999 FEW020 34/22 Q1011 NOSIG=
METAR WAFF 010400Z 30008KT 9999 FEW020 35/22 Q1012 NOSIG=
METAR WAFF 010300Z 28004KT 9999 FEW020 34/22 Q1013 NOSIG=
METAR WAFF 010200Z 13003KT 9999 FEW020 31/24 Q1014 NOSIG=
METAR WAFF 010100Z 18003KT 9999 FEW020 29/23 Q1014 NOSIG=
METAR WAFF 010000Z 13002KT 9999 FEW020 27/24 Q1015 NOSIG=
METAR WAFF 022300Z 09002KT 6000 SCT019 25/24 Q1014 NOSIG=
METAR WAFF 022200Z 14002KT 6000 SCT019 25/24 Q1013 NOSIG=
METAR WAFF 022100Z 17002KT 5000 SCT019 25/24 Q1013 NOSIG=
METAR WAFF 021800Z 15003KT 5000 -RA SCT019 25/24 Q1013=
METAR WAFF 021500Z 13002KT 6000 -RA SCT019 27/25 Q1014=
METAR WAFF 021430Z 32005KT 5000 -RA BKN018 28/25 Q1015=
METAR WAFF 021400Z 32005KT 7000 FEW020 28/25 Q1015=
METAR WAFF 021300Z 34003KT 7000 FEW020 28/25 Q1014=
METAR WAFF 021200Z 33006KT 7000 FEWCB018 SCT019 28/25 Q1013 RMK CB TO N E=
METAR WAFF 021000Z 32009KT 8000 FEW018CB SCT020 29/24 Q1012 RMK CB TO E=
METAR WAFF 020900Z 32010KT 9999 SCT020 30/24 Q1011 NOSIG=
METAR WAFF 020800Z 33010KT 9999 FEW018CB SCT020 31/24 Q1010 RMK CB TO E=
METAR WAFF 020700Z 33012KT 9999 FEW018CB SCT020 31/23 Q1010 RMK CB TO E=
METAR WAFF 020600Z 33014KT 9999 TS FEW018CB SCT020 32/23 Q1011 RMK CB TO E=
METAR WAFF 020500Z 33011KT 8000 SCT019 34/23 Q1012 NOSIG=
METAR WAFF 020400Z 07002KT 8000 SCT019 32/23 Q1013 NOSIG=
METAR WAFF 020300Z 00000KT 7000 SCT019 29/24 Q1015 RMK RERA=
METAR WAFF 020205Z 18003KT 7000 -RA SCT018 BKN020 28/23 Q1015 NOSIG=
METAR WAFF 020200Z 18003KT 7000 SCT018 BKN020 28/23 Q1015 NOSIG=
METAR WAFF 020100Z 18003KT 7000 SCT019 27/23 Q1015 NOSIG=
METAR WAFF 020000Z 20002KT 7000 SCT018 BKN020 26/24 Q1015 NOSIG=
METAR WAFF 012300Z 21003KT 6000 RA BKN020 26/24 Q1014 NOSIG=
METAR WAFF 012200Z 14004KT 6000 RA BKN019 26/23 Q1014 NOSIG=
METAR WAFF 012100Z 19003KT 7000 SCT019 26/24 Q1014 NOSIG=
METAR WAFF 012000Z 16002KT 7000 SCT019 27/24 Q1013 NOSIG=
METAR WAFF 011900Z 19002KT 7000 SCT019 27/24 Q1012 NOSIG=
METAR WAFF 011800Z 20002KT 7000 SCT019 27/24 Q1013 NOSIG=
METAR WAFF 011600Z 05002KT 6000 RA SCT019 28/24 Q1014 NOSIG=
METAR WAFF 011500Z 32004KT 7000 SCT019 29/24 Q1014 NOSIG=
METAR WAFF 011400Z 30002KT 7000 SCT019 29/24 Q1014 NOSIG=
METAR WAFF 011300Z 35004KT 7000 SCT019 29/24 Q1013 NOSIG=
METAR WAFF 011200Z 32006KT 8000 SCT019 30/25 Q1013 NOSIG=
METAR WAFF 011100Z 34009KT 8000 FEW018CB BKN020 29/25 Q1012 RMK CB TO NW=
METAR WAFF 011000Z 33011KT 8000 SCT018 BKN020 30/25 Q1011 NOSIG=
METAR WAFF 010900Z 34009KT 9000 SCT019TCU 31/25 Q1010 RMK TCU TO S=
METAR WAFF 010800Z 33012KT 9000 SCT019 32/24 Q1010 NOSIG=
METAR WAFF 010700Z 32014KT 9999 SCT019 33/24 Q1010 NOSIG=
METAR WAFF 010600Z 32012KT 9999 FEW018 SCT020 35/23 Q1010 NOSIG=
METAR WAFF 010500Z 33013KT 9999 FEW020 34/22 Q1011 NOSIG=
METAR WAFF 010400Z 30008KT 9999 FEW020 35/22 Q1012 NOSIG=
METAR WAFF 010300Z 28004KT 9999 FEW020 34/22 Q1013 NOSIG=
METAR WAFF 010200Z 13003KT 9999 FEW020 31/24 Q1014 NOSIG=
METAR WAFF 010100Z 18003KT 9999 FEW020 29/23 Q1014 NOSIG=
METAR WAFF 010000Z 13002KT 9999 FEW020 27/24 Q1015 NOSIG=
METAR WAFF 022300Z 09002KT 6000 SCT019 25/24 Q1014 NOSIG=
METAR WAFF 022200Z 14002KT 6000 SCT019 25/24 Q1013 NOSIG=
METAR WAFF 022100Z 17002KT 5000 SCT019 25/24 Q1013 NOSIG=
METAR WAFF 021800Z 15003KT 5000 -RA SCT019 25/24 Q1013=
METAR WAFF 021500Z 13002KT 6000 -RA SCT019 27/25 Q1014=
METAR WAFF 021430Z 32005KT 5000 -RA BKN018 28/25 Q1015=
METAR WAFF 021400Z 32005KT 7000 FEW020 28/25 Q1015=
METAR WAFF 021300Z 34003KT 7000 FEW020 28/25 Q1014=
METAR WAFF 021200Z 33006KT 7000 FEWCB018 SCT019 28/25 Q1013 RMK CB TO N E=
METAR WAFF 021000Z 32009KT 8000 FEW018CB SCT020 29/24 Q1012 RMK CB TO E=
METAR WAFF 020900Z 32010KT 9999 SCT020 30/24 Q1011 NOSIG=
METAR WAFF 020800Z 33010KT 9999 FEW018CB SCT020 31/24 Q1010 RMK CB TO E=
METAR WAFF 020700Z 33012KT 9999 FEW018CB SCT020 31/23 Q1010 RMK CB TO E=
METAR WAFF 020600Z 33014KT 9999 TS FEW018CB SCT020 32/23 Q1011 RMK CB TO E=
METAR WAFF 020500Z 33011KT 8000 SCT019 34/23 Q1012 NOSIG=
METAR WAFF 020400Z 07002KT 8000 SCT019 32/23 Q1013 NOSIG=
METAR WAFF 020300Z 00000KT 7000 SCT019 29/24 Q1015 RMK RERA=
METAR WAFF 020205Z 18003KT 7000 -RA SCT018 BKN020 28/23 Q1015 NOSIG=
METAR WAFF 020200Z 18003KT 7000 SCT018 BKN020 28/23 Q1015 NOSIG=
METAR WAFF 020100Z 18003KT 7000 SCT019 27/23 Q1015 NOSIG=
METAR WAFF 020000Z 20002KT 7000 SCT018 BKN020 26/24 Q1015 NOSIG=
METAR WAFF 012300Z 21003KT 6000 RA BKN020 26/24 Q1014 NOSIG=
METAR WAFF 012200Z 14004KT 6000 RA BKN019 26/23 Q1014 NOSIG=
METAR WAFF 012100Z 19003KT 7000 SCT019 26/24 Q1014 NOSIG=
METAR WAFF 012000Z 16002KT 7000 SCT019 27/24 Q1013 NOSIG=
METAR WAFF 011900Z 19002KT 7000 SCT019 27/24 Q1012 NOSIG=
METAR WAFF 011800Z 20002KT 7000 SCT019 27/24 Q1013 NOSIG=
METAR WAFF 011600Z 05002KT 6000 RA SCT019 28/24 Q1014 NOSIG=
METAR WAFF 011500Z 32004KT 7000 SCT019 29/24 Q1014 NOSIG=
METAR WAFF 011400Z 30002KT 7000 SCT019 29/24 Q1014 NOSIG=
METAR WAFF 011300Z 35004KT 7000 SCT019 29/24 Q1013 NOSIG=
METAR WAFF 011200Z 32006KT 8000 SCT019 30/25 Q1013 NOSIG=
METAR WAFF 011100Z 34009KT 8000 FEW018CB BKN020 29/25 Q1012 RMK CB TO NW=
METAR WAFF 011000Z 33011KT 8000 SCT018 BKN020 30/25 Q1011 NOSIG=
METAR WAFF 010900Z 34009KT 9000 SCT019TCU 31/25 Q1010 RMK TCU TO S=
METAR WAFF 010800Z 33012KT 9000 SCT019 32/24 Q1010 NOSIG=
METAR WAFF 010700Z 32014KT 9999 SCT019 33/24 Q1010 NOSIG=
METAR WAFF 010600Z 32012KT 9999 FEW018 SCT020 35/23 Q1010 NOSIG=
METAR WAFF 010500Z 33013KT 9999 FEW020 34/22 Q1011 NOSIG=
METAR WAFF 010400Z 30008KT 9999 FEW020 35/22 Q1012 NOSIG=
METAR WAFF 010300Z 28004KT 9999 FEW020 34/22 Q1013 NOSIG=
METAR WAFF 010200Z 13003KT 9999 FEW020 31/24 Q1014 NOSIG=
METAR WAFF 010100Z 18003KT 9999 FEW020 29/23 Q1014 NOSIG=
METAR WAFF 010000Z 13002KT 9999 FEW020 27/24 Q1015 NOSIG=
METAR WAFF 022300Z 09002KT 6000 SCT019 25/24 Q1014 NOSIG=
METAR WAFF 022200Z 14002KT 6000 SCT019 25/24 Q1013 NOSIG=
METAR WAFF 022100Z 17002KT 5000 SCT019 25/24 Q1013 NOSIG=
METAR WAFF 021800Z 15003KT 5000 -RA SCT019 25/24 Q1013=
METAR WAFF 021500Z 13002KT 6000 -RA SCT019 27/25 Q1014=
METAR WAFF 021430Z 32005KT 5000 -RA BKN018 28/25 Q1015=
METAR WAFF 021400Z 32005KT 7000 FEW020 28/25 Q1015=
METAR WAFF 021300Z 34003KT 7000 FEW020 28/25 Q1014=
METAR WAFF 021200Z 33006KT 7000 FEWCB018 SCT019 28/25 Q1013 RMK CB TO N E=
METAR WAFF 021000Z 32009KT 8000 FEW018CB SCT020 29/24 Q1012 RMK CB TO E=
METAR WAFF 020900Z 32010KT 9999 SCT020 30/24 Q1011 NOSIG=
METAR WAFF 020800Z 33010KT 9999 FEW018CB SCT020 31/24 Q1010 RMK CB TO E=
METAR WAFF 020700Z 33012KT 9999 FEW018CB SCT020 31/23 Q1010 RMK CB TO E=
METAR WAFF 020600Z 33014KT 9999 TS FEW018CB SCT020 32/23 Q1011 RMK CB TO E=
METAR WAFF 020500Z 33011KT 8000 SCT019 34/23 Q1012 NOSIG=
METAR WAFF 020400Z 07002KT 8000 SCT019 32/23 Q1013 NOSIG=
METAR WAFF 020300Z 00000KT 7000 SCT019 29/24 Q1015 RMK RERA=
METAR WAFF 020205Z 18003KT 7000 -RA SCT018 BKN020 28/23 Q1015 NOSIG=
METAR WAFF 020200Z 18003KT 7000 SCT018 BKN020 28/23 Q1015 NOSIG=
METAR WAFF 020100Z 18003KT 7000 SCT019 27/23 Q1015 NOSIG=
METAR WAFF 020000Z 20002KT 7000 SCT018 BKN020 26/24 Q1015 NOSIG=
METAR WAFF 012300Z 21003KT 6000 RA BKN020 26/24 Q1014 NOSIG=
METAR WAFF 012200Z 14004KT 6000 RA BKN019 26/23 Q1014 NOSIG=
METAR WAFF 012100Z 19003KT 7000 SCT019 26/24 Q1014 NOSIG=
METAR WAFF 012000Z 16002KT 7000 SCT019 27/24 Q1013 NOSIG=
METAR WAFF 011900Z 19002KT 7000 SCT019 27/24 Q1012 NOSIG=
METAR WAFF 011800Z 20002KT 7000 SCT019 27/24 Q1013 NOSIG=
METAR WAFF 011600Z 05002KT 6000 RA SCT019 28/24 Q1014 NOSIG=
METAR WAFF 011500Z 32004KT 7000 SCT019 29/24 Q1014 NOSIG=
METAR WAFF 011400Z 30002KT 7000 SCT019 29/24 Q1014 NOSIG=
METAR WAFF 011300Z 35004KT 7000 SCT019 29/24 Q1013 NOSIG=
METAR WAFF 011200Z 32006KT 8000 SCT019 30/25 Q1013 NOSIG=
METAR WAFF 011100Z 34009KT 8000 FEW018CB BKN020 29/25 Q1012 RMK CB TO NW=
METAR WAFF 011000Z 33011KT 8000 SCT018 BKN020 30/25 Q1011 NOSIG=
METAR WAFF 010900Z 34009KT 9000 SCT019TCU 31/25 Q1010 RMK TCU TO S=
METAR WAFF 010800Z 33012KT 9000 SCT019 32/24 Q1010 NOSIG=
METAR WAFF 010700Z 32014KT 9999 SCT019 33/24 Q1010 NOSIG=
METAR WAFF 010600Z 32012KT 9999 FEW018 SCT020 35/23 Q1010 NOSIG=
METAR WAFF 010500Z 33013KT 9999 FEW020 34/22 Q1011 NOSIG=
METAR WAFF 010400Z 30008KT 9999 FEW020 35/22 Q1012 NOSIG=
METAR WAFF 010300Z 28004KT 9999 FEW020 34/22 Q1013 NOSIG=
METAR WAFF 010200Z 13003KT 9999 FEW020 31/24 Q1014 NOSIG=
METAR WAFF 010100Z 18003KT 9999 FEW020 29/23 Q1014 NOSIG=
METAR WAFF 010000Z 13002KT 9999 FEW020 27/24 Q1015 NOSIG=
METAR WAFF 022300Z 09002KT 6000 SCT019 25/24 Q1014 NOSIG=
METAR WAFF 022200Z 14002KT 6000 SCT019 25/24 Q1013 NOSIG=
METAR WAFF 022100Z 17002KT 5000 SCT019 25/24 Q1013 NOSIG=
METAR WAFF 021800Z 15003KT 5000 -RA SCT019 25/24 Q1013=
METAR WAFF 021500Z 13002KT 6000 -RA SCT019 27/25 Q1014=
METAR WAFF 021430Z 32005KT 5000 -RA BKN018 28/25 Q1015=
METAR WAFF 021400Z 32005KT 7000 FEW020 28/25 Q1015=
METAR WAFF 021300Z 34003KT 7000 FEW020 28/25 Q1014=
METAR WAFF 021200Z 33006KT 7000 FEWCB018 SCT019 28/25 Q1013 RMK CB TO N E=
METAR WAFF 021000Z 32009KT 8000 FEW018CB SCT020 29/24 Q1012 RMK CB TO E=
METAR WAFF 020900Z 32010KT 9999 SCT020 30/24 Q1011 NOSIG=
METAR WAFF 020800Z 33010KT 9999 FEW018CB SCT020 31/24 Q1010 RMK CB TO E=
METAR WAFF 020700Z 33012KT 9999 FEW018CB SCT020 31/23 Q1010 RMK CB TO E=
METAR WAFF 020600Z 33014KT 9999 TS FEW018CB SCT020 32/23 Q1011 RMK CB TO E=
METAR WAFF 020500Z 33011KT 8000 SCT019 34/23 Q1012 NOSIG=
METAR WAFF 020400Z 07002KT 8000 SCT019 32/23 Q1013 NOSIG=
METAR WAFF 020300Z 00000KT 7000 SCT019 29/24 Q1015 RMK RERA=
METAR WAFF 020205Z 18003KT 7000 -RA SCT018 BKN020 28/23 Q1015 NOSIG=
METAR WAFF 020200Z 18003KT 7000 SCT018 BKN020 28/23 Q1015 NOSIG=
METAR WAFF 020100Z 18003KT 7000 SCT019 27/23 Q1015 NOSIG=
METAR WAFF 020000Z 20002KT 7000 SCT018 BKN020 26/24 Q1015 NOSIG=
METAR WAFF 012300Z 21003KT 6000 RA BKN020 26/24 Q1014 NOSIG=
METAR WAFF 012200Z 14004KT 6000 RA BKN019 26/23 Q1014 NOSIG=
METAR WAFF 012100Z 19003KT 7000 SCT019 26/24 Q1014 NOSIG=
METAR WAFF 012000Z 16002KT 7000 SCT019 27/24 Q1013 NOSIG=
METAR WAFF 011900Z 19002KT 7000 SCT019 27/24 Q1012 NOSIG=
METAR WAFF 011800Z 20002KT 7000 SCT019 27/24 Q1013 NOSIG=
METAR WAFF 011600Z 05002KT 6000 RA SCT019 28/24 Q1014 NOSIG=
METAR WAFF 011500Z 32004KT 7000 SCT019 29/24 Q1014 NOSIG=
METAR WAFF 011400Z 30002KT 7000 SCT019 29/24 Q1014 NOSIG=
METAR WAFF 011300Z 35004KT 7000 SCT019 29/24 Q1013 NOSIG=
METAR WAFF 011200Z 32006KT 8000 SCT019 30/25 Q1013 NOSIG=
METAR WAFF 011100Z 34009KT 8000 FEW018CB BKN020 29/25 Q1012 RMK CB TO NW=
METAR WAFF 011000Z 33011KT 8000 SCT018 BKN020 30/25 Q1011 NOSIG=
METAR WAFF 010900Z 34009KT 9000 SCT019TCU 31/25 Q1010 RMK TCU TO S=
METAR WAFF 010800Z 33012KT 9000 SCT019 32/24 Q1010 NOSIG=
METAR WAFF 010700Z 32014KT 9999 SCT019 33/24 Q1010 NOSIG=
METAR WAFF 010600Z 32012KT 9999 FEW018 SCT020 35/23 Q1010 NOSIG=
METAR WAFF 010500Z 33013KT 9999 FEW020 34/22 Q1011 NOSIG=
METAR WAFF 010400Z 30008KT 9999 FEW020 35/22 Q1012 NOSIG=
METAR WAFF 010300Z 28004KT 9999 FEW020 34/22 Q1013 NOSIG=
METAR WAFF 010200Z 13003KT 9999 FEW020 31/24 Q1014 NOSIG=
METAR WAFF 010100Z 18003KT 9999 FEW020 29/23 Q1014 NOSIG=
METAR WAFF 010000Z 13002KT 9999 FEW020 27/24 Q1015 NOSIG=
METAR WAFF 022300Z 09002KT 6000 SCT019 25/24 Q1014 NOSIG=
METAR WAFF 022200Z 14002KT 6000 SCT019 25/24 Q1013 NOSIG=
METAR WAFF 022100Z 17002KT 5000 SCT019 25/24 Q1013 NOSIG=
METAR WAFF 021800Z 15003KT 5000 -RA SCT019 25/24 Q1013=
METAR WAFF 021500Z 13002KT 6000 -RA SCT019 27/25 Q1014=
METAR WAFF 021430Z 32005KT 5000 -RA BKN018 28/25 Q1015=
METAR WAFF 021400Z 32005KT 7000 FEW020 28/25 Q1015=
METAR WAFF 021300Z 34003KT 7000 FEW020 28/25 Q1014=
METAR WAFF 021200Z 33006KT 7000 FEWCB018 SCT019 28/25 Q1013 RMK CB TO N E=
METAR WAFF 021000Z 32009KT 8000 FEW018CB SCT020 29/24 Q1012 RMK CB TO E=
METAR WAFF 020900Z 32010KT 9999 SCT020 30/24 Q1011 NOSIG=
METAR WAFF 020800Z 33010KT 9999 FEW018CB SCT020 31/24 Q1010 RMK CB TO E=
METAR WAFF 020700Z 33012KT 9999 FEW018CB SCT020 31/23 Q1010 RMK CB TO E=
METAR WAFF 020600Z 33014KT 9999 TS FEW018CB SCT020 32/23 Q1011 RMK CB TO E=
METAR WAFF 020500Z 33011KT 8000 SCT019 34/23 Q1012 NOSIG=
METAR WAFF 020400Z 07002KT 8000 SCT019 32/23 Q1013 NOSIG=
METAR WAFF 020300Z 00000KT 7000 SCT019 29/24 Q1015 RMK RERA=
METAR WAFF 020205Z 18003KT 7000 -RA SCT018 BKN020 28/23 Q1015 NOSIG=
METAR WAFF 020200Z 18003KT 7000 SCT018 BKN020 28/23 Q1015 NOSIG=
METAR WAFF 020100Z 18003KT 7000 SCT019 27/23 Q1015 NOSIG=
METAR WAFF 020000Z 20002KT 7000 SCT018 BKN020 26/24 Q1015 NOSIG=
METAR WAFF 012300Z 21003KT 6000 RA BKN020 26/24 Q1014 NOSIG=
METAR WAFF 012200Z 14004KT 6000 RA BKN019 26/23 Q1014 NOSIG=
METAR WAFF 012100Z 19003KT 7000 SCT019 26/24 Q1014 NOSIG=
METAR WAFF 012000Z 16002KT 7000 SCT019 27/24 Q1013 NOSIG=
METAR WAFF 011900Z 19002KT 7000 SCT019 27/24 Q1012 NOSIG=
METAR WAFF 011800Z 20002KT 7000 SCT019 27/24 Q1013 NOSIG=
METAR WAFF 011600Z 05002KT 6000 RA SCT019 28/24 Q1014 NOSIG=
METAR WAFF 011500Z 32004KT 7000 SCT019 29/24 Q1014 NOSIG=
METAR WAFF 011400Z 30002KT 7000 SCT019 29/24 Q1014 NOSIG=
METAR WAFF 011300Z 35004KT 7000 SCT019 29/24 Q1013 NOSIG=
METAR WAFF 011200Z 32006KT 8000 SCT019 30/25 Q1013 NOSIG=
METAR WAFF 011100Z 34009KT 8000 FEW018CB BKN020 29/25 Q1012 RMK CB TO NW=
METAR WAFF 011000Z 33011KT 8000 SCT018 BKN020 30/25 Q1011 NOSIG=
METAR WAFF 010900Z 34009KT 9000 SCT019TCU 31/25 Q1010 RMK TCU TO S=
METAR WAFF 010800Z 33012KT 9000 SCT019 32/24 Q1010 NOSIG=
METAR WAFF 010700Z 32014KT 9999 SCT019 33/24 Q1010 NOSIG=
METAR WAFF 010600Z 32012KT 9999 FEW018 SCT020 35/23 Q1010 NOSIG=
METAR WAFF 010500Z 33013KT 9999 FEW020 34/22 Q1011 NOSIG=
METAR WAFF 010400Z 30008KT 9999 FEW020 35/22 Q1012 NOSIG=
METAR WAFF 010300Z 28004KT 9999 FEW020 34/22 Q1013 NOSIG=
METAR WAFF 010200Z 13003KT 9999 FEW020 31/24 Q1014 NOSIG=
METAR WAFF 010100Z 18003KT 9999 FEW020 29/23 Q1014 NOSIG=
METAR WAFF 010000Z 13002KT 9999 FEW020 27/24 Q1015 NOSIG=
METAR WAFF 022300Z 09002KT 6000 SCT019 25/24 Q1014 NOSIG=
METAR WAFF 022200Z 14002KT 6000 SCT019 25/24 Q1013 NOSIG=
METAR WAFF 022100Z 17002KT 5000 SCT019 25/24 Q1013 NOSIG=
METAR WAFF 021800Z 15003KT 5000 -RA SCT019 25/24 Q1013=
METAR WAFF 021500Z 13002KT 6000 -RA SCT019 27/25 Q1014=
METAR WAFF 021430Z 32005KT 5000 -RA BKN018 28/25 Q1015=
METAR WAFF 021400Z 32005KT 7000 FEW020 28/25 Q1015=
METAR WAFF 021300Z 34003KT 7000 FEW020 28/25 Q1014=
METAR WAFF 021200Z 33006KT 7000 FEWCB018 SCT019 28/25 Q1013 RMK CB TO N E=
METAR WAFF 021000Z 32009KT 8000 FEW018CB SCT020 29/24 Q1012 RMK CB TO E=
METAR WAFF 020900Z 32010KT 9999 SCT020 30/24 Q1011 NOSIG=
METAR WAFF 020800Z 33010KT 9999 FEW018CB SCT020 31/24 Q1010 RMK CB TO E=
METAR WAFF 020700Z 33012KT 9999 FEW018CB SCT020 31/23 Q1010 RMK CB TO E=
METAR WAFF 020600Z 33014KT 9999 TS FEW018CB SCT020 32/23 Q1011 RMK CB TO E=
METAR WAFF 020500Z 33011KT 8000 SCT019 34/23 Q1012 NOSIG=
METAR WAFF 020400Z 07002KT 8000 SCT019 32/23 Q1013 NOSIG=
METAR WAFF 020300Z 00000KT 7000 SCT019 29/24 Q1015 RMK RERA=
METAR WAFF 020205Z 18003KT 7000 -RA SCT018 BKN020 28/23 Q1015 NOSIG=
METAR WAFF 020200Z 18003KT 7000 SCT018 BKN020 28/23 Q1015 NOSIG=
METAR WAFF 020100Z 18003KT 7000 SCT019 27/23 Q1015 NOSIG=
METAR WAFF 020000Z 20002KT 7000 SCT018 BKN020 26/24 Q1015 NOSIG=
METAR WAFF 012300Z 21003KT 6000 RA BKN020 26/24 Q1014 NOSIG=
METAR WAFF 012200Z 14004KT 6000 RA BKN019 26/23 Q1014 NOSIG=
METAR WAFF 012100Z 19003KT 7000 SCT019 26/24 Q1014 NOSIG=
METAR WAFF 012000Z 16002KT 7000 SCT019 27/24 Q1013 NOSIG=
METAR WAFF 011900Z 19002KT 7000 SCT019 27/24 Q1012 NOSIG=
METAR WAFF 011800Z 20002KT 7000 SCT019 27/24 Q1013 NOSIG=
METAR WAFF 011600Z 05002KT 6000 RA SCT019 28/24 Q1014 NOSIG=
METAR WAFF 011500Z 32004KT 7000 SCT019 29/24 Q1014 NOSIG=
METAR WAFF 011400Z 30002KT 7000 SCT019 29/24 Q1014 NOSIG=
METAR WAFF 011300Z 35004KT 7000 SCT019 29/24 Q1013 NOSIG=
METAR WAFF 011200Z 32006KT 8000 SCT019 30/25 Q1013 NOSIG=
METAR WAFF 011100Z 34009KT 8000 FEW018CB BKN020 29/25 Q1012 RMK CB TO NW=
METAR WAFF 011000Z 33011KT 8000 SCT018 BKN020 30/25 Q1011 NOSIG=
METAR WAFF 010900Z 34009KT 9000 SCT019TCU 31/25 Q1010 RMK TCU TO S=
METAR WAFF 010800Z 33012KT 9000 SCT019 32/24 Q1010 NOSIG=
METAR WAFF 010700Z 32014KT 9999 SCT019 33/24 Q1010 NOSIG=
METAR WAFF 010600Z 32012KT 9999 FEW018 SCT020 35/23 Q1010 NOSIG=
METAR WAFF 010500Z 33013KT 9999 FEW020 34/22 Q1011 NOSIG=
METAR WAFF 010400Z 30008KT 9999 FEW020 35/22 Q1012 NOSIG=
METAR WAFF 010300Z 28004KT 9999 FEW020 34/22 Q1013 NOSIG=
METAR WAFF 010200Z 13003KT 9999 FEW020 31/24 Q1014 NOSIG=
METAR WAFF 010100Z 18003KT 9999 FEW020 29/23 Q1014 NOSIG=
METAR WAFF 010000Z 13002KT 9999 FEW020 27/24 Q1015 NOSIG=
METAR WAFF 022300Z 09002KT 6000 SCT019 25/24 Q1014 NOSIG=
METAR WAFF 022200Z 14002KT 6000 SCT019 25/24 Q1013 NOSIG=
METAR WAFF 022100Z 17002KT 5000 SCT019 25/24 Q1013 NOSIG=
METAR WAFF 021800Z 15003KT 5000 -RA SCT019 25/24 Q1013=
METAR WAFF 021500Z 13002KT 6000 -RA SCT019 27/25 Q1014=
METAR WAFF 021430Z 32005KT 5000 -RA BKN018 28/25 Q1015=
METAR WAFF 021400Z 32005KT 7000 FEW020 28/25 Q1015=
METAR WAFF 021300Z 34003KT 7000 FEW020 28/25 Q1014=
METAR WAFF 021200Z 33006KT 7000 FEWCB018 SCT019 28/25 Q1013 RMK CB TO N E=
METAR WAFF 021000Z 32009KT 8000 FEW018CB SCT020 29/24 Q1012 RMK CB TO E=
METAR WAFF 020900Z 32010KT 9999 SCT020 30/24 Q1011 NOSIG=
METAR WAFF 020800Z 33010KT 9999 FEW018CB SCT020 31/24 Q1010 RMK CB TO E=
METAR WAFF 020700Z 33012KT 9999 FEW018CB SCT020 31/23 Q1010 RMK CB TO E=
METAR WAFF 020600Z 33014KT 9999 TS FEW018CB SCT020 32/23 Q1011 RMK CB TO E=
METAR WAFF 020500Z 33011KT 8000 SCT019 34/23 Q1012 NOSIG=
METAR WAFF 020400Z 07002KT 8000 SCT019 32/23 Q1013 NOSIG=
METAR WAFF 020300Z 00000KT 7000 SCT019 29/24 Q1015 RMK RERA=
METAR WAFF 020205Z 18003KT 7000 -RA SCT018 BKN020 28/23 Q1015 NOSIG=
METAR WAFF 020200Z 18003KT 7000 SCT018 BKN020 28/23 Q1015 NOSIG=
METAR WAFF 020100Z 18003KT 7000 SCT019 27/23 Q1015 NOSIG=
METAR WAFF 020000Z 20002KT 7000 SCT018 BKN020 26/24 Q1015 NOSIG=
METAR WAFF 012300Z 21003KT 6000 RA BKN020 26/24 Q1014 NOSIG=
METAR WAFF 012200Z 14004KT 6000 RA BKN019 26/23 Q1014 NOSIG=
METAR WAFF 012100Z 19003KT 7000 SCT019 26/24 Q1014 NOSIG=
METAR WAFF 012000Z 16002KT 7000 SCT019 27/24 Q1013 NOSIG=
METAR WAFF 011900Z 19002KT 7000 SCT019 27/24 Q1012 NOSIG=
METAR WAFF 011800Z 20002KT 7000 SCT019 27/24 Q1013 NOSIG=
METAR WAFF 011600Z 05002KT 6000 RA SCT019 28/24 Q1014 NOSIG=
METAR WAFF 011500Z 32004KT 7000 SCT019 29/24 Q1014 NOSIG=
METAR WAFF 011400Z 30002KT 7000 SCT019 29/24 Q1014 NOSIG=
METAR WAFF 011300Z 35004KT 7000 SCT019 29/24 Q1013 NOSIG=
METAR WAFF 011200Z 32006KT 8000 SCT019 30/25 Q1013 NOSIG=
METAR WAFF 011100Z 34009KT 8000 FEW018CB BKN020 29/25 Q1012 RMK CB TO NW=
METAR WAFF 011000Z 33011KT 8000 SCT018 BKN020 30/25 Q1011 NOSIG=
METAR WAFF 010900Z 34009KT 9000 SCT019TCU 31/25 Q1010 RMK TCU TO S=
METAR WAFF 010800Z 33012KT 9000 SCT019 32/24 Q1010 NOSIG=
METAR WAFF 010700Z 32014KT 9999 SCT019 33/24 Q1010 NOSIG=
METAR WAFF 010600Z 32012KT 9999 FEW018 SCT020 35/23 Q1010 NOSIG=
METAR WAFF 010500Z 33013KT 9999 FEW020 34/22 Q1011 NOSIG=
METAR WAFF 010400Z 30008KT 9999 FEW020 35/22 Q1012 NOSIG=
METAR WAFF 010300Z 28004KT 9999 FEW020 34/22 Q1013 NOSIG=
METAR WAFF 010200Z 13003KT 9999 FEW020 31/24 Q1014 NOSIG=
METAR WAFF 010100Z 18003KT 9999 FEW020 29/23 Q1014 NOSIG=
METAR WAFF 010000Z 13002KT 9999 FEW020 27/24 Q1015 NOSIG=
METAR WAFF 022300Z 09002KT 6000 SCT019 25/24 Q1014 NOSIG=
METAR WAFF 022200Z 14002KT 6000 SCT019 25/24 Q1013 NOSIG=
METAR WAFF 022100Z 17002KT 5000 SCT019 25/24 Q1013 NOSIG=
METAR WAFF 021800Z 15003KT 5000 -RA SCT019 25/24 Q1013=
METAR WAFF 021500Z 13002KT 6000 -RA SCT019 27/25 Q1014=
METAR WAFF 021430Z 32005KT 5000 -RA BKN018 28/25 Q1015=
METAR WAFF 021400Z 32005KT 7000 FEW020 28/25 Q1015=
METAR WAFF 021300Z 34003KT 7000 FEW020 28/25 Q1014=
METAR WAFF 021200Z 33006KT 7000 FEWCB018 SCT019 28/25 Q1013 RMK CB TO N E=
METAR WAFF 021000Z 32009KT 8000 FEW018CB SCT020 29/24 Q1012 RMK CB TO E=
METAR WAFF 020900Z 32010KT 9999 SCT020 30/24 Q1011 NOSIG=
METAR WAFF 020800Z 33010KT 9999 FEW018CB SCT020 31/24 Q1010 RMK CB TO E=
METAR WAFF 020700Z 33012KT 9999 FEW018CB SCT020 31/23 Q1010 RMK CB TO E=
METAR WAFF 020600Z 33014KT 9999 TS FEW018CB SCT020 32/23 Q1011 RMK CB TO E=
METAR WAFF 020500Z 33011KT 8000 SCT019 34/23 Q1012 NOSIG=
METAR WAFF 020400Z 07002KT 8000 SCT019 32/23 Q1013 NOSIG=
METAR WAFF 020300Z 00000KT 7000 SCT019 29/24 Q1015 RMK RERA=
METAR WAFF 020205Z 18003KT 7000 -RA SCT018 BKN020 28/23 Q1015 NOSIG=
METAR WAFF 020200Z 18003KT 7000 SCT018 BKN020 28/23 Q1015 NOSIG=
METAR WAFF 020100Z 18003KT 7000 SCT019 27/23 Q1015 NOSIG=
METAR WAFF 020000Z 20002KT 7000 SCT018 BKN020 26/24 Q1015 NOSIG=
METAR WAFF 012300Z 21003KT 6000 RA BKN020 26/24 Q1014 NOSIG=
METAR WAFF 012200Z 14004KT 6000 RA BKN019 26/23 Q1014 NOSIG=
METAR WAFF 012100Z 19003KT 7000 SCT019 26/24 Q1014 NOSIG=
METAR WAFF 012000Z 16002KT 7000 SCT019 27/24 Q1013 NOSIG=
METAR WAFF 011900Z 19002KT 7000 SCT019 27/24 Q1012 NOSIG=
METAR WAFF 011800Z 20002KT 7000 SCT019 27/24 Q1013 NOSIG=
METAR WAFF 011600Z 05002KT 6000 RA SCT019 28/24 Q1014 NOSIG=
METAR WAFF 011500Z 32004KT 7000 SCT019 29/24 Q1014 NOSIG=
METAR WAFF 011400Z 30002KT 7000 SCT019 29/24 Q1014 NOSIG=
METAR WAFF 011300Z 35004KT 7000 SCT019 29/24 Q1013 NOSIG=
METAR WAFF 011200Z 32006KT 8000 SCT019 30/25 Q1013 NOSIG=
METAR WAFF 011100Z 34009KT 8000 FEW018CB BKN020 29/25 Q1012 RMK CB TO NW=
METAR WAFF 011000Z 33011KT 8000 SCT018 BKN020 30/25 Q1011 NOSIG=
METAR WAFF 010900Z 34009KT 9000 SCT019TCU 31/25 Q1010 RMK TCU TO S=
METAR WAFF 010800Z 33012KT 9000 SCT019 32/24 Q1010 NOSIG=
METAR WAFF 010700Z 32014KT 9999 SCT019 33/24 Q1010 NOSIG=
METAR WAFF 010600Z 32012KT 9999 FEW018 SCT020 35/23 Q1010 NOSIG=
METAR WAFF 010500Z 33013KT 9999 FEW020 34/22 Q1011 NOSIG=
METAR WAFF 010400Z 30008KT 9999 FEW020 35/22 Q1012 NOSIG=
METAR WAFF 010300Z 28004KT 9999 FEW020 34/22 Q1013 NOSIG=
METAR WAFF 010200Z 13003KT 9999 FEW020 31/24 Q1014 NOSIG=
METAR WAFF 010100Z 18003KT 9999 FEW020 29/23 Q1014 NOSIG=
METAR WAFF 010000Z 13002KT 9999 FEW020 27/24 Q1015 NOSIG=
METAR WAFF 022300Z 09002KT 6000 SCT019 25/24 Q1014 NOSIG=
METAR WAFF 022200Z 14002KT 6000 SCT019 25/24 Q1013 NOSIG=
METAR WAFF 022100Z 17002KT 5000 SCT019 25/24 Q1013 NOSIG=
METAR WAFF 021800Z 15003KT 5000 -RA SCT019 25/24 Q1013=
METAR WAFF 021500Z 13002KT 6000 -RA SCT019 27/25 Q1014=
METAR WAFF 021430Z 32005KT 5000 -RA BKN018 28/25 Q1015=
METAR WAFF 021400Z 32005KT 7000 FEW020 28/25 Q1015=
METAR WAFF 021300Z 34003KT 7000 FEW020 28/25 Q1014=
METAR WAFF 021200Z 33006KT 7000 FEWCB018 SCT019 28/25 Q1013 RMK CB TO N E=
METAR WAFF 021000Z 32009KT 8000 FEW018CB SCT020 29/24 Q1012 RMK CB TO E=
METAR WAFF 020900Z 32010KT 9999 SCT020 30/24 Q1011 NOSIG=
METAR WAFF 020800Z 33010KT 9999 FEW018CB SCT020 31/24 Q1010 RMK CB TO E=
METAR WAFF 020700Z 33012KT 9999 FEW018CB SCT020 31/23 Q1010 RMK CB TO E=
METAR WAFF 020600Z 33014KT 9999 TS FEW018CB SCT020 32/23 Q1011 RMK CB TO E=
METAR WAFF 020500Z 33011KT 8000 SCT019 34/23 Q1012 NOSIG=
METAR WAFF 020400Z 07002KT 8000 SCT019 32/23 Q1013 NOSIG=
METAR WAFF 020300Z 00000KT 7000 SCT019 29/24 Q1015 RMK RERA=
METAR WAFF 020205Z 18003KT 7000 -RA SCT018 BKN020 28/23 Q1015 NOSIG=
METAR WAFF 020200Z 18003KT 7000 SCT018 BKN020 28/23 Q1015 NOSIG=
METAR WAFF 020100Z 18003KT 7000 SCT019 27/23 Q1015 NOSIG=
METAR WAFF 020000Z 20002KT 7000 SCT018 BKN020 26/24 Q1015 NOSIG=
METAR WAFF 012300Z 21003KT 6000 RA BKN020 26/24 Q1014 NOSIG=
METAR WAFF 012200Z 14004KT 6000 RA BKN019 26/23 Q1014 NOSIG=
METAR WAFF 012100Z 19003KT 7000 SCT019 26/24 Q1014 NOSIG=
METAR WAFF 012000Z 16002KT 7000 SCT019 27/24 Q1013 NOSIG=
METAR WAFF 011900Z 19002KT 7000 SCT019 27/24 Q1012 NOSIG=
METAR WAFF 011800Z 20002KT 7000 SCT019 27/24 Q1013 NOSIG=
METAR WAFF 011600Z 05002KT 6000 RA SCT019 28/24 Q1014 NOSIG=
METAR WAFF 011500Z 32004KT 7000 SCT019 29/24 Q1014 NOSIG=
METAR WAFF 011400Z 30002KT 7000 SCT019 29/24 Q1014 NOSIG=
METAR WAFF 011300Z 35004KT 7000 SCT019 29/24 Q1013 NOSIG=
METAR WAFF 011200Z 32006KT 8000 SCT019 30/25 Q1013 NOSIG=
METAR WAFF 011100Z 34009KT 8000 FEW018CB BKN020 29/25 Q1012 RMK CB TO NW=
METAR WAFF 011000Z 33011KT 8000 SCT018 BKN020 30/25 Q1011 NOSIG=
METAR WAFF 010900Z 34009KT 9000 SCT019TCU 31/25 Q1010 RMK TCU TO S=
METAR WAFF 010800Z 33012KT 9000 SCT019 32/24 Q1010 NOSIG=
METAR WAFF 010700Z 32014KT 9999 SCT019 33/24 Q1010 NOSIG=
METAR WAFF 010600Z 32012KT 9999 FEW018 SCT020 35/23 Q1010 NOSIG=
METAR WAFF 010500Z 33013KT 9999 FEW020 34/22 Q1011 NOSIG=
METAR WAFF 010400Z 30008KT 9999 FEW020 35/22 Q1012 NOSIG=
METAR WAFF 010300Z 28004KT 9999 FEW020 34/22 Q1013 NOSIG=
METAR WAFF 010200Z 13003KT 9999 FEW020 31/24 Q1014 NOSIG=
METAR WAFF 010100Z 18003KT 9999 FEW020 29/23 Q1014 NOSIG=
METAR WAFF 010000Z 13002KT 9999 FEW020 27/24 Q1015 NOSIG=
METAR WAFF 022300Z 09002KT 6000 SCT019 25/24 Q1014 NOSIG=
METAR WAFF 022200Z 14002KT 6000 SCT019 25/24 Q1013 NOSIG=
METAR WAFF 022100Z 17002KT 5000 SCT019 25/24 Q1013 NOSIG=
METAR WAFF 021800Z 15003KT 5000 -RA SCT019 25/24 Q1013=
METAR WAFF 021500Z 13002KT 6000 -RA SCT019 27/25 Q1014=
METAR WAFF 021430Z 32005KT 5000 -RA BKN018 28/25 Q1015=
METAR WAFF 021400Z 32005KT 7000 FEW020 28/25 Q1015=
METAR WAFF 021300Z 34003KT 7000 FEW020 28/25 Q1014=
METAR WAFF 021200Z 33006KT 7000 FEWCB018 SCT019 28/25 Q1013 RMK CB TO N E=
METAR WAFF 021000Z 32009KT 8000 FEW018CB SCT020 29/24 Q1012 RMK CB TO E=
METAR WAFF 020900Z 32010KT 9999 SCT020 30/24 Q1011 NOSIG=
METAR WAFF 020800Z 33010KT 9999 FEW018CB SCT020 31/24 Q1010 RMK CB TO E=
METAR WAFF 020700Z 33012KT 9999 FEW018CB SCT020 31/23 Q1010 RMK CB TO E=
METAR WAFF 020600Z 33014KT 9999 TS FEW018CB SCT020 32/23 Q1011 RMK CB TO E=
METAR WAFF 020500Z 33011KT 8000 SCT019 34/23 Q1012 NOSIG=
METAR WAFF 020400Z 07002KT 8000 SCT019 32/23 Q1013 NOSIG=
METAR WAFF 020300Z 00000KT 7000 SCT019 29/24 Q1015 RMK RERA=
METAR WAFF 020205Z 18003KT 7000 -RA SCT018 BKN020 28/23 Q1015 NOSIG=
METAR WAFF 020200Z 18003KT 7000 SCT018 BKN020 28/23 Q1015 NOSIG=
METAR WAFF 020100Z 18003KT 7000 SCT019 27/23 Q1015 NOSIG=
METAR WAFF 020000Z 20002KT 7000 SCT018 BKN020 26/24 Q1015 NOSIG=
METAR WAFF 012300Z 21003KT 6000 RA BKN020 26/24 Q1014 NOSIG=
METAR WAFF 012200Z 14004KT 6000 RA BKN019 26/23 Q1014 NOSIG=
METAR WAFF 012100Z 19003KT 7000 SCT019 26/24 Q1014 NOSIG=
METAR WAFF 012000Z 16002KT 7000 SCT019 27/24 Q1013 NOSIG=
METAR WAFF 011900Z 19002KT 7000 SCT019 27/24 Q1012 NOSIG=
METAR WAFF 011800Z 20002KT 7000 SCT019 27/24 Q1013 NOSIG=
METAR WAFF 011600Z 05002KT 6000 RA SCT019 28/24 Q1014 NOSIG=
METAR WAFF 011500Z 32004KT 7000 SCT019 29/24 Q1014 NOSIG=
METAR WAFF 011400Z 30002KT 7000 SCT019 29/24 Q1014 NOSIG=
METAR WAFF 011300Z 35004KT 7000 SCT019 29/24 Q1013 NOSIG=
METAR WAFF 011200Z 32006KT 8000 SCT019 30/25 Q1013 NOSIG=
METAR WAFF 011100Z 34009KT 8000 FEW018CB BKN020 29/25 Q1012 RMK CB TO NW=
METAR WAFF 011000Z 33011KT 8000 SCT018 BKN020 30/25 Q1011 NOSIG=
METAR WAFF 010900Z 34009KT 9000 SCT019TCU 31/25 Q1010 RMK TCU TO S=
METAR WAFF 010800Z 33012KT 9000 SCT019 32/24 Q1010 NOSIG=
METAR WAFF 010700Z 32014KT 9999 SCT019 33/24 Q1010 NOSIG=
METAR WAFF 010600Z 32012KT 9999 FEW018 SCT020 35/23 Q1010 NOSIG=
METAR WAFF 010500Z 33013KT 9999 FEW020 34/22 Q1011 NOSIG=
METAR WAFF 010400Z 30008KT 9999 FEW020 35/22 Q1012 NOSIG=
METAR WAFF 010300Z 28004KT 9999 FEW020 34/22 Q1013 NOSIG=
METAR WAFF 010200Z 13003KT 9999 FEW020 31/24 Q1014 NOSIG=
METAR WAFF 010100Z 18003KT 9999 FEW020 29/23 Q1014 NOSIG=
METAR WAFF 010000Z 13002KT 9999 FEW020 27/24 Q1015 NOSIG=
METAR WAFF 022300Z 09002KT 6000 SCT019 25/24 Q1014 NOSIG=
METAR WAFF 022200Z 14002KT 6000 SCT019 25/24 Q1013 NOSIG=
METAR WAFF 022100Z 17002KT 5000 SCT019 25/24 Q1013 NOSIG=
METAR WAFF 021800Z 15003KT 5000 -RA SCT019 25/24 Q1013=
METAR WAFF 021500Z 13002KT 6000 -RA SCT019 27/25 Q1014=
METAR WAFF 021430Z 32005KT 5000 -RA BKN018 28/25 Q1015=
METAR WAFF 021400Z 32005KT 7000 FEW020 28/25 Q1015=
METAR WAFF 021300Z 34003KT 7000 FEW020 28/25 Q1014=
METAR WAFF 021200Z 33006KT 7000 FEWCB018 SCT019 28/25 Q1013 RMK CB TO N E=
METAR WAFF 021000Z 32009KT 8000 FEW018CB SCT020 29/24 Q1012 RMK CB TO E=
METAR WAFF 020900Z 32010KT 9999 SCT020 30/24 Q1011 NOSIG=
METAR WAFF 020800Z 33010KT 9999 FEW018CB SCT020 31/24 Q1010 RMK CB TO E=
METAR WAFF 020700Z 33012KT 9999 FEW018CB SCT020 31/23 Q1010 RMK CB TO E=
METAR WAFF 020600Z 33014KT 9999 TS FEW018CB SCT020 32/23 Q1011 RMK CB TO E=
METAR WAFF 020500Z 33011KT 8000 SCT019 34/23 Q1012 NOSIG=
METAR WAFF 020400Z 07002KT 8000 SCT019 32/23 Q1013 NOSIG=
METAR WAFF 020300Z 00000KT 7000 SCT019 29/24 Q1015 RMK RERA=
METAR WAFF 020205Z 18003KT 7000 -RA SCT018 BKN020 28/23 Q1015 NOSIG=
METAR WAFF 020200Z 18003KT 7000 SCT018 BKN020 28/23 Q1015 NOSIG=
METAR WAFF 020100Z 18003KT 7000 SCT019 27/23 Q1015 NOSIG=
METAR WAFF 020000Z 20002KT 7000 SCT018 BKN020 26/24 Q1015 NOSIG=
METAR WAFF 012300Z 21003KT 6000 RA BKN020 26/24 Q1014 NOSIG=
METAR WAFF 012200Z 14004KT 6000 RA BKN019 26/23 Q1014 NOSIG=
METAR WAFF 012100Z 19003KT 7000 SCT019 26/24 Q1014 NOSIG=
METAR WAFF 012000Z 16002KT 7000 SCT019 27/24 Q1013 NOSIG=
METAR WAFF 011900Z 19002KT 7000 SCT019 27/24 Q1012 NOSIG=
METAR WAFF 011800Z 20002KT 7000 SCT019 27/24 Q1013 NOSIG=
METAR WAFF 011600Z 05002KT 6000 RA SCT019 28/24 Q1014 NOSIG=
METAR WAFF 011500Z 32004KT 7000 SCT019 29/24 Q1014 NOSIG=
METAR WAFF 011400Z 30002KT 7000 SCT019 29/24 Q1014 NOSIG=
METAR WAFF 011300Z 35004KT 7000 SCT019 29/24 Q1013 NOSIG=
METAR WAFF 011200Z 32006KT 8000 SCT019 30/25 Q1013 NOSIG=
METAR WAFF 011100Z 34009KT 8000 FEW018CB BKN020 29/25 Q1012 RMK CB TO NW=
METAR WAFF 011000Z 33011KT 8000 SCT018 BKN020 30/25 Q1011 NOSIG=
METAR WAFF 010900Z 34009KT 9000 SCT019TCU 31/25 Q1010 RMK TCU TO S=
METAR WAFF 010800Z 33012KT 9000 SCT019 32/24 Q1010 NOSIG=
METAR WAFF 010700Z 32014KT 9999 SCT019 33/24 Q1010 NOSIG=
METAR WAFF 010600Z 32012KT 9999 FEW018 SCT020 35/23 Q1010 NOSIG=
METAR WAFF 010500Z 33013KT 9999 FEW020 34/22 Q1011 NOSIG=
METAR WAFF 010400Z 30008KT 9999 FEW020 35/22 Q1012 NOSIG=
METAR WAFF 010300Z 28004KT 9999 FEW020 34/22 Q1013 NOSIG=
METAR WAFF 010200Z 13003KT 9999 FEW020 31/24 Q1014 NOSIG=
METAR WAFF 010100Z 18003KT 9999 FEW020 29/23 Q1014 NOSIG=
METAR WAFF 010000Z 13002KT 9999 FEW020 27/24 Q1015 NOSIG=
METAR WAFF 022300Z 09002KT 6000 SCT019 25/24 Q1014 NOSIG=
METAR WAFF 022200Z 14002KT 6000 SCT019 25/24 Q1013 NOSIG=
METAR WAFF 022100Z 17002KT 5000 SCT019 25/24 Q1013 NOSIG=
METAR WAFF 021800Z 15003KT 5000 -RA SCT019 25/24 Q1013=
METAR WAFF 021500Z 13002KT 6000 -RA SCT019 27/25 Q1014=
METAR WAFF 021430Z 32005KT 5000 -RA BKN018 28/25 Q1015=
METAR WAFF 021400Z 32005KT 7000 FEW020 28/25 Q1015=
METAR WAFF 021300Z 34003KT 7000 FEW020 28/25 Q1014=
METAR WAFF 021200Z 33006KT 7000 FEWCB018 SCT019 28/25 Q1013 RMK CB TO N E=
METAR WAFF 021000Z 32009KT 8000 FEW018CB SCT020 29/24 Q1012 RMK CB TO E=
METAR WAFF 020900Z 32010KT 9999 SCT020 30/24 Q1011 NOSIG=
METAR WAFF 020800Z 33010KT 9999 FEW018CB SCT020 31/24 Q1010 RMK CB TO E=
METAR WAFF 020700Z 33012KT 9999 FEW018CB SCT020 31/23 Q1010 RMK CB TO E=
METAR WAFF 020600Z 33014KT 9999 TS FEW018CB SCT020 32/23 Q1011 RMK CB TO E=
METAR WAFF 020500Z 33011KT 8000 SCT019 34/23 Q1012 NOSIG=
METAR WAFF 020400Z 07002KT 8000 SCT019 32/23 Q1013 NOSIG=
METAR WAFF 020300Z 00000KT 7000 SCT019 29/24 Q1015 RMK RERA=
METAR WAFF 020205Z 18003KT 7000 -RA SCT018 BKN020 28/23 Q1015 NOSIG=
METAR WAFF 020200Z 18003KT 7000 SCT018 BKN020 28/23 Q1015 NOSIG=
METAR WAFF 020100Z 18003KT 7000 SCT019 27/23 Q1015 NOSIG=
METAR WAFF 020000Z 20002KT 7000 SCT018 BKN020 26/24 Q1015 NOSIG=
METAR WAFF 012300Z 21003KT 6000 RA BKN020 26/24 Q1014 NOSIG=
METAR WAFF 012200Z 14004KT 6000 RA BKN019 26/23 Q1014 NOSIG=
METAR WAFF 012100Z 19003KT 7000 SCT019 26/24 Q1014 NOSIG=
METAR WAFF 012000Z 16002KT 7000 SCT019 27/24 Q1013 NOSIG=
METAR WAFF 011900Z 19002KT 7000 SCT019 27/24 Q1012 NOSIG=
METAR WAFF 011800Z 20002KT 7000 SCT019 27/24 Q1013 NOSIG=
METAR WAFF 011600Z 05002KT 6000 RA SCT019 28/24 Q1014 NOSIG=
METAR WAFF 011500Z 32004KT 7000 SCT019 29/24 Q1014 NOSIG=
METAR WAFF 011400Z 30002KT 7000 SCT019 29/24 Q1014 NOSIG=
METAR WAFF 011300Z 35004KT 7000 SCT019 29/24 Q1013 NOSIG=
METAR WAFF 011200Z 32006KT 8000 SCT019 30/25 Q1013 NOSIG=
METAR WAFF 011100Z 34009KT 8000 FEW018CB BKN020 29/25 Q1012 RMK CB TO NW=
METAR WAFF 011000Z 33011KT 8000 SCT018 BKN020 30/25 Q1011 NOSIG=
METAR WAFF 010900Z 34009KT 9000 SCT019TCU 31/25 Q1010 RMK TCU TO S=
METAR WAFF 010800Z 33012KT 9000 SCT019 32/24 Q1010 NOSIG=
METAR WAFF 010700Z 32014KT 9999 SCT019 33/24 Q1010 NOSIG=
METAR WAFF 010600Z 32012KT 9999 FEW018 SCT020 35/23 Q1010 NOSIG=
METAR WAFF 010500Z 33013KT 9999 FEW020 34/22 Q1011 NOSIG=
METAR WAFF 010400Z 30008KT 9999 FEW020 35/22 Q1012 NOSIG=
METAR WAFF 010300Z 28004KT 9999 FEW020 34/22 Q1013 NOSIG=
METAR WAFF 010200Z 13003KT 9999 FEW020 31/24 Q1014 NOSIG=
METAR WAFF 010100Z 18003KT 9999 FEW020 29/23 Q1014 NOSIG=
METAR WAFF 010000Z 13002KT 9999 FEW020 27/24 Q1015 NOSIG=
METAR WAFF 022300Z 09002KT 6000 SCT019 25/24 Q1014 NOSIG=
METAR WAFF 022200Z 14002KT 6000 SCT019 25/24 Q1013 NOSIG=
METAR WAFF 022100Z 17002KT 5000 SCT019 25/24 Q1013 NOSIG=
METAR WAFF 021800Z 15003KT 5000 -RA SCT019 25/24 Q1013=
METAR WAFF 021500Z 13002KT 6000 -RA SCT019 27/25 Q1014=
METAR WAFF 021430Z 32005KT 5000 -RA BKN018 28/25 Q1015=
METAR WAFF 021400Z 32005KT 7000 FEW020 28/25 Q1015=
METAR WAFF 021300Z 34003KT 7000 FEW020 28/25 Q1014=
METAR WAFF 021200Z 33006KT 7000 FEWCB018 SCT019 28/25 Q1013 RMK CB TO N E=
METAR WAFF 021000Z 32009KT 8000 FEW018CB SCT020 29/24 Q1012 RMK CB TO E=
METAR WAFF 020900Z 32010KT 9999 SCT020 30/24 Q1011 NOSIG=
METAR WAFF 020800Z 33010KT 9999 FEW018CB SCT020 31/24 Q1010 RMK CB TO E=
METAR WAFF 020700Z 33012KT 9999 FEW018CB SCT020 31/23 Q1010 RMK CB TO E=
METAR WAFF 020600Z 33014KT 9999 TS FEW018CB SCT020 32/23 Q1011 RMK CB TO E=
METAR WAFF 020500Z 33011KT 8000 SCT019 34/23 Q1012 NOSIG=
METAR WAFF 020400Z 07002KT 8000 SCT019 32/23 Q1013 NOSIG=
METAR WAFF 020300Z 00000KT 7000 SCT019 29/24 Q1015 RMK RERA=
METAR WAFF 020205Z 18003KT 7000 -RA SCT018 BKN020 28/23 Q1015 NOSIG=
METAR WAFF 020200Z 18003KT 7000 SCT018 BKN020 28/23 Q1015 NOSIG=
METAR WAFF 020100Z 18003KT 7000 SCT019 27/23 Q1015 NOSIG=
METAR WAFF 020000Z 20002KT 7000 SCT018 BKN020 26/24 Q1015 NOSIG=
METAR WAFF 012300Z 21003KT 6000 RA BKN020 26/24 Q1014 NOSIG=
METAR WAFF 012200Z 14004KT 6000 RA BKN019 26/23 Q1014 NOSIG=
METAR WAFF 012100Z 19003KT 7000 SCT019 26/24 Q1014 NOSIG=
METAR WAFF 012000Z 16002KT 7000 SCT019 27/24 Q1013 NOSIG=
METAR WAFF 011900Z 19002KT 7000 SCT019 27/24 Q1012 NOSIG=
METAR WAFF 011800Z 20002KT 7000 SCT019 27/24 Q1013 NOSIG=
METAR WAFF 011600Z 05002KT 6000 RA SCT019 28/24 Q1014 NOSIG=
METAR WAFF 011500Z 32004KT 7000 SCT019 29/24 Q1014 NOSIG=
METAR WAFF 011400Z 30002KT 7000 SCT019 29/24 Q1014 NOSIG=
METAR WAFF 011300Z 35004KT 7000 SCT019 29/24 Q1013 NOSIG=
METAR WAFF 011200Z 32006KT 8000 SCT019 30/25 Q1013 NOSIG=
METAR WAFF 011100Z 34009KT 8000 FEW018CB BKN020 29/25 Q1012 RMK CB TO NW=
METAR WAFF 011000Z 33011KT 8000 SCT018 BKN020 30/25 Q1011 NOSIG=
METAR WAFF 010900Z 34009KT 9000 SCT019TCU 31/25 Q1010 RMK TCU TO S=
METAR WAFF 010800Z 33012KT 9000 SCT019 32/24 Q1010 NOSIG=
METAR WAFF 010700Z 32014KT 9999 SCT019 33/24 Q1010 NOSIG=
METAR WAFF 010600Z 32012KT 9999 FEW018 SCT020 35/23 Q1010 NOSIG=
METAR WAFF 010500Z 33013KT 9999 FEW020 34/22 Q1011 NOSIG=
METAR WAFF 010400Z 30008KT 9999 FEW020 35/22 Q1012 NOSIG=
METAR WAFF 010300Z 28004KT 9999 FEW020 34/22 Q1013 NOSIG=
METAR WAFF 010200Z 13003KT 9999 FEW020 31/24 Q1014 NOSIG=
METAR WAFF 010100Z 18003KT 9999 FEW020 29/23 Q1014 NOSIG=
METAR WAFF 010000Z 13002KT 9999 FEW020 27/24 Q1015 NOSIG=
METAR WAFF 022300Z 09002KT 6000 SCT019 25/24 Q1014 NOSIG=
METAR WAFF 022200Z 14002KT 6000 SCT019 25/24 Q1013 NOSIG=
METAR WAFF 022100Z 17002KT 5000 SCT019 25/24 Q1013 NOSIG=
METAR WAFF 021800Z 15003KT 5000 -RA SCT019 25/24 Q1013=
METAR WAFF 021500Z 13002KT 6000 -RA SCT019 27/25 Q1014=
METAR WAFF 021430Z 32005KT 5000 -RA BKN018 28/25 Q1015=
METAR WAFF 021400Z 32005KT 7000 FEW020 28/25 Q1015=
METAR WAFF 021300Z 34003KT 7000 FEW020 28/25 Q1014=
METAR WAFF 021200Z 33006KT 7000 FEWCB018 SCT019 28/25 Q1013 RMK CB TO N E=
METAR WAFF 021000Z 32009KT 8000 FEW018CB SCT020 29/24 Q1012 RMK CB TO E=
METAR WAFF 020900Z 32010KT 9999 SCT020 30/24 Q1011 NOSIG=
METAR WAFF 020800Z 33010KT 9999 FEW018CB SCT020 31/24 Q1010 RMK CB TO E=
METAR WAFF 020700Z 33012KT 9999 FEW018CB SCT020 31/23 Q1010 RMK CB TO E=
METAR WAFF 020600Z 33014KT 9999 TS FEW018CB SCT020 32/23 Q1011 RMK CB TO E=
METAR WAFF 020500Z 33011KT 8000 SCT019 34/23 Q1012 NOSIG=
METAR WAFF 020400Z 07002KT 8000 SCT019 32/23 Q1013 NOSIG=
METAR WAFF 020300Z 00000KT 7000 SCT019 29/24 Q1015 RMK RERA=
METAR WAFF 020205Z 18003KT 7000 -RA SCT018 BKN020 28/23 Q1015 NOSIG=
METAR WAFF 020200Z 18003KT 7000 SCT018 BKN020 28/23 Q1015 NOSIG=
METAR WAFF 020100Z 18003KT 7000 SCT019 27/23 Q1015 NOSIG=
METAR WAFF 020000Z 20002KT 7000 SCT018 BKN020 26/24 Q1015 NOSIG=
METAR WAFF 012300Z 21003KT 6000 RA BKN020 26/24 Q1014 NOSIG=
METAR WAFF 012200Z 14004KT 6000 RA BKN019 26/23 Q1014 NOSIG=
METAR WAFF 012100Z 19003KT 7000 SCT019 26/24 Q1014 NOSIG=
METAR WAFF 012000Z 16002KT 7000 SCT019 27/24 Q1013 NOSIG=
METAR WAFF 011900Z 19002KT 7000 SCT019 27/24 Q1012 NOSIG=
METAR WAFF 011800Z 20002KT 7000 SCT019 27/24 Q1013 NOSIG=
METAR WAFF 011600Z 05002KT 6000 RA SCT019 28/24 Q1014 NOSIG=
METAR WAFF 011500Z 32004KT 7000 SCT019 29/24 Q1014 NOSIG=
METAR WAFF 011400Z 30002KT 7000 SCT019 29/24 Q1014 NOSIG=
METAR WAFF 011300Z 35004KT 7000 SCT019 29/24 Q1013 NOSIG=
METAR WAFF 011200Z 32006KT 8000 SCT019 30/25 Q1013 NOSIG=
METAR WAFF 011100Z 34009KT 8000 FEW018CB BKN020 29/25 Q1012 RMK CB TO NW=
METAR WAFF 011000Z 33011KT 8000 SCT018 BKN020 30/25 Q1011 NOSIG=
METAR WAFF 010900Z 34009KT 9000 SCT019TCU 31/25 Q1010 RMK TCU TO S=
METAR WAFF 010800Z 33012KT 9000 SCT019 32/24 Q1010 NOSIG=
METAR WAFF 010700Z 32014KT 9999 SCT019 33/24 Q1010 NOSIG=
METAR WAFF 010600Z 32012KT 9999 FEW018 SCT020 35/23 Q1010 NOSIG=
METAR WAFF 010500Z 33013KT 9999 FEW020 34/22 Q1011 NOSIG=
METAR WAFF 010400Z 30008KT 9999 FEW020 35/22 Q1012 NOSIG=
METAR WAFF 010300Z 28004KT 9999 FEW020 34/22 Q1013 NOSIG=
METAR WAFF 010200Z 13003KT 9999 FEW020 31/24 Q1014 NOSIG=
METAR WAFF 010100Z 18003KT 9999 FEW020 29/23 Q1014 NOSIG=
METAR WAFF 010000Z 13002KT 9999 FEW020 27/24 Q1015 NOSIG=
METAR WAFF 022300Z 09002KT 6000 SCT019 25/24 Q1014 NOSIG=
METAR WAFF 022200Z 14002KT 6000 SCT019 25/24 Q1013 NOSIG=
METAR WAFF 022100Z 17002KT 5000 SCT019 25/24 Q1013 NOSIG=
METAR WAFF 021800Z 15003KT 5000 -RA SCT019 25/24 Q1013=
METAR WAFF 021500Z 13002KT 6000 -RA SCT019 27/25 Q1014=
METAR WAFF 021430Z 32005KT 5000 -RA BKN018 28/25 Q1015=
METAR WAFF 021400Z 32005KT 7000 FEW020 28/25 Q1015=
METAR WAFF 021300Z 34003KT 7000 FEW020 28/25 Q1014=
METAR WAFF 021200Z 33006KT 7000 FEWCB018 SCT019 28/25 Q1013 RMK CB TO N E=
METAR WAFF 021000Z 32009KT 8000 FEW018CB SCT020 29/24 Q1012 RMK CB TO E=
METAR WAFF 020900Z 32010KT 9999 SCT020 30/24 Q1011 NOSIG=
METAR WAFF 020800Z 33010KT 9999 FEW018CB SCT020 31/24 Q1010 RMK CB TO E=
METAR WAFF 020700Z 33012KT 9999 FEW018CB SCT020 31/23 Q1010 RMK CB TO E=
METAR WAFF 020600Z 33014KT 9999 TS FEW018CB SCT020 32/23 Q1011 RMK CB TO E=
METAR WAFF 020500Z 33011KT 8000 SCT019 34/23 Q1012 NOSIG=
METAR WAFF 020400Z 07002KT 8000 SCT019 32/23 Q1013 NOSIG=
METAR WAFF 020300Z 00000KT 7000 SCT019 29/24 Q1015 RMK RERA=
METAR WAFF 020205Z 18003KT 7000 -RA SCT018 BKN020 28/23 Q1015 NOSIG=
METAR WAFF 020200Z 18003KT 7000 SCT018 BKN020 28/23 Q1015 NOSIG=
METAR WAFF 020100Z 18003KT 7000 SCT019 27/23 Q1015 NOSIG=
METAR WAFF 020000Z 20002KT 7000 SCT018 BKN020 26/24 Q1015 NOSIG=
METAR WAFF 012300Z 21003KT 6000 RA BKN020 26/24 Q1014 NOSIG=
METAR WAFF 012200Z 14004KT 6000 RA BKN019 26/23 Q1014 NOSIG=
METAR WAFF 012100Z 19003KT 7000 SCT019 26/24 Q1014 NOSIG=
METAR WAFF 012000Z 16002KT 7000 SCT019 27/24 Q1013 NOSIG=
METAR WAFF 011900Z 19002KT 7000 SCT019 27/24 Q1012 NOSIG=
METAR WAFF 011800Z 20002KT 7000 SCT019 27/24 Q1013 NOSIG=
METAR WAFF 011600Z 05002KT 6000 RA SCT019 28/24 Q1014 NOSIG=
METAR WAFF 011500Z 32004KT 7000 SCT019 29/24 Q1014 NOSIG=
METAR WAFF 011400Z 30002KT 7000 SCT019 29/24 Q1014 NOSIG=
METAR WAFF 011300Z 35004KT 7000 SCT019 29/24 Q1013 NOSIG=
METAR WAFF 011200Z 32006KT 8000 SCT019 30/25 Q1013 NOSIG=
METAR WAFF 011100Z 34009KT 8000 FEW018CB BKN020 29/25 Q1012 RMK CB TO NW=
METAR WAFF 011000Z 33011KT 8000 SCT018 BKN020 30/25 Q1011 NOSIG=
METAR WAFF 010900Z 34009KT 9000 SCT019TCU 31/25 Q1010 RMK TCU TO S=
METAR WAFF 010800Z 33012KT 9000 SCT019 32/24 Q1010 NOSIG=
METAR WAFF 010700Z 32014KT 9999 SCT019 33/24 Q1010 NOSIG=
METAR WAFF 010600Z 32012KT 9999 FEW018 SCT020 35/23 Q1010 NOSIG=
METAR WAFF 010500Z 33013KT 9999 FEW020 34/22 Q1011 NOSIG=
METAR WAFF 010400Z 30008KT 9999 FEW020 35/22 Q1012 NOSIG=
METAR WAFF 010300Z 28004KT 9999 FEW020 34/22 Q1013 NOSIG=
METAR WAFF 010200Z 13003KT 9999 FEW020 31/24 Q1014 NOSIG=
METAR WAFF 010100Z 18003KT 9999 FEW020 29/23 Q1014 NOSIG=
METAR WAFF 010000Z 13002KT 9999 FEW020 27/24 Q1015 NOSIG=
METAR WAFF 022300Z 09002KT 6000 SCT019 25/24 Q1014 NOSIG=
METAR WAFF 022200Z 14002KT 6000 SCT019 25/24 Q1013 NOSIG=
METAR WAFF 022100Z 17002KT 5000 SCT019 25/24 Q1013 NOSIG=
METAR WAFF 021800Z 15003KT 5000 -RA SCT019 25/24 Q1013=
METAR WAFF 021500Z 13002KT 6000 -RA SCT019 27/25 Q1014=
METAR WAFF 021430Z 32005KT 5000 -RA BKN018 28/25 Q1015=
METAR WAFF 021400Z 32005KT 7000 FEW020 28/25 Q1015=
METAR WAFF 021300Z 34003KT 7000 FEW020 28/25 Q1014=
METAR WAFF 021200Z 33006KT 7000 FEWCB018 SCT019 28/25 Q1013 RMK CB TO N E=
METAR WAFF 021000Z 32009KT 8000 FEW018CB SCT020 29/24 Q1012 RMK CB TO E=
METAR WAFF 020900Z 32010KT 9999 SCT020 30/24 Q1011 NOSIG=
METAR WAFF 020800Z 33010KT 9999 FEW018CB SCT020 31/24 Q1010 RMK CB TO E=
METAR WAFF 020700Z 33012KT 9999 FEW018CB SCT020 31/23 Q1010 RMK CB TO E=
METAR WAFF 020600Z 33014KT 9999 TS FEW018CB SCT020 32/23 Q1011 RMK CB TO E=
METAR WAFF 020500Z 33011KT 8000 SCT019 34/23 Q1012 NOSIG=
METAR WAFF 020400Z 07002KT 8000 SCT019 32/23 Q1013 NOSIG=
METAR WAFF 020300Z 00000KT 7000 SCT019 29/24 Q1015 RMK RERA=
METAR WAFF 020205Z 18003KT 7000 -RA SCT018 BKN020 28/23 Q1015 NOSIG=
METAR WAFF 020200Z 18003KT 7000 SCT018 BKN020 28/23 Q1015 NOSIG=
METAR WAFF 020100Z 18003KT 7000 SCT019 27/23 Q1015 NOSIG=
METAR WAFF 020000Z 20002KT 7000 SCT018 BKN020 26/24 Q1015 NOSIG=
METAR WAFF 012300Z 21003KT 6000 RA BKN020 26/24 Q1014 NOSIG=
METAR WAFF 012200Z 14004KT 6000 RA BKN019 26/23 Q1014 NOSIG=
METAR WAFF 012100Z 19003KT 7000 SCT019 26/24 Q1014 NOSIG=
METAR WAFF 012000Z 16002KT 7000 SCT019 27/24 Q1013 NOSIG=
METAR WAFF 011900Z 19002KT 7000 SCT019 27/24 Q1012 NOSIG=
METAR WAFF 011800Z 20002KT 7000 SCT019 27/24 Q1013 NOSIG=
METAR WAFF 011600Z 05002KT 6000 RA SCT019 28/24 Q1014 NOSIG=
METAR WAFF 011500Z 32004KT 7000 SCT019 29/24 Q1014 NOSIG=
METAR WAFF 011400Z 30002KT 7000 SCT019 29/24 Q1014 NOSIG=
METAR WAFF 011300Z 35004KT 7000 SCT019 29/24 Q1013 NOSIG=
METAR WAFF 011200Z 32006KT 8000 SCT019 30/25 Q1013 NOSIG=
METAR WAFF 011100Z 34009KT 8000 FEW018CB BKN020 29/25 Q1012 RMK CB TO NW=
METAR WAFF 011000Z 33011KT 8000 SCT018 BKN020 30/25 Q1011 NOSIG=
METAR WAFF 010900Z 34009KT 9000 SCT019TCU 31/25 Q1010 RMK TCU TO S=
METAR WAFF 010800Z 33012KT 9000 SCT019 32/24 Q1010 NOSIG=
METAR WAFF 010700Z 32014KT 9999 SCT019 33/24 Q1010 NOSIG=
METAR WAFF 010600Z 32012KT 9999 FEW018 SCT020 35/23 Q1010 NOSIG=
METAR WAFF 010500Z 33013KT 9999 FEW020 34/22 Q1011 NOSIG=
METAR WAFF 010400Z 30008KT 9999 FEW020 35/22 Q1012 NOSIG=
METAR WAFF 010300Z 28004KT 9999 FEW020 34/22 Q1013 NOSIG=
METAR WAFF 010200Z 13003KT 9999 FEW020 31/24 Q1014 NOSIG=
METAR WAFF 010100Z 18003KT 9999 FEW020 29/23 Q1014 NOSIG=
METAR WAFF 010000Z 13002KT 9999 FEW020 27/24 Q1015 NOSIG=
METAR WAFF 022300Z 09002KT 6000 SCT019 25/24 Q1014 NOSIG=
METAR WAFF 022200Z 14002KT 6000 SCT019 25/24 Q1013 NOSIG=
METAR WAFF 022100Z 17002KT 5000 SCT019 25/24 Q1013 NOSIG=
METAR WAFF 021800Z 15003KT 5000 -RA SCT019 25/24 Q1013=
METAR WAFF 021500Z 13002KT 6000 -RA SCT019 27/25 Q1014=
METAR WAFF 021430Z 32005KT 5000 -RA BKN018 28/25 Q1015=
METAR WAFF 021400Z 32005KT 7000 FEW020 28/25 Q1015=
METAR WAFF 021300Z 34003KT 7000 FEW020 28/25 Q1014=
METAR WAFF 021200Z 33006KT 7000 FEWCB018 SCT019 28/25 Q1013 RMK CB TO N E=
METAR WAFF 021000Z 32009KT 8000 FEW018CB SCT020 29/24 Q1012 RMK CB TO E=
METAR WAFF 020900Z 32010KT 9999 SCT020 30/24 Q1011 NOSIG=
METAR WAFF 020800Z 33010KT 9999 FEW018CB SCT020 31/24 Q1010 RMK CB TO E=
METAR WAFF 020700Z 33012KT 9999 FEW018CB SCT020 31/23 Q1010 RMK CB TO E=
METAR WAFF 020600Z 33014KT 9999 TS FEW018CB SCT020 32/23 Q1011 RMK CB TO E=
METAR WAFF 020500Z 33011KT 8000 SCT019 34/23 Q1012 NOSIG=
METAR WAFF 020400Z 07002KT 8000 SCT019 32/23 Q1013 NOSIG=
METAR WAFF 020300Z 00000KT 7000 SCT019 29/24 Q1015 RMK RERA=
METAR WAFF 020205Z 18003KT 7000 -RA SCT018 BKN020 28/23 Q1015 NOSIG=
METAR WAFF 020200Z 18003KT 7000 SCT018 BKN020 28/23 Q1015 NOSIG=
METAR WAFF 020100Z 18003KT 7000 SCT019 27/23 Q1015 NOSIG=
METAR WAFF 020000Z 20002KT 7000 SCT018 BKN020 26/24 Q1015 NOSIG=
METAR WAFF 012300Z 21003KT 6000 RA BKN020 26/24 Q1014 NOSIG=
METAR WAFF 012200Z 14004KT 6000 RA BKN019 26/23 Q1014 NOSIG=
METAR WAFF 012100Z 19003KT 7000 SCT019 26/24 Q1014 NOSIG=
METAR WAFF 012000Z 16002KT 7000 SCT019 27/24 Q1013 NOSIG=
METAR WAFF 011900Z 19002KT 7000 SCT019 27/24 Q1012 NOSIG=
METAR WAFF 011800Z 20002KT 7000 SCT019 27/24 Q1013 NOSIG=
METAR WAFF 011600Z 05002KT 6000 RA SCT019 28/24 Q1014 NOSIG=
METAR WAFF 011500Z 32004KT 7000 SCT019 29/24 Q1014 NOSIG=
METAR WAFF 011400Z 30002KT 7000 SCT019 29/24 Q1014 NOSIG=
METAR WAFF 011300Z 35004KT 7000 SCT019 29/24 Q1013 NOSIG=
METAR WAFF 011200Z 32006KT 8000 SCT019 30/25 Q1013 NOSIG=
METAR WAFF 011100Z 34009KT 8000 FEW018CB BKN020 29/25 Q1012 RMK CB TO NW=
METAR WAFF 011000Z 33011KT 8000 SCT018 BKN020 30/25 Q1011 NOSIG=
METAR WAFF 010900Z 34009KT 9000 SCT019TCU 31/25 Q1010 RMK TCU TO S=
METAR WAFF 010800Z 33012KT 9000 SCT019 32/24 Q1010 NOSIG=
METAR WAFF 010700Z 32014KT 9999 SCT019 33/24 Q1010 NOSIG=
METAR WAFF 010600Z 32012KT 9999 FEW018 SCT020 35/23 Q1010 NOSIG=
METAR WAFF 010500Z 33013KT 9999 FEW020 34/22 Q1011 NOSIG=
METAR WAFF 010400Z 30008KT 9999 FEW020 35/22 Q1012 NOSIG=
METAR WAFF 010300Z 28004KT 9999 FEW020 34/22 Q1013 NOSIG=
METAR WAFF 010200Z 13003KT 9999 FEW020 31/24 Q1014 NOSIG=
METAR WAFF 010100Z 18003KT 9999 FEW020 29/23 Q1014 NOSIG=
METAR WAFF 010000Z 13002KT 9999 FEW020 27/24 Q1015 NOSIG=
METAR WAFF 022300Z 09002KT 6000 SCT019 25/24 Q1014 NOSIG=
METAR WAFF 022200Z 14002KT 6000 SCT019 25/24 Q1013 NOSIG=
METAR WAFF 022100Z 17002KT 5000 SCT019 25/24 Q1013 NOSIG=
METAR WAFF 021800Z 15003KT 5000 -RA SCT019 25/24 Q1013=
METAR WAFF 021500Z 13002KT 6000 -RA SCT019 27/25 Q1014=
METAR WAFF 021430Z 32005KT 5000 -RA BKN018 28/25 Q1015=
METAR WAFF 021400Z 32005KT 7000 FEW020 28/25 Q1015=
METAR WAFF 021300Z 34003KT 7000 FEW020 28/25 Q1014=
METAR WAFF 021200Z 33006KT 7000 FEWCB018 SCT019 28/25 Q1013 RMK CB TO N E=
METAR WAFF 021000Z 32009KT 8000 FEW018CB SCT020 29/24 Q1012 RMK CB TO E=
METAR WAFF 020900Z 32010KT 9999 SCT020 30/24 Q1011 NOSIG=
METAR WAFF 020800Z 33010KT 9999 FEW018CB SCT020 31/24 Q1010 RMK CB TO E=
METAR WAFF 020700Z 33012KT 9999 FEW018CB SCT020 31/23 Q1010 RMK CB TO E=
METAR WAFF 020600Z 33014KT 9999 TS FEW018CB SCT020 32/23 Q1011 RMK CB TO E=
METAR WAFF 020500Z 33011KT 8000 SCT019 34/23 Q1012 NOSIG=
METAR WAFF 020400Z 07002KT 8000 SCT019 32/23 Q1013 NOSIG=
METAR WAFF 020300Z 00000KT 7000 SCT019 29/24 Q1015 RMK RERA=
METAR WAFF 020205Z 18003KT 7000 -RA SCT018 BKN020 28/23 Q1015 NOSIG=
METAR WAFF 020200Z 18003KT 7000 SCT018 BKN020 28/23 Q1015 NOSIG=
METAR WAFF 020100Z 18003KT 7000 SCT019 27/23 Q1015 NOSIG=
METAR WAFF 020000Z 20002KT 7000 SCT018 BKN020 26/24 Q1015 NOSIG=
METAR WAFF 012300Z 21003KT 6000 RA BKN020 26/24 Q1014 NOSIG=
METAR WAFF 012200Z 14004KT 6000 RA BKN019 26/23 Q1014 NOSIG=
METAR WAFF 012100Z 19003KT 7000 SCT019 26/24 Q1014 NOSIG=
METAR WAFF 012000Z 16002KT 7000 SCT019 27/24 Q1013 NOSIG=
METAR WAFF 011900Z 19002KT 7000 SCT019 27/24 Q1012 NOSIG=
METAR WAFF 011800Z 20002KT 7000 SCT019 27/24 Q1013 NOSIG=
METAR WAFF 011600Z 05002KT 6000 RA SCT019 28/24 Q1014 NOSIG=
METAR WAFF 011500Z 32004KT 7000 SCT019 29/24 Q1014 NOSIG=
METAR WAFF 011400Z 30002KT 7000 SCT019 29/24 Q1014 NOSIG=
METAR WAFF 011300Z 35004KT 7000 SCT019 29/24 Q1013 NOSIG=
METAR WAFF 011200Z 32006KT 8000 SCT019 30/25 Q1013 NOSIG=
METAR WAFF 011100Z 34009KT 8000 FEW018CB BKN020 29/25 Q1012 RMK CB TO NW=
METAR WAFF 011000Z 33011KT 8000 SCT018 BKN020 30/25 Q1011 NOSIG=
METAR WAFF 010900Z 34009KT 9000 SCT019TCU 31/25 Q1010 RMK TCU TO S=
METAR WAFF 010800Z 33012KT 9000 SCT019 32/24 Q1010 NOSIG=
METAR WAFF 010700Z 32014KT 9999 SCT019 33/24 Q1010 NOSIG=
METAR WAFF 010600Z 32012KT 9999 FEW018 SCT020 35/23 Q1010 NOSIG=
METAR WAFF 010500Z 33013KT 9999 FEW020 34/22 Q1011 NOSIG=
METAR WAFF 010400Z 30008KT 9999 FEW020 35/22 Q1012 NOSIG=
METAR WAFF 010300Z 28004KT 9999 FEW020 34/22 Q1013 NOSIG=
METAR WAFF 010200Z 13003KT 9999 FEW020 31/24 Q1014 NOSIG=
METAR WAFF 010100Z 18003KT 9999 FEW020 29/23 Q1014 NOSIG=
METAR WAFF 010000Z 13002KT 9999 FEW020 27/24 Q1015 NOSIG=
METAR WAFF 022300Z 09002KT 6000 SCT019 25/24 Q1014 NOSIG=
METAR WAFF 022200Z 14002KT 6000 SCT019 25/24 Q1013 NOSIG=
METAR WAFF 022100Z 17002KT 5000 SCT019 25/24 Q1013 NOSIG=
METAR WAFF 021800Z 15003KT 5000 -RA SCT019 25/24 Q1013=
METAR WAFF 021500Z 13002KT 6000 -RA SCT019 27/25 Q1014=
METAR WAFF 021430Z 32005KT 5000 -RA BKN018 28/25 Q1015=
METAR WAFF 021400Z 32005KT 7000 FEW020 28/25 Q1015=
METAR WAFF 021300Z 34003KT 7000 FEW020 28/25 Q1014=
METAR WAFF 021200Z 33006KT 7000 FEWCB018 SCT019 28/25 Q1013 RMK CB TO N E=
METAR WAFF 021000Z 32009KT 8000 FEW018CB SCT020 29/24 Q1012 RMK CB TO E=
METAR WAFF 020900Z 32010KT 9999 SCT020 30/24 Q1011 NOSIG=
METAR WAFF 020800Z 33010KT 9999 FEW018CB SCT020 31/24 Q1010 RMK CB TO E=
METAR WAFF 020700Z 33012KT 9999 FEW018CB SCT020 31/23 Q1010 RMK CB TO E=
METAR WAFF 020600Z 33014KT 9999 TS FEW018CB SCT020 32/23 Q1011 RMK CB TO E=
METAR WAFF 020500Z 33011KT 8000 SCT019 34/23 Q1012 NOSIG=
METAR WAFF 020400Z 07002KT 8000 SCT019 32/23 Q1013 NOSIG=
METAR WAFF 020300Z 00000KT 7000 SCT019 29/24 Q1015 RMK RERA=
METAR WAFF 020205Z 18003KT 7000 -RA SCT018 BKN020 28/23 Q1015 NOSIG=
METAR WAFF 020200Z 18003KT 7000 SCT018 BKN020 28/23 Q1015 NOSIG=
METAR WAFF 020100Z 18003KT 7000 SCT019 27/23 Q1015 NOSIG=
METAR WAFF 020000Z 20002KT 7000 SCT018 BKN020 26/24 Q1015 NOSIG=
METAR WAFF 012300Z 21003KT 6000 RA BKN020 26/24 Q1014 NOSIG=
METAR WAFF 012200Z 14004KT 6000 RA BKN019 26/23 Q1014 NOSIG=
METAR WAFF 012100Z 19003KT 7000 SCT019 26/24 Q1014 NOSIG=
METAR WAFF 012000Z 16002KT 7000 SCT019 27/24 Q1013 NOSIG=
METAR WAFF 011900Z 19002KT 7000 SCT019 27/24 Q1012 NOSIG=
METAR WAFF 011800Z 20002KT 7000 SCT019 27/24 Q1013 NOSIG=
METAR WAFF 011600Z 05002KT 6000 RA SCT019 28/24 Q1014 NOSIG=
METAR WAFF 011500Z 32004KT 7000 SCT019 29/24 Q1014 NOSIG=
METAR WAFF 011400Z 30002KT 7000 SCT019 29/24 Q1014 NOSIG=
METAR WAFF 011300Z 35004KT 7000 SCT019 29/24 Q1013 NOSIG=
METAR WAFF 011200Z 32006KT 8000 SCT019 30/25 Q1013 NOSIG=
METAR WAFF 011100Z 34009KT 8000 FEW018CB BKN020 29/25 Q1012 RMK CB TO NW=
METAR WAFF 011000Z 33011KT 8000 SCT018 BKN020 30/25 Q1011 NOSIG=
METAR WAFF 010900Z 34009KT 9000 SCT019TCU 31/25 Q1010 RMK TCU TO S=
METAR WAFF 010800Z 33012KT 9000 SCT019 32/24 Q1010 NOSIG=
METAR WAFF 010700Z 32014KT 9999 SCT019 33/24 Q1010 NOSIG=
METAR WAFF 010600Z 32012KT 9999 FEW018 SCT020 35/23 Q1010 NOSIG=
METAR WAFF 010500Z 33013KT 9999 FEW020 34/22 Q1011 NOSIG=
METAR WAFF 010400Z 30008KT 9999 FEW020 35/22 Q1012 NOSIG=
METAR WAFF 010300Z 28004KT 9999 FEW020 34/22 Q1013 NOSIG=
METAR WAFF 010200Z 13003KT 9999 FEW020 31/24 Q1014 NOSIG=
METAR WAFF 010100Z 18003KT 9999 FEW020 29/23 Q1014 NOSIG=
METAR WAFF 010000Z 13002KT 9999 FEW020 27/24 Q1015 NOSIG=
METAR WAFF 022300Z 09002KT 6000 SCT019 25/24 Q1014 NOSIG=
METAR WAFF 022200Z 14002KT 6000 SCT019 25/24 Q1013 NOSIG=
METAR WAFF 022100Z 17002KT 5000 SCT019 25/24 Q1013 NOSIG=
METAR WAFF 021800Z 15003KT 5000 -RA SCT019 25/24 Q1013=
METAR WAFF 021500Z 13002KT 6000 -RA SCT019 27/25 Q1014=
METAR WAFF 021430Z 32005KT 5000 -RA BKN018 28/25 Q1015=
METAR WAFF 021400Z 32005KT 7000 FEW020 28/25 Q1015=
METAR WAFF 021300Z 34003KT 7000 FEW020 28/25 Q1014=
METAR WAFF 021200Z 33006KT 7000 FEWCB018 SCT019 28/25 Q1013 RMK CB TO N E=
METAR WAFF 021000Z 32009KT 8000 FEW018CB SCT020 29/24 Q1012 RMK CB TO E=
METAR WAFF 020900Z 32010KT 9999 SCT020 30/24 Q1011 NOSIG=
METAR WAFF 020800Z 33010KT 9999 FEW018CB SCT020 31/24 Q1010 RMK CB TO E=
METAR WAFF 020700Z 33012KT 9999 FEW018CB SCT020 31/23 Q1010 RMK CB TO E=
METAR WAFF 020600Z 33014KT 9999 TS FEW018CB SCT020 32/23 Q1011 RMK CB TO E=
METAR WAFF 020500Z 33011KT 8000 SCT019 34/23 Q1012 NOSIG=
METAR WAFF 020400Z 07002KT 8000 SCT019 32/23 Q1013 NOSIG=
METAR WAFF 020300Z 00000KT 7000 SCT019 29/24 Q1015 RMK RERA=
METAR WAFF 020205Z 18003KT 7000 -RA SCT018 BKN020 28/23 Q1015 NOSIG=
METAR WAFF 020200Z 18003KT 7000 SCT018 BKN020 28/23 Q1015 NOSIG=
METAR WAFF 020100Z 18003KT 7000 SCT019 27/23 Q1015 NOSIG=
METAR WAFF 020000Z 20002KT 7000 SCT018 BKN020 26/24 Q1015 NOSIG=
METAR WAFF 012300Z 21003KT 6000 RA BKN020 26/24 Q1014 NOSIG=
METAR WAFF 012200Z 14004KT 6000 RA BKN019 26/23 Q1014 NOSIG=
METAR WAFF 012100Z 19003KT 7000 SCT019 26/24 Q1014 NOSIG=
METAR WAFF 012000Z 16002KT 7000 SCT019 27/24 Q1013 NOSIG=
METAR WAFF 011900Z 19002KT 7000 SCT019 27/24 Q1012 NOSIG=
METAR WAFF 011800Z 20002KT 7000 SCT019 27/24 Q1013 NOSIG=
METAR WAFF 011600Z 05002KT 6000 RA SCT019 28/24 Q1014 NOSIG=
METAR WAFF 011500Z 32004KT 7000 SCT019 29/24 Q1014 NOSIG=
METAR WAFF 011400Z 30002KT 7000 SCT019 29/24 Q1014 NOSIG=
METAR WAFF 011300Z 35004KT 7000 SCT019 29/24 Q1013 NOSIG=
METAR WAFF 011200Z 32006KT 8000 SCT019 30/25 Q1013 NOSIG=
METAR WAFF 011100Z 34009KT 8000 FEW018CB BKN020 29/25 Q1012 RMK CB TO NW=
METAR WAFF 011000Z 33011KT 8000 SCT018 BKN020 30/25 Q1011 NOSIG=
METAR WAFF 010900Z 34009KT 9000 SCT019TCU 31/25 Q1010 RMK TCU TO S=
METAR WAFF 010800Z 33012KT 9000 SCT019 32/24 Q1010 NOSIG=
METAR WAFF 010700Z 32014KT 9999 SCT019 33/24 Q1010 NOSIG=
METAR WAFF 010600Z 32012KT 9999 FEW018 SCT020 35/23 Q1010 NOSIG=
METAR WAFF 010500Z 33013KT 9999 FEW020 34/22 Q1011 NOSIG=
METAR WAFF 010400Z 30008KT 9999 FEW020 35/22 Q1012 NOSIG=
METAR WAFF 010300Z 28004KT 9999 FEW020 34/22 Q1013 NOSIG=
METAR WAFF 010200Z 13003KT 9999 FEW020 31/24 Q1014 NOSIG=
METAR WAFF 010100Z 18003KT 9999 FEW020 29/23 Q1014 NOSIG=
METAR WAFF 010000Z 13002KT 9999 FEW020 27/24 Q1015 NOSIG=
METAR WAFF 022300Z 09002KT 6000 SCT019 25/24 Q1014 NOSIG=
METAR WAFF 022200Z 14002KT 6000 SCT019 25/24 Q1013 NOSIG=
METAR WAFF 022100Z 17002KT 5000 SCT019 25/24 Q1013 NOSIG=
METAR WAFF 021800Z 15003KT 5000 -RA SCT019 25/24 Q1013=
METAR WAFF 021500Z 13002KT 6000 -RA SCT019 27/25 Q1014=
METAR WAFF 021430Z 32005KT 5000 -RA BKN018 28/25 Q1015=
METAR WAFF 021400Z 32005KT 7000 FEW020 28/25 Q1015=
METAR WAFF 021300Z 34003KT 7000 FEW020 28/25 Q1014=
METAR WAFF 021200Z 33006KT 7000 FEWCB018 SCT019 28/25 Q1013 RMK CB TO N E=
METAR WAFF 021000Z 32009KT 8000 FEW018CB SCT020 29/24 Q1012 RMK CB TO E=
METAR WAFF 020900Z 32010KT 9999 SCT020 30/24 Q1011 NOSIG=
METAR WAFF 020800Z 33010KT 9999 FEW018CB SCT020 31/24 Q1010 RMK CB TO E=
METAR WAFF 020700Z 33012KT 9999 FEW018CB SCT020 31/23 Q1010 RMK CB TO E=
METAR WAFF 020600Z 33014KT 9999 TS FEW018CB SCT020 32/23 Q1011 RMK CB TO E=
METAR WAFF 020500Z 33011KT 8000 SCT019 34/23 Q1012 NOSIG=
METAR WAFF 020400Z 07002KT 8000 SCT019 32/23 Q1013 NOSIG=
METAR WAFF 020300Z 00000KT 7000 SCT019 29/24 Q1015 RMK RERA=
METAR WAFF 020205Z 18003KT 7000 -RA SCT018 BKN020 28/23 Q1015 NOSIG=
METAR WAFF 020200Z 18003KT 7000 SCT018 BKN020 28/23 Q1015 NOSIG=
METAR WAFF 020100Z 18003KT 7000 SCT019 27/23 Q1015 NOSIG=
METAR WAFF 020000Z 20002KT 7000 SCT018 BKN020 26/24 Q1015 NOSIG=
METAR WAFF 012300Z 21003KT 6000 RA BKN020 26/24 Q1014 NOSIG=
METAR WAFF 012200Z 14004KT 6000 RA BKN019 26/23 Q1014 NOSIG=
METAR WAFF 012100Z 19003KT 7000 SCT019 26/24 Q1014 NOSIG=
METAR WAFF 012000Z 16002KT 7000 SCT019 27/24 Q1013 NOSIG=
METAR WAFF 011900Z 19002KT 7000 SCT019 27/24 Q1012 NOSIG=
METAR WAFF 011800Z 20002KT 7000 SCT019 27/24 Q1013 NOSIG=
METAR WAFF 011600Z 05002KT 6000 RA SCT019 28/24 Q1014 NOSIG=
METAR WAFF 011500Z 32004KT 7000 SCT019 29/24 Q1014 NOSIG=
METAR WAFF 011400Z 30002KT 7000 SCT019 29/24 Q1014 NOSIG=
METAR WAFF 011300Z 35004KT 7000 SCT019 29/24 Q1013 NOSIG=
METAR WAFF 011200Z 32006KT 8000 SCT019 30/25 Q1013 NOSIG=
METAR WAFF 011100Z 34009KT 8000 FEW018CB BKN020 29/25 Q1012 RMK CB TO NW=
METAR WAFF 011000Z 33011KT 8000 SCT018 BKN020 30/25 Q1011 NOSIG=
METAR WAFF 010900Z 34009KT 9000 SCT019TCU 31/25 Q1010 RMK TCU TO S=
METAR WAFF 010800Z 33012KT 9000 SCT019 32/24 Q1010 NOSIG=
METAR WAFF 010700Z 32014KT 9999 SCT019 33/24 Q1010 NOSIG=
METAR WAFF 010600Z 32012KT 9999 FEW018 SCT020 35/23 Q1010 NOSIG=
METAR WAFF 010500Z 33013KT 9999 FEW020 34/22 Q1011 NOSIG=
METAR WAFF 010400Z 30008KT 9999 FEW020 35/22 Q1012 NOSIG=
METAR WAFF 010300Z 28004KT 9999 FEW020 34/22 Q1013 NOSIG=
METAR WAFF 010200Z 13003KT 9999 FEW020 31/24 Q1014 NOSIG=
METAR WAFF 010100Z 18003KT 9999 FEW020 29/23 Q1014 NOSIG=
METAR WAFF 010000Z 13002KT 9999 FEW020 27/24 Q1015 NOSIG=
METAR WAFF 022300Z 09002KT 6000 SCT019 25/24 Q1014 NOSIG=
METAR WAFF 022200Z 14002KT 6000 SCT019 25/24 Q1013 NOSIG=
METAR WAFF 022100Z 17002KT 5000 SCT019 25/24 Q1013 NOSIG=
METAR WAFF 021800Z 15003KT 5000 -RA SCT019 25/24 Q1013=
METAR WAFF 021500Z 13002KT 6000 -RA SCT019 27/25 Q1014=
METAR WAFF 021430Z 32005KT 5000 -RA BKN018 28/25 Q1015=
METAR WAFF 021400Z 32005KT 7000 FEW020 28/25 Q1015=
METAR WAFF 021300Z 34003KT 7000 FEW020 28/25 Q1014=
METAR WAFF 021200Z 33006KT 7000 FEWCB018 SCT019 28/25 Q1013 RMK CB TO N E=
METAR WAFF 021000Z 32009KT 8000 FEW018CB SCT020 29/24 Q1012 RMK CB TO E=
METAR WAFF 020900Z 32010KT 9999 SCT020 30/24 Q1011 NOSIG=
METAR WAFF 020800Z 33010KT 9999 FEW018CB SCT020 31/24 Q1010 RMK CB TO E=
METAR WAFF 020700Z 33012KT 9999 FEW018CB SCT020 31/23 Q1010 RMK CB TO E=
METAR WAFF 020600Z 33014KT 9999 TS FEW018CB SCT020 32/23 Q1011 RMK CB TO E=
METAR WAFF 020500Z 33011KT 8000 SCT019 34/23 Q1012 NOSIG=
METAR WAFF 020400Z 07002KT 8000 SCT019 32/23 Q1013 NOSIG=
METAR WAFF 020300Z 00000KT 7000 SCT019 29/24 Q1015 RMK RERA=
METAR WAFF 020205Z 18003KT 7000 -RA SCT018 BKN020 28/23 Q1015 NOSIG=
METAR WAFF 020200Z 18003KT 7000 SCT018 BKN020 28/23 Q1015 NOSIG=
METAR WAFF 020100Z 18003KT 7000 SCT019 27/23 Q1015 NOSIG=
METAR WAFF 020000Z 20002KT 7000 SCT018 BKN020 26/24 Q1015 NOSIG=
METAR WAFF 012300Z 21003KT 6000 RA BKN020 26/24 Q1014 NOSIG=
METAR WAFF 012200Z 14004KT 6000 RA BKN019 26/23 Q1014 NOSIG=
METAR WAFF 012100Z 19003KT 7000 SCT019 26/24 Q1014 NOSIG=
METAR WAFF 012000Z 16002KT 7000 SCT019 27/24 Q1013 NOSIG=
METAR WAFF 011900Z 19002KT 7000 SCT019 27/24 Q1012 NOSIG=
METAR WAFF 011800Z 20002KT 7000 SCT019 27/24 Q1013 NOSIG=
METAR WAFF 011600Z 05002KT 6000 RA SCT019 28/24 Q1014 NOSIG=
METAR WAFF 011500Z 32004KT 7000 SCT019 29/24 Q1014 NOSIG=
METAR WAFF 011400Z 30002KT 7000 SCT019 29/24 Q1014 NOSIG=
METAR WAFF 011300Z 35004KT 7000 SCT019 29/24 Q1013 NOSIG=
METAR WAFF 011200Z 32006KT 8000 SCT019 30/25 Q1013 NOSIG=
METAR WAFF 011100Z 34009KT 8000 FEW018CB BKN020 29/25 Q1012 RMK CB TO NW=
METAR WAFF 011000Z 33011KT 8000 SCT018 BKN020 30/25 Q1011 NOSIG=
METAR WAFF 010900Z 34009KT 9000 SCT019TCU 31/25 Q1010 RMK TCU TO S=
METAR WAFF 010800Z 33012KT 9000 SCT019 32/24 Q1010 NOSIG=
METAR WAFF 010700Z 32014KT 9999 SCT019 33/24 Q1010 NOSIG=
METAR WAFF 010600Z 32012KT 9999 FEW018 SCT020 35/23 Q1010 NOSIG=
METAR WAFF 010500Z 33013KT 9999 FEW020 34/22 Q1011 NOSIG=
METAR WAFF 010400Z 30008KT 9999 FEW020 35/22 Q1012 NOSIG=
METAR WAFF 010300Z 28004KT 9999 FEW020 34/22 Q1013 NOSIG=
METAR WAFF 010200Z 13003KT 9999 FEW020 31/24 Q1014 NOSIG=
METAR WAFF 010100Z 18003KT 9999 FEW020 29/23 Q1014 NOSIG=
METAR WAFF 010000Z 13002KT 9999 FEW020 27/24 Q1015 NOSIG=
METAR WAFF 022300Z 09002KT 6000 SCT019 25/24 Q1014 NOSIG=
METAR WAFF 022200Z 14002KT 6000 SCT019 25/24 Q1013 NOSIG=
METAR WAFF 022100Z 17002KT 5000 SCT019 25/24 Q1013 NOSIG=
METAR WAFF 021800Z 15003KT 5000 -RA SCT019 25/24 Q1013=
METAR WAFF 021500Z 13002KT 6000 -RA SCT019 27/25 Q1014=
METAR WAFF 021430Z 32005KT 5000 -RA BKN018 28/25 Q1015=
METAR WAFF 021400Z 32005KT 7000 FEW020 28/25 Q1015=
METAR WAFF 021300Z 34003KT 7000 FEW020 28/25 Q1014=
METAR WAFF 021200Z 33006KT 7000 FEWCB018 SCT019 28/25 Q1013 RMK CB TO N E=
METAR WAFF 021000Z 32009KT 8000 FEW018CB SCT020 29/24 Q1012 RMK CB TO E=
METAR WAFF 020900Z 32010KT 9999 SCT020 30/24 Q1011 NOSIG=
METAR WAFF 020800Z 33010KT 9999 FEW018CB SCT020 31/24 Q1010 RMK CB TO E=
METAR WAFF 020700Z 33012KT 9999 FEW018CB SCT020 31/23 Q1010 RMK CB TO E=
METAR WAFF 020600Z 33014KT 9999 TS FEW018CB SCT020 32/23 Q1011 RMK CB TO E=
METAR WAFF 020500Z 33011KT 8000 SCT019 34/23 Q1012 NOSIG=
METAR WAFF 020400Z 07002KT 8000 SCT019 32/23 Q1013 NOSIG=
METAR WAFF 020300Z 00000KT 7000 SCT019 29/24 Q1015 RMK RERA=
METAR WAFF 020205Z 18003KT 7000 -RA SCT018 BKN020 28/23 Q1015 NOSIG=
METAR WAFF 020200Z 18003KT 7000 SCT018 BKN020 28/23 Q1015 NOSIG=
METAR WAFF 020100Z 18003KT 7000 SCT019 27/23 Q1015 NOSIG=
METAR WAFF 020000Z 20002KT 7000 SCT018 BKN020 26/24 Q1015 NOSIG=
METAR WAFF 012300Z 21003KT 6000 RA BKN020 26/24 Q1014 NOSIG=
METAR WAFF 012200Z 14004KT 6000 RA BKN019 26/23 Q1014 NOSIG=
METAR WAFF 012100Z 19003KT 7000 SCT019 26/24 Q1014 NOSIG=
METAR WAFF 012000Z 16002KT 7000 SCT019 27/24 Q1013 NOSIG=
METAR WAFF 011900Z 19002KT 7000 SCT019 27/24 Q1012 NOSIG=
METAR WAFF 011800Z 20002KT 7000 SCT019 27/24 Q1013 NOSIG=
METAR WAFF 011600Z 05002KT 6000 RA SCT019 28/24 Q1014 NOSIG=
METAR WAFF 011500Z 32004KT 7000 SCT019 29/24 Q1014 NOSIG=
METAR WAFF 011400Z 30002KT 7000 SCT019 29/24 Q1014 NOSIG=
METAR WAFF 011300Z 35004KT 7000 SCT019 29/24 Q1013 NOSIG=
METAR WAFF 011200Z 32006KT 8000 SCT019 30/25 Q1013 NOSIG=
METAR WAFF 011100Z 34009KT 8000 FEW018CB BKN020 29/25 Q1012 RMK CB TO NW=
METAR WAFF 011000Z 33011KT 8000 SCT018 BKN020 30/25 Q1011 NOSIG=
METAR WAFF 010900Z 34009KT 9000 SCT019TCU 31/25 Q1010 RMK TCU TO S=
METAR WAFF 010800Z 33012KT 9000 SCT019 32/24 Q1010 NOSIG=
METAR WAFF 010700Z 32014KT 9999 SCT019 33/24 Q1010 NOSIG=
METAR WAFF 010600Z 32012KT 9999 FEW018 SCT020 35/23 Q1010 NOSIG=
METAR WAFF 010500Z 33013KT 9999 FEW020 34/22 Q1011 NOSIG=
METAR WAFF 010400Z 30008KT 9999 FEW020 35/22 Q1012 NOSIG=
METAR WAFF 010300Z 28004KT 9999 FEW020 34/22 Q1013 NOSIG=
METAR WAFF 010200Z 13003KT 9999 FEW020 31/24 Q1014 NOSIG=
METAR WAFF 010100Z 18003KT 9999 FEW020 29/23 Q1014 NOSIG=
METAR WAFF 010000Z 13002KT 9999 FEW020 27/24 Q1015 NOSIG=
METAR WAFF 022300Z 09002KT 6000 SCT019 25/24 Q1014 NOSIG=
METAR WAFF 022200Z 14002KT 6000 SCT019 25/24 Q1013 NOSIG=
METAR WAFF 022100Z 17002KT 5000 SCT019 25/24 Q1013 NOSIG=
METAR WAFF 021800Z 15003KT 5000 -RA SCT019 25/24 Q1013=
METAR WAFF 021500Z 13002KT 6000 -RA SCT019 27/25 Q1014=
METAR WAFF 021430Z 32005KT 5000 -RA BKN018 28/25 Q1015=
METAR WAFF 021400Z 32005KT 7000 FEW020 28/25 Q1015=
METAR WAFF 021300Z 34003KT 7000 FEW020 28/25 Q1014=
METAR WAFF 021200Z 33006KT 7000 FEWCB018 SCT019 28/25 Q1013 RMK CB TO N E=
METAR WAFF 021000Z 32009KT 8000 FEW018CB SCT020 29/24 Q1012 RMK CB TO E=
METAR WAFF 020900Z 32010KT 9999 SCT020 30/24 Q1011 NOSIG=
METAR WAFF 020800Z 33010KT 9999 FEW018CB SCT020 31/24 Q1010 RMK CB TO E=
METAR WAFF 020700Z 33012KT 9999 FEW018CB SCT020 31/23 Q1010 RMK CB TO E=
METAR WAFF 020600Z 33014KT 9999 TS FEW018CB SCT020 32/23 Q1011 RMK CB TO E=
METAR WAFF 020500Z 33011KT 8000 SCT019 34/23 Q1012 NOSIG=
METAR WAFF 020400Z 07002KT 8000 SCT019 32/23 Q1013 NOSIG=
METAR WAFF 020300Z 00000KT 7000 SCT019 29/24 Q1015 RMK RERA=
METAR WAFF 020205Z 18003KT 7000 -RA SCT018 BKN020 28/23 Q1015 NOSIG=
METAR WAFF 020200Z 18003KT 7000 SCT018 BKN020 28/23 Q1015 NOSIG=
METAR WAFF 020100Z 18003KT 7000 SCT019 27/23 Q1015 NOSIG=
METAR WAFF 020000Z 20002KT 7000 SCT018 BKN020 26/24 Q1015 NOSIG=
METAR WAFF 012300Z 21003KT 6000 RA BKN020 26/24 Q1014 NOSIG=
METAR WAFF 012200Z 14004KT 6000 RA BKN019 26/23 Q1014 NOSIG=
METAR WAFF 012100Z 19003KT 7000 SCT019 26/24 Q1014 NOSIG=
METAR WAFF 012000Z 16002KT 7000 SCT019 27/24 Q1013 NOSIG=
METAR WAFF 011900Z 19002KT 7000 SCT019 27/24 Q1012 NOSIG=
METAR WAFF 011800Z 20002KT 7000 SCT019 27/24 Q1013 NOSIG=
METAR WAFF 011600Z 05002KT 6000 RA SCT019 28/24 Q1014 NOSIG=
METAR WAFF 011500Z 32004KT 7000 SCT019 29/24 Q1014 NOSIG=
METAR WAFF 011400Z 30002KT 7000 SCT019 29/24 Q1014 NOSIG=
METAR WAFF 011300Z 35004KT 7000 SCT019 29/24 Q1013 NOSIG=
METAR WAFF 011200Z 32006KT 8000 SCT019 30/25 Q1013 NOSIG=
METAR WAFF 011100Z 34009KT 8000 FEW018CB BKN020 29/25 Q1012 RMK CB TO NW=
METAR WAFF 011000Z 33011KT 8000 SCT018 BKN020 30/25 Q1011 NOSIG=
METAR WAFF 010900Z 34009KT 9000 SCT019TCU 31/25 Q1010 RMK TCU TO S=
METAR WAFF 010800Z 33012KT 9000 SCT019 32/24 Q1010 NOSIG=
METAR WAFF 010700Z 32014KT 9999 SCT019 33/24 Q1010 NOSIG=
METAR WAFF 010600Z 32012KT 9999 FEW018 SCT020 35/23 Q1010 NOSIG=
METAR WAFF 010500Z 33013KT 9999 FEW020 34/22 Q1011 NOSIG=
METAR WAFF 010400Z 30008KT 9999 FEW020 35/22 Q1012 NOSIG=
METAR WAFF 010300Z 28004KT 9999 FEW020 34/22 Q1013 NOSIG=
METAR WAFF 010200Z 13003KT 9999 FEW020 31/24 Q1014 NOSIG=
METAR WAFF 010100Z 18003KT 9999 FEW020 29/23 Q1014 NOSIG=
METAR WAFF 010000Z 13002KT 9999 FEW020 27/24 Q1015 NOSIG=
METAR WAFF 022300Z 09002KT 6000 SCT019 25/24 Q1014 NOSIG=
METAR WAFF 022200Z 14002KT 6000 SCT019 25/24 Q1013 NOSIG=
METAR WAFF 022100Z 17002KT 5000 SCT019 25/24 Q1013 NOSIG=
METAR WAFF 021800Z 15003KT 5000 -RA SCT019 25/24 Q1013=
METAR WAFF 021500Z 13002KT 6000 -RA SCT019 27/25 Q1014=
METAR WAFF 021430Z 32005KT 5000 -RA BKN018 28/25 Q1015=
METAR WAFF 021400Z 32005KT 7000 FEW020 28/25 Q1015=
METAR WAFF 021300Z 34003KT 7000 FEW020 28/25 Q1014=
METAR WAFF 021200Z 33006KT 7000 FEWCB018 SCT019 28/25 Q1013 RMK CB TO N E=
METAR WAFF 021000Z 32009KT 8000 FEW018CB SCT020 29/24 Q1012 RMK CB TO E=
METAR WAFF 020900Z 32010KT 9999 SCT020 30/24 Q1011 NOSIG=
METAR WAFF 020800Z 33010KT 9999 FEW018CB SCT020 31/24 Q1010 RMK CB TO E=
METAR WAFF 020700Z 33012KT 9999 FEW018CB SCT020 31/23 Q1010 RMK CB TO E=
METAR WAFF 020600Z 33014KT 9999 TS FEW018CB SCT020 32/23 Q1011 RMK CB TO E=
METAR WAFF 020500Z 33011KT 8000 SCT019 34/23 Q1012 NOSIG=
METAR WAFF 020400Z 07002KT 8000 SCT019 32/23 Q1013 NOSIG=
METAR WAFF 020300Z 00000KT 7000 SCT019 29/24 Q1015 RMK RERA=
METAR WAFF 020205Z 18003KT 7000 -RA SCT018 BKN020 28/23 Q1015 NOSIG=
METAR WAFF 020200Z 18003KT 7000 SCT018 BKN020 28/23 Q1015 NOSIG=
METAR WAFF 020100Z 18003KT 7000 SCT019 27/23 Q1015 NOSIG=
METAR WAFF 020000Z 20002KT 7000 SCT018 BKN020 26/24 Q1015 NOSIG=
METAR WAFF 012300Z 21003KT 6000 RA BKN020 26/24 Q1014 NOSIG=
METAR WAFF 012200Z 14004KT 6000 RA BKN019 26/23 Q1014 NOSIG=
METAR WAFF 012100Z 19003KT 7000 SCT019 26/24 Q1014 NOSIG=
METAR WAFF 012000Z 16002KT 7000 SCT019 27/24 Q1013 NOSIG=
METAR WAFF 011900Z 19002KT 7000 SCT019 27/24 Q1012 NOSIG=
METAR WAFF 011800Z 20002KT 7000 SCT019 27/24 Q1013 NOSIG=
METAR WAFF 011600Z 05002KT 6000 RA SCT019 28/24 Q1014 NOSIG=
METAR WAFF 011500Z 32004KT 7000 SCT019 29/24 Q1014 NOSIG=
METAR WAFF 011400Z 30002KT 7000 SCT019 29/24 Q1014 NOSIG=
METAR WAFF 011300Z 35004KT 7000 SCT019 29/24 Q1013 NOSIG=
METAR WAFF 011200Z 32006KT 8000 SCT019 30/25 Q1013 NOSIG=
METAR WAFF 011100Z 34009KT 8000 FEW018CB BKN020 29/25 Q1012 RMK CB TO NW=
METAR WAFF 011000Z 33011KT 8000 SCT018 BKN020 30/25 Q1011 NOSIG=
METAR WAFF 010900Z 34009KT 9000 SCT019TCU 31/25 Q1010 RMK TCU TO S=
METAR WAFF 010800Z 33012KT 9000 SCT019 32/24 Q1010 NOSIG=
METAR WAFF 010700Z 32014KT 9999 SCT019 33/24 Q1010 NOSIG=
METAR WAFF 010600Z 32012KT 9999 FEW018 SCT020 35/23 Q1010 NOSIG=
METAR WAFF 010500Z 33013KT 9999 FEW020 34/22 Q1011 NOSIG=
METAR WAFF 010400Z 30008KT 9999 FEW020 35/22 Q1012 NOSIG=
METAR WAFF 010300Z 28004KT 9999 FEW020 34/22 Q1013 NOSIG=
METAR WAFF 010200Z 13003KT 9999 FEW020 31/24 Q1014 NOSIG=
METAR WAFF 010100Z 18003KT 9999 FEW020 29/23 Q1014 NOSIG=
METAR WAFF 010000Z 13002KT 9999 FEW020 27/24 Q1015 NOSIG=
METAR WAFF 022300Z 09002KT 6000 SCT019 25/24 Q1014 NOSIG=
METAR WAFF 022200Z 14002KT 6000 SCT019 25/24 Q1013 NOSIG=
METAR WAFF 022100Z 17002KT 5000 SCT019 25/24 Q1013 NOSIG=
METAR WAFF 021800Z 15003KT 5000 -RA SCT019 25/24 Q1013=
METAR WAFF 021500Z 13002KT 6000 -RA SCT019 27/25 Q1014=
METAR WAFF 021430Z 32005KT 5000 -RA BKN018 28/25 Q1015=
METAR WAFF 021400Z 32005KT 7000 FEW020 28/25 Q1015=
METAR WAFF 021300Z 34003KT 7000 FEW020 28/25 Q1014=
METAR WAFF 021200Z 33006KT 7000 FEWCB018 SCT019 28/25 Q1013 RMK CB TO N E=
METAR WAFF 021000Z 32009KT 8000 FEW018CB SCT020 29/24 Q1012 RMK CB TO E=
METAR WAFF 020900Z 32010KT 9999 SCT020 30/24 Q1011 NOSIG=
METAR WAFF 020800Z 33010KT 9999 FEW018CB SCT020 31/24 Q1010 RMK CB TO E=
METAR WAFF 020700Z 33012KT 9999 FEW018CB SCT020 31/23 Q1010 RMK CB TO E=
METAR WAFF 020600Z 33014KT 9999 TS FEW018CB SCT020 32/23 Q1011 RMK CB TO E=
METAR WAFF 020500Z 33011KT 8000 SCT019 34/23 Q1012 NOSIG=
METAR WAFF 020400Z 07002KT 8000 SCT019 32/23 Q1013 NOSIG=
METAR WAFF 020300Z 00000KT 7000 SCT019 29/24 Q1015 RMK RERA=
METAR WAFF 020205Z 18003KT 7000 -RA SCT018 BKN020 28/23 Q1015 NOSIG=
METAR WAFF 020200Z 18003KT 7000 SCT018 BKN020 28/23 Q1015 NOSIG=
METAR WAFF 020100Z 18003KT 7000 SCT019 27/23 Q1015 NOSIG=
METAR WAFF 020000Z 20002KT 7000 SCT018 BKN020 26/24 Q1015 NOSIG=
METAR WAFF 012300Z 21003KT 6000 RA BKN020 26/24 Q1014 NOSIG=
METAR WAFF 012200Z 14004KT 6000 RA BKN019 26/23 Q1014 NOSIG=
METAR WAFF 012100Z 19003KT 7000 SCT019 26/24 Q1014 NOSIG=
METAR WAFF 012000Z 16002KT 7000 SCT019 27/24 Q1013 NOSIG=
METAR WAFF 011900Z 19002KT 7000 SCT019 27/24 Q1012 NOSIG=
METAR WAFF 011800Z 20002KT 7000 SCT019 27/24 Q1013 NOSIG=
METAR WAFF 011600Z 05002KT 6000 RA SCT019 28/24 Q1014 NOSIG=
METAR WAFF 011500Z 32004KT 7000 SCT019 29/24 Q1014 NOSIG=
METAR WAFF 011400Z 30002KT 7000 SCT019 29/24 Q1014 NOSIG=
METAR WAFF 011300Z 35004KT 7000 SCT019 29/24 Q1013 NOSIG=
METAR WAFF 011200Z 32006KT 8000 SCT019 30/25 Q1013 NOSIG=
METAR WAFF 011100Z 34009KT 8000 FEW018CB BKN020 29/25 Q1012 RMK CB TO NW=
METAR WAFF 011000Z 33011KT 8000 SCT018 BKN020 30/25 Q1011 NOSIG=
METAR WAFF 010900Z 34009KT 9000 SCT019TCU 31/25 Q1010 RMK TCU TO S=
METAR WAFF 010800Z 33012KT 9000 SCT019 32/24 Q1010 NOSIG=
METAR WAFF 010700Z 32014KT 9999 SCT019 33/24 Q1010 NOSIG=
METAR WAFF 010600Z 32012KT 9999 FEW018 SCT020 35/23 Q1010 NOSIG=
METAR WAFF 010500Z 33013KT 9999 FEW020 34/22 Q1011 NOSIG=
METAR WAFF 010400Z 30008KT 9999 FEW020 35/22 Q1012 NOSIG=
METAR WAFF 010300Z 28004KT 9999 FEW020 34/22 Q1013 NOSIG=
METAR WAFF 010200Z 13003KT 9999 FEW020 31/24 Q1014 NOSIG=
METAR WAFF 010100Z 18003KT 9999 FEW020 29/23 Q1014 NOSIG=
METAR WAFF 010000Z 13002KT 9999 FEW020 27/24 Q1015 NOSIG=
METAR WAFF 022300Z 09002KT 6000 SCT019 25/24 Q1014 NOSIG=
METAR WAFF 022200Z 14002KT 6000 SCT019 25/24 Q1013 NOSIG=
METAR WAFF 022100Z 17002KT 5000 SCT019 25/24 Q1013 NOSIG=
METAR WAFF 021800Z 15003KT 5000 -RA SCT019 25/24 Q1013=
METAR WAFF 021500Z 13002KT 6000 -RA SCT019 27/25 Q1014=
METAR WAFF 021430Z 32005KT 5000 -RA BKN018 28/25 Q1015=
METAR WAFF 021400Z 32005KT 7000 FEW020 28/25 Q1015=
METAR WAFF 021300Z 34003KT 7000 FEW020 28/25 Q1014=
METAR WAFF 021200Z 33006KT 7000 FEWCB018 SCT019 28/25 Q1013 RMK CB TO N E=
METAR WAFF 021000Z 32009KT 8000 FEW018CB SCT020 29/24 Q1012 RMK CB TO E=
METAR WAFF 020900Z 32010KT 9999 SCT020 30/24 Q1011 NOSIG=
METAR WAFF 020800Z 33010KT 9999 FEW018CB SCT020 31/24 Q1010 RMK CB TO E=
METAR WAFF 020700Z 33012KT 9999 FEW018CB SCT020 31/23 Q1010 RMK CB TO E=
METAR WAFF 020600Z 33014KT 9999 TS FEW018CB SCT020 32/23 Q1011 RMK CB TO E=
METAR WAFF 020500Z 33011KT 8000 SCT019 34/23 Q1012 NOSIG=
METAR WAFF 020400Z 07002KT 8000 SCT019 32/23 Q1013 NOSIG=
METAR WAFF 020300Z 00000KT 7000 SCT019 29/24 Q1015 RMK RERA=
METAR WAFF 020205Z 18003KT 7000 -RA SCT018 BKN020 28/23 Q1015 NOSIG=
METAR WAFF 020200Z 18003KT 7000 SCT018 BKN020 28/23 Q1015 NOSIG=
METAR WAFF 020100Z 18003KT 7000 SCT019 27/23 Q1015 NOSIG=
METAR WAFF 020000Z 20002KT 7000 SCT018 BKN020 26/24 Q1015 NOSIG=
METAR WAFF 012300Z 21003KT 6000 RA BKN020 26/24 Q1014 NOSIG=
METAR WAFF 012200Z 14004KT 6000 RA BKN019 26/23 Q1014 NOSIG=
METAR WAFF 012100Z 19003KT 7000 SCT019 26/24 Q1014 NOSIG=
METAR WAFF 012000Z 16002KT 7000 SCT019 27/24 Q1013 NOSIG=
METAR WAFF 011900Z 19002KT 7000 SCT019 27/24 Q1012 NOSIG=
METAR WAFF 011800Z 20002KT 7000 SCT019 27/24 Q1013 NOSIG=
METAR WAFF 011600Z 05002KT 6000 RA SCT019 28/24 Q1014 NOSIG=
METAR WAFF 011500Z 32004KT 7000 SCT019 29/24 Q1014 NOSIG=
METAR WAFF 011400Z 30002KT 7000 SCT019 29/24 Q1014 NOSIG=
METAR WAFF 011300Z 35004KT 7000 SCT019 29/24 Q1013 NOSIG=
METAR WAFF 011200Z 32006KT 8000 SCT019 30/25 Q1013 NOSIG=
METAR WAFF 011100Z 34009KT 8000 FEW018CB BKN020 29/25 Q1012 RMK CB TO NW=
METAR WAFF 011000Z 33011KT 8000 SCT018 BKN020 30/25 Q1011 NOSIG=
METAR WAFF 010900Z 34009KT 9000 SCT019TCU 31/25 Q1010 RMK TCU TO S=
METAR WAFF 010800Z 33012KT 9000 SCT019 32/24 Q1010 NOSIG=
METAR WAFF 010700Z 32014KT 9999 SCT019 33/24 Q1010 NOSIG=
METAR WAFF 010600Z 32012KT 9999 FEW018 SCT020 35/23 Q1010 NOSIG=
METAR WAFF 010500Z 33013KT 9999 FEW020 34/22 Q1011 NOSIG=
METAR WAFF 010400Z 30008KT 9999 FEW020 35/22 Q1012 NOSIG=
METAR WAFF 010300Z 28004KT 9999 FEW020 34/22 Q1013 NOSIG=
METAR WAFF 010200Z 13003KT 9999 FEW020 31/24 Q1014 NOSIG=
METAR WAFF 010100Z 18003KT 9999 FEW020 29/23 Q1014 NOSIG=
METAR WAFF 010000Z 13002KT 9999 FEW020 27/24 Q1015 NOSIG=
METAR WAFF 022300Z 09002KT 6000 SCT019 25/24 Q1014 NOSIG=
METAR WAFF 022200Z 14002KT 6000 SCT019 25/24 Q1013 NOSIG=
METAR WAFF 022100Z 17002KT 5000 SCT019 25/24 Q1013 NOSIG=
METAR WAFF 021800Z 15003KT 5000 -RA SCT019 25/24 Q1013=
METAR WAFF 021500Z 13002KT 6000 -RA SCT019 27/25 Q1014=
METAR WAFF 021430Z 32005KT 5000 -RA BKN018 28/25 Q1015=
METAR WAFF 021400Z 32005KT 7000 FEW020 28/25 Q1015=
METAR WAFF 021300Z 34003KT 7000 FEW020 28/25 Q1014=
METAR WAFF 021200Z 33006KT 7000 FEWCB018 SCT019 28/25 Q1013 RMK CB TO N E=
METAR WAFF 021000Z 32009KT 8000 FEW018CB SCT020 29/24 Q1012 RMK CB TO E=
METAR WAFF 020900Z 32010KT 9999 SCT020 30/24 Q1011 NOSIG=
METAR WAFF 020800Z 33010KT 9999 FEW018CB SCT020 31/24 Q1010 RMK CB TO E=
METAR WAFF 020700Z 33012KT 9999 FEW018CB SCT020 31/23 Q1010 RMK CB TO E=
METAR WAFF 020600Z 33014KT 9999 TS FEW018CB SCT020 32/23 Q1011 RMK CB TO E=
METAR WAFF 020500Z 33011KT 8000 SCT019 34/23 Q1012 NOSIG=
METAR WAFF 020400Z 07002KT 8000 SCT019 32/23 Q1013 NOSIG=
METAR WAFF 020300Z 00000KT 7000 SCT019 29/24 Q1015 RMK RERA=
METAR WAFF 020205Z 18003KT 7000 -RA SCT018 BKN020 28/23 Q1015 NOSIG=
METAR WAFF 020200Z 18003KT 7000 SCT018 BKN020 28/23 Q1015 NOSIG=
METAR WAFF 020100Z 18003KT 7000 SCT019 27/23 Q1015 NOSIG=
METAR WAFF 020000Z 20002KT 7000 SCT018 BKN020 26/24 Q1015 NOSIG=
METAR WAFF 012300Z 21003KT 6000 RA BKN020 26/24 Q1014 NOSIG=
METAR WAFF 012200Z 14004KT 6000 RA BKN019 26/23 Q1014 NOSIG=
METAR WAFF 012100Z 19003KT 7000 SCT019 26/24 Q1014 NOSIG=
METAR WAFF 012000Z 16002KT 7000 SCT019 27/24 Q1013 NOSIG=
METAR WAFF 011900Z 19002KT 7000 SCT019 27/24 Q1012 NOSIG=
METAR WAFF 011800Z 20002KT 7000 SCT019 27/24 Q1013 NOSIG=
METAR WAFF 011600Z 05002KT 6000 RA SCT019 28/24 Q1014 NOSIG=
METAR WAFF 011500Z 32004KT 7000 SCT019 29/24 Q1014 NOSIG=
METAR WAFF 011400Z 30002KT 7000 SCT019 29/24 Q1014 NOSIG=
METAR WAFF 011300Z 35004KT 7000 SCT019 29/24 Q1013 NOSIG=
METAR WAFF 011200Z 32006KT 8000 SCT019 30/25 Q1013 NOSIG=
METAR WAFF 011100Z 34009KT 8000 FEW018CB BKN020 29/25 Q1012 RMK CB TO NW=
METAR WAFF 011000Z 33011KT 8000 SCT018 BKN020 30/25 Q1011 NOSIG=
METAR WAFF 010900Z 34009KT 9000 SCT019TCU 31/25 Q1010 RMK TCU TO S=
METAR WAFF 010800Z 33012KT 9000 SCT019 32/24 Q1010 NOSIG=
METAR WAFF 010700Z 32014KT 9999 SCT019 33/24 Q1010 NOSIG=
METAR WAFF 010600Z 32012KT 9999 FEW018 SCT020 35/23 Q1010 NOSIG=
METAR WAFF 010500Z 33013KT 9999 FEW020 34/22 Q1011 NOSIG=
METAR WAFF 010400Z 30008KT 9999 FEW020 35/22 Q1012 NOSIG=
METAR WAFF 010300Z 28004KT 9999 FEW020 34/22 Q1013 NOSIG=
METAR WAFF 010200Z 13003KT 9999 FEW020 31/24 Q1014 NOSIG=
METAR WAFF 010100Z 18003KT 9999 FEW020 29/23 Q1014 NOSIG=
METAR WAFF 010000Z 13002KT 9999 FEW020 27/24 Q1015 NOSIG=
METAR WAFF 022300Z 09002KT 6000 SCT019 25/24 Q1014 NOSIG=
METAR WAFF 022200Z 14002KT 6000 SCT019 25/24 Q1013 NOSIG=
METAR WAFF 022100Z 17002KT 5000 SCT019 25/24 Q1013 NOSIG=
METAR WAFF 021800Z 15003KT 5000 -RA SCT019 25/24 Q1013=
METAR WAFF 021500Z 13002KT 6000 -RA SCT019 27/25 Q1014=
METAR WAFF 021430Z 32005KT 5000 -RA BKN018 28/25 Q1015=
METAR WAFF 021400Z 32005KT 7000 FEW020 28/25 Q1015=
METAR WAFF 021300Z 34003KT 7000 FEW020 28/25 Q1014=
METAR WAFF 021200Z 33006KT 7000 FEWCB018 SCT019 28/25 Q1013 RMK CB TO N E=
METAR WAFF 021000Z 32009KT 8000 FEW018CB SCT020 29/24 Q1012 RMK CB TO E=
METAR WAFF 020900Z 32010KT 9999 SCT020 30/24 Q1011 NOSIG=
METAR WAFF 020800Z 33010KT 9999 FEW018CB SCT020 31/24 Q1010 RMK CB TO E=
METAR WAFF 020700Z 33012KT 9999 FEW018CB SCT020 31/23 Q1010 RMK CB TO E=
METAR WAFF 020600Z 33014KT 9999 TS FEW018CB SCT020 32/23 Q1011 RMK CB TO E=
METAR WAFF 020500Z 33011KT 8000 SCT019 34/23 Q1012 NOSIG=
METAR WAFF 020400Z 07002KT 8000 SCT019 32/23 Q1013 NOSIG=
METAR WAFF 020300Z 00000KT 7000 SCT019 29/24 Q1015 RMK RERA=
METAR WAFF 020205Z 18003KT 7000 -RA SCT018 BKN020 28/23 Q1015 NOSIG=
METAR WAFF 020200Z 18003KT 7000 SCT018 BKN020 28/23 Q1015 NOSIG=
METAR WAFF 020100Z 18003KT 7000 SCT019 27/23 Q1015 NOSIG=
METAR WAFF 020000Z 20002KT 7000 SCT018 BKN020 26/24 Q1015 NOSIG=
METAR WAFF 012300Z 21003KT 6000 RA BKN020 26/24 Q1014 NOSIG=
METAR WAFF 012200Z 14004KT 6000 RA BKN019 26/23 Q1014 NOSIG=
METAR WAFF 012100Z 19003KT 7000 SCT019 26/24 Q1014 NOSIG=
METAR WAFF 012000Z 16002KT 7000 SCT019 27/24 Q1013 NOSIG=
METAR WAFF 011900Z 19002KT 7000 SCT019 27/24 Q1012 NOSIG=
METAR WAFF 011800Z 20002KT 7000 SCT019 27/24 Q1013 NOSIG=
METAR WAFF 011600Z 05002KT 6000 RA SCT019 28/24 Q1014 NOSIG=
METAR WAFF 011500Z 32004KT 7000 SCT019 29/24 Q1014 NOSIG=
METAR WAFF 011400Z 30002KT 7000 SCT019 29/24 Q1014 NOSIG=
METAR WAFF 011300Z 35004KT 7000 SCT019 29/24 Q1013 NOSIG=
METAR WAFF 011200Z 32006KT 8000 SCT019 30/25 Q1013 NOSIG=
METAR WAFF 011100Z 34009KT 8000 FEW018CB BKN020 29/25 Q1012 RMK CB TO NW=
METAR WAFF 011000Z 33011KT 8000 SCT018 BKN020 30/25 Q1011 NOSIG=
METAR WAFF 010900Z 34009KT 9000 SCT019TCU 31/25 Q1010 RMK TCU TO S=
METAR WAFF 010800Z 33012KT 9000 SCT019 32/24 Q1010 NOSIG=
METAR WAFF 010700Z 32014KT 9999 SCT019 33/24 Q1010 NOSIG=
METAR WAFF 010600Z 32012KT 9999 FEW018 SCT020 35/23 Q1010 NOSIG=
METAR WAFF 010500Z 33013KT 9999 FEW020 34/22 Q1011 NOSIG=
METAR WAFF 010400Z 30008KT 9999 FEW020 35/22 Q1012 NOSIG=
METAR WAFF 010300Z 28004KT 9999 FEW020 34/22 Q1013 NOSIG=
METAR WAFF 010200Z 13003KT 9999 FEW020 31/24 Q1014 NOSIG=
METAR WAFF 010100Z 18003KT 9999 FEW020 29/23 Q1014 NOSIG=
METAR WAFF 010000Z 13002KT 9999 FEW020 27/24 Q1015 NOSIG=
METAR WAFF 032300Z 00000KT 6000 SCT019 24/23 Q1016 NOSIG=
METAR WAFF 032200Z 00000KT 5000 -RA OVC018 24/23 Q1015=
METAR WAFF 032100Z 00000KT 5000 SCT018 OVC020 24/23 Q1015 NOSIG=
METAR WAFF 032000Z 00000KT 5000 SCT018 BKN020 24/23 Q1014 NOSIG=
METAR WAFF 031900Z 00000KT 5000 SCT018 BKN020 24/23 Q1014 NOSIG=
METAR WAFF 031800Z 00000KT 5000 SCT018 BKN020 25/24 Q1014 NOSIG=
METAR WAFF 031700Z 14002KT 5000 OVC019 24/23 Q1014 RERA=
METAR WAFF 031600Z 00000KT 4000 -RA OVC019 25/24 Q1016=
METAR WAFF 031500Z 14004KT 4000 -RA OVC019 25/24 Q1017=
METAR WAFF 031400Z 15003KT 3000 -RA FEW017CB OVC019 25/24 Q1017=
METAR WAFF 031300Z 10002KT 5000 SCT017 BKN019 25/24 Q1017 RMK RERA=
METAR WAFF 031200Z 17002KT 5000 -RA SCT017 BKN019 26/24 Q1016=
METAR WAFF 031100Z 29002KT 4000 -RA FEW017CB SCT017 26/24 Q1016 RMK CB TO NW=
METAR WAFF 031000Z 31007KT 4000 RERA FEW017CB BKN017 27/24 Q1013 RMK CB TO NW=
METAR WAFF 030900Z 36007KT 4000 -TSRA FEW017CB BKN017 27/24 Q1013 RMK CB TO N=
METAR WAFF 030800Z 15003KT 6000 FEW018CB BKN018 30/25 Q1012 RMK CB TO N E=
METAR WAFF 030700Z 27004KT 8000 FEW018CB SCT019 32/24 Q1011 RMK CB TO N W=
METAR WAFF 030600Z 30005KT 8000 SCT020 32/25 Q1012 NOSIG=
METAR WAFF 030500Z 32009KT 9999 SCT020 32/24 Q1013 NOSIG=
METAR WAFF 030400Z 31007KT 8000 FEW018CB SCT019 33/23 Q1014 RMK CB TO E=
METAR WAFF 030300Z 21004KT 8000 FEW018CB SCT019 32/23 Q1014 CB TO E=
METAR WAFF 030200Z 18003KT 8000 SCT019 30/24 Q1015 NOSIG=
METAR WAFF 030130Z 17004KT 8000 SCT019 28/24 Q1015 NOSIG=
METAR WAFF 030100Z 15002KT 9999 SCT020 28/24 Q1016 NOSIG=
METAR WAFF 030000Z 20003KT 9999 SCT020 27/24 Q1015 NOSIG=
METAR WAFF 022300Z 09002KT 6000 SCT019 25/24 Q1014 NOSIG=
METAR WAFF 022200Z 14002KT 6000 SCT019 25/24 Q1013 NOSIG=
METAR WAFF 022100Z 17002KT 5000 SCT019 25/24 Q1013 NOSIG=
METAR WAFF 021800Z 15003KT 5000 -RA SCT019 25/24 Q1013=
METAR WAFF 021500Z 13002KT 6000 -RA SCT019 27/25 Q1014=
METAR WAFF 021430Z 32005KT 5000 -RA BKN018 28/25 Q1015=
METAR WAFF 021400Z 32005KT 7000 FEW020 28/25 Q1015=
METAR WAFF 021300Z 34003KT 7000 FEW020 28/25 Q1014=
METAR WAFF 021200Z 33006KT 7000 FEWCB018 SCT019 28/25 Q1013 RMK CB TO N E=
METAR WAFF 021000Z 32009KT 8000 FEW018CB SCT020 29/24 Q1012 RMK CB TO E=
METAR WAFF 020900Z 32010KT 9999 SCT020 30/24 Q1011 NOSIG=
METAR WAFF 020800Z 33010KT 9999 FEW018CB SCT020 31/24 Q1010 RMK CB TO E=
METAR WAFF 020700Z 33012KT 9999 FEW018CB SCT020 31/23 Q1010 RMK CB TO E=
METAR WAFF 020600Z 33014KT 9999 TS FEW018CB SCT020 32/23 Q1011 RMK CB TO E=
METAR WAFF 020500Z 33011KT 8000 SCT019 34/23 Q1012 NOSIG=
METAR WAFF 020400Z 07002KT 8000 SCT019 32/23 Q1013 NOSIG=
METAR WAFF 020300Z 00000KT 7000 SCT019 29/24 Q1015 RMK RERA=
METAR WAFF 020205Z 18003KT 7000 -RA SCT018 BKN020 28/23 Q1015 NOSIG=
METAR WAFF 020200Z 18003KT 7000 SCT018 BKN020 28/23 Q1015 NOSIG=
METAR WAFF 020100Z 18003KT 7000 SCT019 27/23 Q1015 NOSIG=
METAR WAFF 020000Z 20002KT 7000 SCT018 BKN020 26/24 Q1015 NOSIG=
METAR WAFF 032300Z 00000KT 6000 SCT019 24/23 Q1016 NOSIG=
METAR WAFF 032200Z 00000KT 5000 -RA OVC018 24/23 Q1015=
METAR WAFF 032100Z 00000KT 5000 SCT018 OVC020 24/23 Q1015 NOSIG=
METAR WAFF 032000Z 00000KT 5000 SCT018 BKN020 24/23 Q1014 NOSIG=
METAR WAFF 031900Z 00000KT 5000 SCT018 BKN020 24/23 Q1014 NOSIG=
METAR WAFF 031800Z 00000KT 5000 SCT018 BKN020 25/24 Q1014 NOSIG=
METAR WAFF 031700Z 14002KT 5000 OVC019 24/23 Q1014 RERA=
METAR WAFF 031600Z 00000KT 4000 -RA OVC019 25/24 Q1016=
METAR WAFF 031500Z 14004KT 4000 -RA OVC019 25/24 Q1017=
METAR WAFF 031400Z 15003KT 3000 -RA FEW017CB OVC019 25/24 Q1017=
METAR WAFF 031300Z 10002KT 5000 SCT017 BKN019 25/24 Q1017 RMK RERA=
METAR WAFF 031200Z 17002KT 5000 -RA SCT017 BKN019 26/24 Q1016=
METAR WAFF 031100Z 29002KT 4000 -RA FEW017CB SCT017 26/24 Q1016 RMK CB TO NW=
METAR WAFF 031000Z 31007KT 4000 RERA FEW017CB BKN017 27/24 Q1013 RMK CB TO NW=
METAR WAFF 030900Z 36007KT 4000 -TSRA FEW017CB BKN017 27/24 Q1013 RMK CB TO N=
METAR WAFF 030800Z 15003KT 6000 FEW018CB BKN018 30/25 Q1012 RMK CB TO N E=
METAR WAFF 030700Z 27004KT 8000 FEW018CB SCT019 32/24 Q1011 RMK CB TO N W=
METAR WAFF 030600Z 30005KT 8000 SCT020 32/25 Q1012 NOSIG=
METAR WAFF 030500Z 32009KT 9999 SCT020 32/24 Q1013 NOSIG=
METAR WAFF 030400Z 31007KT 8000 FEW018CB SCT019 33/23 Q1014 RMK CB TO E=
METAR WAFF 030300Z 21004KT 8000 FEW018CB SCT019 32/23 Q1014 CB TO E=
METAR WAFF 030200Z 18003KT 8000 SCT019 30/24 Q1015 NOSIG=
METAR WAFF 030130Z 17004KT 8000 SCT019 28/24 Q1015 NOSIG=
METAR WAFF 030100Z 15002KT 9999 SCT020 28/24 Q1016 NOSIG=
METAR WAFF 030000Z 20003KT 9999 SCT020 27/24 Q1015 NOSIG=
METAR WAFF 022300Z 09002KT 6000 SCT019 25/24 Q1014 NOSIG=
METAR WAFF 022200Z 14002KT 6000 SCT019 25/24 Q1013 NOSIG=
METAR WAFF 022100Z 17002KT 5000 SCT019 25/24 Q1013 NOSIG=
METAR WAFF 021800Z 15003KT 5000 -RA SCT019 25/24 Q1013=
METAR WAFF 021500Z 13002KT 6000 -RA SCT019 27/25 Q1014=
METAR WAFF 021430Z 32005KT 5000 -RA BKN018 28/25 Q1015=
METAR WAFF 021400Z 32005KT 7000 FEW020 28/25 Q1015=
METAR WAFF 021300Z 34003KT 7000 FEW020 28/25 Q1014=
METAR WAFF 021200Z 33006KT 7000 FEWCB018 SCT019 28/25 Q1013 RMK CB TO N E=
METAR WAFF 021000Z 32009KT 8000 FEW018CB SCT020 29/24 Q1012 RMK CB TO E=
METAR WAFF 020900Z 32010KT 9999 SCT020 30/24 Q1011 NOSIG=
METAR WAFF 020800Z 33010KT 9999 FEW018CB SCT020 31/24 Q1010 RMK CB TO E=
METAR WAFF 020700Z 33012KT 9999 FEW018CB SCT020 31/23 Q1010 RMK CB TO E=
METAR WAFF 020600Z 33014KT 9999 TS FEW018CB SCT020 32/23 Q1011 RMK CB TO E=
METAR WAFF 020500Z 33011KT 8000 SCT019 34/23 Q1012 NOSIG=
METAR WAFF 020400Z 07002KT 8000 SCT019 32/23 Q1013 NOSIG=
METAR WAFF 020300Z 00000KT 7000 SCT019 29/24 Q1015 RMK RERA=
METAR WAFF 020205Z 18003KT 7000 -RA SCT018 BKN020 28/23 Q1015 NOSIG=
METAR WAFF 020200Z 18003KT 7000 SCT018 BKN020 28/23 Q1015 NOSIG=
METAR WAFF 020100Z 18003KT 7000 SCT019 27/23 Q1015 NOSIG=
METAR WAFF 020000Z 20002KT 7000 SCT018 BKN020 26/24 Q1015 NOSIG=
METAR WAFF 032300Z 00000KT 6000 SCT019 24/23 Q1016 NOSIG=
METAR WAFF 032200Z 00000KT 5000 -RA OVC018 24/23 Q1015=
METAR WAFF 032100Z 00000KT 5000 SCT018 OVC020 24/23 Q1015 NOSIG=
METAR WAFF 032000Z 00000KT 5000 SCT018 BKN020 24/23 Q1014 NOSIG=
METAR WAFF 031900Z 00000KT 5000 SCT018 BKN020 24/23 Q1014 NOSIG=
METAR WAFF 031800Z 00000KT 5000 SCT018 BKN020 25/24 Q1014 NOSIG=
METAR WAFF 031700Z 14002KT 5000 OVC019 24/23 Q1014 RERA=
METAR WAFF 031600Z 00000KT 4000 -RA OVC019 25/24 Q1016=
METAR WAFF 031500Z 14004KT 4000 -RA OVC019 25/24 Q1017=
METAR WAFF 031400Z 15003KT 3000 -RA FEW017CB OVC019 25/24 Q1017=
METAR WAFF 031300Z 10002KT 5000 SCT017 BKN019 25/24 Q1017 RMK RERA=
METAR WAFF 031200Z 17002KT 5000 -RA SCT017 BKN019 26/24 Q1016=
METAR WAFF 031100Z 29002KT 4000 -RA FEW017CB SCT017 26/24 Q1016 RMK CB TO NW=
METAR WAFF 031000Z 31007KT 4000 RERA FEW017CB BKN017 27/24 Q1013 RMK CB TO NW=
METAR WAFF 030900Z 36007KT 4000 -TSRA FEW017CB BKN017 27/24 Q1013 RMK CB TO N=
METAR WAFF 030800Z 15003KT 6000 FEW018CB BKN018 30/25 Q1012 RMK CB TO N E=
METAR WAFF 030700Z 27004KT 8000 FEW018CB SCT019 32/24 Q1011 RMK CB TO N W=
METAR WAFF 030600Z 30005KT 8000 SCT020 32/25 Q1012 NOSIG=
METAR WAFF 030500Z 32009KT 9999 SCT020 32/24 Q1013 NOSIG=
METAR WAFF 030400Z 31007KT 8000 FEW018CB SCT019 33/23 Q1014 RMK CB TO E=
METAR WAFF 030300Z 21004KT 8000 FEW018CB SCT019 32/23 Q1014 CB TO E=
METAR WAFF 030200Z 18003KT 8000 SCT019 30/24 Q1015 NOSIG=
METAR WAFF 030130Z 17004KT 8000 SCT019 28/24 Q1015 NOSIG=
METAR WAFF 030100Z 15002KT 9999 SCT020 28/24 Q1016 NOSIG=
METAR WAFF 030000Z 20003KT 9999 SCT020 27/24 Q1015 NOSIG=
METAR WAFF 022300Z 09002KT 6000 SCT019 25/24 Q1014 NOSIG=
METAR WAFF 022200Z 14002KT 6000 SCT019 25/24 Q1013 NOSIG=
METAR WAFF 022100Z 17002KT 5000 SCT019 25/24 Q1013 NOSIG=
METAR WAFF 021800Z 15003KT 5000 -RA SCT019 25/24 Q1013=
METAR WAFF 021500Z 13002KT 6000 -RA SCT019 27/25 Q1014=
METAR WAFF 021430Z 32005KT 5000 -RA BKN018 28/25 Q1015=
METAR WAFF 021400Z 32005KT 7000 FEW020 28/25 Q1015=
METAR WAFF 021300Z 34003KT 7000 FEW020 28/25 Q1014=
METAR WAFF 021200Z 33006KT 7000 FEWCB018 SCT019 28/25 Q1013 RMK CB TO N E=
METAR WAFF 021000Z 32009KT 8000 FEW018CB SCT020 29/24 Q1012 RMK CB TO E=
METAR WAFF 020900Z 32010KT 9999 SCT020 30/24 Q1011 NOSIG=
METAR WAFF 020800Z 33010KT 9999 FEW018CB SCT020 31/24 Q1010 RMK CB TO E=
METAR WAFF 020700Z 33012KT 9999 FEW018CB SCT020 31/23 Q1010 RMK CB TO E=
METAR WAFF 020600Z 33014KT 9999 TS FEW018CB SCT020 32/23 Q1011 RMK CB TO E=
METAR WAFF 020500Z 33011KT 8000 SCT019 34/23 Q1012 NOSIG=
METAR WAFF 020400Z 07002KT 8000 SCT019 32/23 Q1013 NOSIG=
METAR WAFF 020300Z 00000KT 7000 SCT019 29/24 Q1015 RMK RERA=
METAR WAFF 020205Z 18003KT 7000 -RA SCT018 BKN020 28/23 Q1015 NOSIG=
METAR WAFF 020200Z 18003KT 7000 SCT018 BKN020 28/23 Q1015 NOSIG=
METAR WAFF 020100Z 18003KT 7000 SCT019 27/23 Q1015 NOSIG=
METAR WAFF 020000Z 20002KT 7000 SCT018 BKN020 26/24 Q1015 NOSIG=
METAR WAFF 032300Z 00000KT 6000 SCT019 24/23 Q1016 NOSIG=
METAR WAFF 032200Z 00000KT 5000 -RA OVC018 24/23 Q1015=
METAR WAFF 032100Z 00000KT 5000 SCT018 OVC020 24/23 Q1015 NOSIG=
METAR WAFF 032000Z 00000KT 5000 SCT018 BKN020 24/23 Q1014 NOSIG=
METAR WAFF 031900Z 00000KT 5000 SCT018 BKN020 24/23 Q1014 NOSIG=
METAR WAFF 031800Z 00000KT 5000 SCT018 BKN020 25/24 Q1014 NOSIG=
METAR WAFF 031700Z 14002KT 5000 OVC019 24/23 Q1014 RERA=
METAR WAFF 031600Z 00000KT 4000 -RA OVC019 25/24 Q1016=
METAR WAFF 031500Z 14004KT 4000 -RA OVC019 25/24 Q1017=
METAR WAFF 031400Z 15003KT 3000 -RA FEW017CB OVC019 25/24 Q1017=
METAR WAFF 031300Z 10002KT 5000 SCT017 BKN019 25/24 Q1017 RMK RERA=
METAR WAFF 031200Z 17002KT 5000 -RA SCT017 BKN019 26/24 Q1016=
METAR WAFF 031100Z 29002KT 4000 -RA FEW017CB SCT017 26/24 Q1016 RMK CB TO NW=
METAR WAFF 031000Z 31007KT 4000 RERA FEW017CB BKN017 27/24 Q1013 RMK CB TO NW=
METAR WAFF 030900Z 36007KT 4000 -TSRA FEW017CB BKN017 27/24 Q1013 RMK CB TO N=
METAR WAFF 030800Z 15003KT 6000 FEW018CB BKN018 30/25 Q1012 RMK CB TO N E=
METAR WAFF 030700Z 27004KT 8000 FEW018CB SCT019 32/24 Q1011 RMK CB TO N W=
METAR WAFF 030600Z 30005KT 8000 SCT020 32/25 Q1012 NOSIG=
METAR WAFF 030500Z 32009KT 9999 SCT020 32/24 Q1013 NOSIG=
METAR WAFF 030400Z 31007KT 8000 FEW018CB SCT019 33/23 Q1014 RMK CB TO E=
METAR WAFF 030300Z 21004KT 8000 FEW018CB SCT019 32/23 Q1014 CB TO E=
METAR WAFF 030200Z 18003KT 8000 SCT019 30/24 Q1015 NOSIG=
METAR WAFF 030130Z 17004KT 8000 SCT019 28/24 Q1015 NOSIG=
METAR WAFF 030100Z 15002KT 9999 SCT020 28/24 Q1016 NOSIG=
METAR WAFF 030000Z 20003KT 9999 SCT020 27/24 Q1015 NOSIG=
METAR WAFF 022300Z 09002KT 6000 SCT019 25/24 Q1014 NOSIG=
METAR WAFF 022200Z 14002KT 6000 SCT019 25/24 Q1013 NOSIG=
METAR WAFF 022100Z 17002KT 5000 SCT019 25/24 Q1013 NOSIG=
METAR WAFF 021800Z 15003KT 5000 -RA SCT019 25/24 Q1013=
METAR WAFF 021500Z 13002KT 6000 -RA SCT019 27/25 Q1014=
METAR WAFF 021430Z 32005KT 5000 -RA BKN018 28/25 Q1015=
METAR WAFF 021400Z 32005KT 7000 FEW020 28/25 Q1015=
METAR WAFF 021300Z 34003KT 7000 FEW020 28/25 Q1014=
METAR WAFF 021200Z 33006KT 7000 FEWCB018 SCT019 28/25 Q1013 RMK CB TO N E=
METAR WAFF 021000Z 32009KT 8000 FEW018CB SCT020 29/24 Q1012 RMK CB TO E=
METAR WAFF 020900Z 32010KT 9999 SCT020 30/24 Q1011 NOSIG=
METAR WAFF 020800Z 33010KT 9999 FEW018CB SCT020 31/24 Q1010 RMK CB TO E=
METAR WAFF 020700Z 33012KT 9999 FEW018CB SCT020 31/23 Q1010 RMK CB TO E=
METAR WAFF 020600Z 33014KT 9999 TS FEW018CB SCT020 32/23 Q1011 RMK CB TO E=
METAR WAFF 020500Z 33011KT 8000 SCT019 34/23 Q1012 NOSIG=
METAR WAFF 020400Z 07002KT 8000 SCT019 32/23 Q1013 NOSIG=
METAR WAFF 020300Z 00000KT 7000 SCT019 29/24 Q1015 RMK RERA=
METAR WAFF 020205Z 18003KT 7000 -RA SCT018 BKN020 28/23 Q1015 NOSIG=
METAR WAFF 020200Z 18003KT 7000 SCT018 BKN020 28/23 Q1015 NOSIG=
METAR WAFF 020100Z 18003KT 7000 SCT019 27/23 Q1015 NOSIG=
METAR WAFF 020000Z 20002KT 7000 SCT018 BKN020 26/24 Q1015 NOSIG=
METAR WAFF 032300Z 00000KT 6000 SCT019 24/23 Q1016 NOSIG=
METAR WAFF 032200Z 00000KT 5000 -RA OVC018 24/23 Q1015=
METAR WAFF 032100Z 00000KT 5000 SCT018 OVC020 24/23 Q1015 NOSIG=
METAR WAFF 032000Z 00000KT 5000 SCT018 BKN020 24/23 Q1014 NOSIG=
METAR WAFF 031900Z 00000KT 5000 SCT018 BKN020 24/23 Q1014 NOSIG=
METAR WAFF 031800Z 00000KT 5000 SCT018 BKN020 25/24 Q1014 NOSIG=
METAR WAFF 031700Z 14002KT 5000 OVC019 24/23 Q1014 RERA=
METAR WAFF 031600Z 00000KT 4000 -RA OVC019 25/24 Q1016=
METAR WAFF 031500Z 14004KT 4000 -RA OVC019 25/24 Q1017=
METAR WAFF 031400Z 15003KT 3000 -RA FEW017CB OVC019 25/24 Q1017=
METAR WAFF 031300Z 10002KT 5000 SCT017 BKN019 25/24 Q1017 RMK RERA=
METAR WAFF 031200Z 17002KT 5000 -RA SCT017 BKN019 26/24 Q1016=
METAR WAFF 031100Z 29002KT 4000 -RA FEW017CB SCT017 26/24 Q1016 RMK CB TO NW=
METAR WAFF 031000Z 31007KT 4000 RERA FEW017CB BKN017 27/24 Q1013 RMK CB TO NW=
METAR WAFF 030900Z 36007KT 4000 -TSRA FEW017CB BKN017 27/24 Q1013 RMK CB TO N=
METAR WAFF 030800Z 15003KT 6000 FEW018CB BKN018 30/25 Q1012 RMK CB TO N E=
METAR WAFF 030700Z 27004KT 8000 FEW018CB SCT019 32/24 Q1011 RMK CB TO N W=
METAR WAFF 030600Z 30005KT 8000 SCT020 32/25 Q1012 NOSIG=
METAR WAFF 030500Z 32009KT 9999 SCT020 32/24 Q1013 NOSIG=
METAR WAFF 030400Z 31007KT 8000 FEW018CB SCT019 33/23 Q1014 RMK CB TO E=
METAR WAFF 030300Z 21004KT 8000 FEW018CB SCT019 32/23 Q1014 CB TO E=
METAR WAFF 030200Z 18003KT 8000 SCT019 30/24 Q1015 NOSIG=
METAR WAFF 030130Z 17004KT 8000 SCT019 28/24 Q1015 NOSIG=
METAR WAFF 030100Z 15002KT 9999 SCT020 28/24 Q1016 NOSIG=
METAR WAFF 030000Z 20003KT 9999 SCT020 27/24 Q1015 NOSIG=
METAR WAFF 022300Z 09002KT 6000 SCT019 25/24 Q1014 NOSIG=
METAR WAFF 022200Z 14002KT 6000 SCT019 25/24 Q1013 NOSIG=
METAR WAFF 022100Z 17002KT 5000 SCT019 25/24 Q1013 NOSIG=
METAR WAFF 021800Z 15003KT 5000 -RA SCT019 25/24 Q1013=
METAR WAFF 021500Z 13002KT 6000 -RA SCT019 27/25 Q1014=
METAR WAFF 021430Z 32005KT 5000 -RA BKN018 28/25 Q1015=
METAR WAFF 021400Z 32005KT 7000 FEW020 28/25 Q1015=
METAR WAFF 021300Z 34003KT 7000 FEW020 28/25 Q1014=
METAR WAFF 021200Z 33006KT 7000 FEWCB018 SCT019 28/25 Q1013 RMK CB TO N E=
METAR WAFF 021000Z 32009KT 8000 FEW018CB SCT020 29/24 Q1012 RMK CB TO E=
METAR WAFF 020900Z 32010KT 9999 SCT020 30/24 Q1011 NOSIG=
METAR WAFF 020800Z 33010KT 9999 FEW018CB SCT020 31/24 Q1010 RMK CB TO E=
METAR WAFF 020700Z 33012KT 9999 FEW018CB SCT020 31/23 Q1010 RMK CB TO E=
METAR WAFF 020600Z 33014KT 9999 TS FEW018CB SCT020 32/23 Q1011 RMK CB TO E=
METAR WAFF 020500Z 33011KT 8000 SCT019 34/23 Q1012 NOSIG=
METAR WAFF 020400Z 07002KT 8000 SCT019 32/23 Q1013 NOSIG=
METAR WAFF 020300Z 00000KT 7000 SCT019 29/24 Q1015 RMK RERA=
METAR WAFF 020205Z 18003KT 7000 -RA SCT018 BKN020 28/23 Q1015 NOSIG=
METAR WAFF 020200Z 18003KT 7000 SCT018 BKN020 28/23 Q1015 NOSIG=
METAR WAFF 020100Z 18003KT 7000 SCT019 27/23 Q1015 NOSIG=
METAR WAFF 020000Z 20002KT 7000 SCT018 BKN020 26/24 Q1015 NOSIG=
METAR WAFF 032300Z 00000KT 6000 SCT019 24/23 Q1016 NOSIG=
METAR WAFF 032200Z 00000KT 5000 -RA OVC018 24/23 Q1015=
METAR WAFF 032100Z 00000KT 5000 SCT018 OVC020 24/23 Q1015 NOSIG=
METAR WAFF 032000Z 00000KT 5000 SCT018 BKN020 24/23 Q1014 NOSIG=
METAR WAFF 031900Z 00000KT 5000 SCT018 BKN020 24/23 Q1014 NOSIG=
METAR WAFF 031800Z 00000KT 5000 SCT018 BKN020 25/24 Q1014 NOSIG=
METAR WAFF 031700Z 14002KT 5000 OVC019 24/23 Q1014 RERA=
METAR WAFF 031600Z 00000KT 4000 -RA OVC019 25/24 Q1016=
METAR WAFF 031500Z 14004KT 4000 -RA OVC019 25/24 Q1017=
METAR WAFF 031400Z 15003KT 3000 -RA FEW017CB OVC019 25/24 Q1017=
METAR WAFF 031300Z 10002KT 5000 SCT017 BKN019 25/24 Q1017 RMK RERA=
METAR WAFF 031200Z 17002KT 5000 -RA SCT017 BKN019 26/24 Q1016=
METAR WAFF 031100Z 29002KT 4000 -RA FEW017CB SCT017 26/24 Q1016 RMK CB TO NW=
METAR WAFF 031000Z 31007KT 4000 RERA FEW017CB BKN017 27/24 Q1013 RMK CB TO NW=
METAR WAFF 030900Z 36007KT 4000 -TSRA FEW017CB BKN017 27/24 Q1013 RMK CB TO N=
METAR WAFF 030800Z 15003KT 6000 FEW018CB BKN018 30/25 Q1012 RMK CB TO N E=
METAR WAFF 030700Z 27004KT 8000 FEW018CB SCT019 32/24 Q1011 RMK CB TO N W=
METAR WAFF 030600Z 30005KT 8000 SCT020 32/25 Q1012 NOSIG=
METAR WAFF 030500Z 32009KT 9999 SCT020 32/24 Q1013 NOSIG=
METAR WAFF 030400Z 31007KT 8000 FEW018CB SCT019 33/23 Q1014 RMK CB TO E=
METAR WAFF 030300Z 21004KT 8000 FEW018CB SCT019 32/23 Q1014 CB TO E=
METAR WAFF 030200Z 18003KT 8000 SCT019 30/24 Q1015 NOSIG=
METAR WAFF 030130Z 17004KT 8000 SCT019 28/24 Q1015 NOSIG=
METAR WAFF 030100Z 15002KT 9999 SCT020 28/24 Q1016 NOSIG=
METAR WAFF 030000Z 20003KT 9999 SCT020 27/24 Q1015 NOSIG=
METAR WAFF 022300Z 09002KT 6000 SCT019 25/24 Q1014 NOSIG=
METAR WAFF 022200Z 14002KT 6000 SCT019 25/24 Q1013 NOSIG=
METAR WAFF 022100Z 17002KT 5000 SCT019 25/24 Q1013 NOSIG=
METAR WAFF 021800Z 15003KT 5000 -RA SCT019 25/24 Q1013=
METAR WAFF 021500Z 13002KT 6000 -RA SCT019 27/25 Q1014=
METAR WAFF 021430Z 32005KT 5000 -RA BKN018 28/25 Q1015=
METAR WAFF 021400Z 32005KT 7000 FEW020 28/25 Q1015=
METAR WAFF 021300Z 34003KT 7000 FEW020 28/25 Q1014=
METAR WAFF 021200Z 33006KT 7000 FEWCB018 SCT019 28/25 Q1013 RMK CB TO N E=
METAR WAFF 021000Z 32009KT 8000 FEW018CB SCT020 29/24 Q1012 RMK CB TO E=
METAR WAFF 020900Z 32010KT 9999 SCT020 30/24 Q1011 NOSIG=
METAR WAFF 020800Z 33010KT 9999 FEW018CB SCT020 31/24 Q1010 RMK CB TO E=
METAR WAFF 020700Z 33012KT 9999 FEW018CB SCT020 31/23 Q1010 RMK CB TO E=
METAR WAFF 020600Z 33014KT 9999 TS FEW018CB SCT020 32/23 Q1011 RMK CB TO E=
METAR WAFF 020500Z 33011KT 8000 SCT019 34/23 Q1012 NOSIG=
METAR WAFF 020400Z 07002KT 8000 SCT019 32/23 Q1013 NOSIG=
METAR WAFF 020300Z 00000KT 7000 SCT019 29/24 Q1015 RMK RERA=
METAR WAFF 020205Z 18003KT 7000 -RA SCT018 BKN020 28/23 Q1015 NOSIG=
METAR WAFF 020200Z 18003KT 7000 SCT018 BKN020 28/23 Q1015 NOSIG=
METAR WAFF 020100Z 18003KT 7000 SCT019 27/23 Q1015 NOSIG=
METAR WAFF 020000Z 20002KT 7000 SCT018 BKN020 26/24 Q1015 NOSIG=
METAR WAFF 032300Z 00000KT 6000 SCT019 24/23 Q1016 NOSIG=
METAR WAFF 032200Z 00000KT 5000 -RA OVC018 24/23 Q1015=
METAR WAFF 032100Z 00000KT 5000 SCT018 OVC020 24/23 Q1015 NOSIG=
METAR WAFF 032000Z 00000KT 5000 SCT018 BKN020 24/23 Q1014 NOSIG=
METAR WAFF 031900Z 00000KT 5000 SCT018 BKN020 24/23 Q1014 NOSIG=
METAR WAFF 031800Z 00000KT 5000 SCT018 BKN020 25/24 Q1014 NOSIG=
METAR WAFF 031700Z 14002KT 5000 OVC019 24/23 Q1014 RERA=
METAR WAFF 031600Z 00000KT 4000 -RA OVC019 25/24 Q1016=
METAR WAFF 031500Z 14004KT 4000 -RA OVC019 25/24 Q1017=
METAR WAFF 031400Z 15003KT 3000 -RA FEW017CB OVC019 25/24 Q1017=
METAR WAFF 031300Z 10002KT 5000 SCT017 BKN019 25/24 Q1017 RMK RERA=
METAR WAFF 031200Z 17002KT 5000 -RA SCT017 BKN019 26/24 Q1016=
METAR WAFF 031100Z 29002KT 4000 -RA FEW017CB SCT017 26/24 Q1016 RMK CB TO NW=
METAR WAFF 031000Z 31007KT 4000 RERA FEW017CB BKN017 27/24 Q1013 RMK CB TO NW=
METAR WAFF 030900Z 36007KT 4000 -TSRA FEW017CB BKN017 27/24 Q1013 RMK CB TO N=
METAR WAFF 030800Z 15003KT 6000 FEW018CB BKN018 30/25 Q1012 RMK CB TO N E=
METAR WAFF 030700Z 27004KT 8000 FEW018CB SCT019 32/24 Q1011 RMK CB TO N W=
METAR WAFF 030600Z 30005KT 8000 SCT020 32/25 Q1012 NOSIG=
METAR WAFF 030500Z 32009KT 9999 SCT020 32/24 Q1013 NOSIG=
METAR WAFF 030400Z 31007KT 8000 FEW018CB SCT019 33/23 Q1014 RMK CB TO E=
METAR WAFF 030300Z 21004KT 8000 FEW018CB SCT019 32/23 Q1014 CB TO E=
METAR WAFF 030200Z 18003KT 8000 SCT019 30/24 Q1015 NOSIG=
METAR WAFF 030130Z 17004KT 8000 SCT019 28/24 Q1015 NOSIG=
METAR WAFF 030100Z 15002KT 9999 SCT020 28/24 Q1016 NOSIG=
METAR WAFF 030000Z 20003KT 9999 SCT020 27/24 Q1015 NOSIG=
METAR WAFF 022300Z 09002KT 6000 SCT019 25/24 Q1014 NOSIG=
METAR WAFF 022200Z 14002KT 6000 SCT019 25/24 Q1013 NOSIG=
METAR WAFF 022100Z 17002KT 5000 SCT019 25/24 Q1013 NOSIG=
METAR WAFF 021800Z 15003KT 5000 -RA SCT019 25/24 Q1013=
METAR WAFF 021500Z 13002KT 6000 -RA SCT019 27/25 Q1014=
METAR WAFF 021430Z 32005KT 5000 -RA BKN018 28/25 Q1015=
METAR WAFF 021400Z 32005KT 7000 FEW020 28/25 Q1015=
METAR WAFF 021300Z 34003KT 7000 FEW020 28/25 Q1014=
METAR WAFF 021200Z 33006KT 7000 FEWCB018 SCT019 28/25 Q1013 RMK CB TO N E=
METAR WAFF 021000Z 32009KT 8000 FEW018CB SCT020 29/24 Q1012 RMK CB TO E=
METAR WAFF 020900Z 32010KT 9999 SCT020 30/24 Q1011 NOSIG=
METAR WAFF 020800Z 33010KT 9999 FEW018CB SCT020 31/24 Q1010 RMK CB TO E=
METAR WAFF 020700Z 33012KT 9999 FEW018CB SCT020 31/23 Q1010 RMK CB TO E=
METAR WAFF 020600Z 33014KT 9999 TS FEW018CB SCT020 32/23 Q1011 RMK CB TO E=
METAR WAFF 020500Z 33011KT 8000 SCT019 34/23 Q1012 NOSIG=
METAR WAFF 020400Z 07002KT 8000 SCT019 32/23 Q1013 NOSIG=
METAR WAFF 020300Z 00000KT 7000 SCT019 29/24 Q1015 RMK RERA=
METAR WAFF 020205Z 18003KT 7000 -RA SCT018 BKN020 28/23 Q1015 NOSIG=
METAR WAFF 020200Z 18003KT 7000 SCT018 BKN020 28/23 Q1015 NOSIG=
METAR WAFF 020100Z 18003KT 7000 SCT019 27/23 Q1015 NOSIG=
METAR WAFF 020000Z 20002KT 7000 SCT018 BKN020 26/24 Q1015 NOSIG=
METAR WAFF 032300Z 00000KT 6000 SCT019 24/23 Q1016 NOSIG=
METAR WAFF 032200Z 00000KT 5000 -RA OVC018 24/23 Q1015=
METAR WAFF 032100Z 00000KT 5000 SCT018 OVC020 24/23 Q1015 NOSIG=
METAR WAFF 032000Z 00000KT 5000 SCT018 BKN020 24/23 Q1014 NOSIG=
METAR WAFF 031900Z 00000KT 5000 SCT018 BKN020 24/23 Q1014 NOSIG=
METAR WAFF 031800Z 00000KT 5000 SCT018 BKN020 25/24 Q1014 NOSIG=
METAR WAFF 031700Z 14002KT 5000 OVC019 24/23 Q1014 RERA=
METAR WAFF 031600Z 00000KT 4000 -RA OVC019 25/24 Q1016=
METAR WAFF 031500Z 14004KT 4000 -RA OVC019 25/24 Q1017=
METAR WAFF 031400Z 15003KT 3000 -RA FEW017CB OVC019 25/24 Q1017=
METAR WAFF 031300Z 10002KT 5000 SCT017 BKN019 25/24 Q1017 RMK RERA=
METAR WAFF 031200Z 17002KT 5000 -RA SCT017 BKN019 26/24 Q1016=
METAR WAFF 031100Z 29002KT 4000 -RA FEW017CB SCT017 26/24 Q1016 RMK CB TO NW=
METAR WAFF 031000Z 31007KT 4000 RERA FEW017CB BKN017 27/24 Q1013 RMK CB TO NW=
METAR WAFF 030900Z 36007KT 4000 -TSRA FEW017CB BKN017 27/24 Q1013 RMK CB TO N=
METAR WAFF 030800Z 15003KT 6000 FEW018CB BKN018 30/25 Q1012 RMK CB TO N E=
METAR WAFF 030700Z 27004KT 8000 FEW018CB SCT019 32/24 Q1011 RMK CB TO N W=
METAR WAFF 030600Z 30005KT 8000 SCT020 32/25 Q1012 NOSIG=
METAR WAFF 030500Z 32009KT 9999 SCT020 32/24 Q1013 NOSIG=
METAR WAFF 030400Z 31007KT 8000 FEW018CB SCT019 33/23 Q1014 RMK CB TO E=
METAR WAFF 030300Z 21004KT 8000 FEW018CB SCT019 32/23 Q1014 CB TO E=
METAR WAFF 030200Z 18003KT 8000 SCT019 30/24 Q1015 NOSIG=
METAR WAFF 030130Z 17004KT 8000 SCT019 28/24 Q1015 NOSIG=
METAR WAFF 030100Z 15002KT 9999 SCT020 28/24 Q1016 NOSIG=
METAR WAFF 030000Z 20003KT 9999 SCT020 27/24 Q1015 NOSIG=
METAR WAFF 022300Z 09002KT 6000 SCT019 25/24 Q1014 NOSIG=
METAR WAFF 022200Z 14002KT 6000 SCT019 25/24 Q1013 NOSIG=
METAR WAFF 022100Z 17002KT 5000 SCT019 25/24 Q1013 NOSIG=
METAR WAFF 021800Z 15003KT 5000 -RA SCT019 25/24 Q1013=
METAR WAFF 021500Z 13002KT 6000 -RA SCT019 27/25 Q1014=
METAR WAFF 021430Z 32005KT 5000 -RA BKN018 28/25 Q1015=
METAR WAFF 021400Z 32005KT 7000 FEW020 28/25 Q1015=
METAR WAFF 021300Z 34003KT 7000 FEW020 28/25 Q1014=
METAR WAFF 021200Z 33006KT 7000 FEWCB018 SCT019 28/25 Q1013 RMK CB TO N E=
METAR WAFF 021000Z 32009KT 8000 FEW018CB SCT020 29/24 Q1012 RMK CB TO E=
METAR WAFF 020900Z 32010KT 9999 SCT020 30/24 Q1011 NOSIG=
METAR WAFF 020800Z 33010KT 9999 FEW018CB SCT020 31/24 Q1010 RMK CB TO E=
METAR WAFF 020700Z 33012KT 9999 FEW018CB SCT020 31/23 Q1010 RMK CB TO E=
METAR WAFF 020600Z 33014KT 9999 TS FEW018CB SCT020 32/23 Q1011 RMK CB TO E=
METAR WAFF 020500Z 33011KT 8000 SCT019 34/23 Q1012 NOSIG=
METAR WAFF 020400Z 07002KT 8000 SCT019 32/23 Q1013 NOSIG=
METAR WAFF 020300Z 00000KT 7000 SCT019 29/24 Q1015 RMK RERA=
METAR WAFF 020205Z 18003KT 7000 -RA SCT018 BKN020 28/23 Q1015 NOSIG=
METAR WAFF 020200Z 18003KT 7000 SCT018 BKN020 28/23 Q1015 NOSIG=
METAR WAFF 020100Z 18003KT 7000 SCT019 27/23 Q1015 NOSIG=
METAR WAFF 020000Z 20002KT 7000 SCT018 BKN020 26/24 Q1015 NOSIG=
METAR WAFF 032300Z 00000KT 6000 SCT019 24/23 Q1016 NOSIG=
METAR WAFF 032200Z 00000KT 5000 -RA OVC018 24/23 Q1015=
METAR WAFF 032100Z 00000KT 5000 SCT018 OVC020 24/23 Q1015 NOSIG=
METAR WAFF 032000Z 00000KT 5000 SCT018 BKN020 24/23 Q1014 NOSIG=
METAR WAFF 031900Z 00000KT 5000 SCT018 BKN020 24/23 Q1014 NOSIG=
METAR WAFF 031800Z 00000KT 5000 SCT018 BKN020 25/24 Q1014 NOSIG=
METAR WAFF 031700Z 14002KT 5000 OVC019 24/23 Q1014 RERA=
METAR WAFF 031600Z 00000KT 4000 -RA OVC019 25/24 Q1016=
METAR WAFF 031500Z 14004KT 4000 -RA OVC019 25/24 Q1017=
METAR WAFF 031400Z 15003KT 3000 -RA FEW017CB OVC019 25/24 Q1017=
METAR WAFF 031300Z 10002KT 5000 SCT017 BKN019 25/24 Q1017 RMK RERA=
METAR WAFF 031200Z 17002KT 5000 -RA SCT017 BKN019 26/24 Q1016=
METAR WAFF 031100Z 29002KT 4000 -RA FEW017CB SCT017 26/24 Q1016 RMK CB TO NW=
METAR WAFF 031000Z 31007KT 4000 RERA FEW017CB BKN017 27/24 Q1013 RMK CB TO NW=
METAR WAFF 030900Z 36007KT 4000 -TSRA FEW017CB BKN017 27/24 Q1013 RMK CB TO N=
METAR WAFF 030800Z 15003KT 6000 FEW018CB BKN018 30/25 Q1012 RMK CB TO N E=
METAR WAFF 030700Z 27004KT 8000 FEW018CB SCT019 32/24 Q1011 RMK CB TO N W=
METAR WAFF 030600Z 30005KT 8000 SCT020 32/25 Q1012 NOSIG=
METAR WAFF 030500Z 32009KT 9999 SCT020 32/24 Q1013 NOSIG=
METAR WAFF 030400Z 31007KT 8000 FEW018CB SCT019 33/23 Q1014 RMK CB TO E=
METAR WAFF 030300Z 21004KT 8000 FEW018CB SCT019 32/23 Q1014 CB TO E=
METAR WAFF 030200Z 18003KT 8000 SCT019 30/24 Q1015 NOSIG=
METAR WAFF 030130Z 17004KT 8000 SCT019 28/24 Q1015 NOSIG=
METAR WAFF 030100Z 15002KT 9999 SCT020 28/24 Q1016 NOSIG=
METAR WAFF 030000Z 20003KT 9999 SCT020 27/24 Q1015 NOSIG=
METAR WAFF 022300Z 09002KT 6000 SCT019 25/24 Q1014 NOSIG=
METAR WAFF 022200Z 14002KT 6000 SCT019 25/24 Q1013 NOSIG=
METAR WAFF 022100Z 17002KT 5000 SCT019 25/24 Q1013 NOSIG=
METAR WAFF 021800Z 15003KT 5000 -RA SCT019 25/24 Q1013=
METAR WAFF 021500Z 13002KT 6000 -RA SCT019 27/25 Q1014=
METAR WAFF 021430Z 32005KT 5000 -RA BKN018 28/25 Q1015=
METAR WAFF 021400Z 32005KT 7000 FEW020 28/25 Q1015=
METAR WAFF 021300Z 34003KT 7000 FEW020 28/25 Q1014=
METAR WAFF 021200Z 33006KT 7000 FEWCB018 SCT019 28/25 Q1013 RMK CB TO N E=
METAR WAFF 021000Z 32009KT 8000 FEW018CB SCT020 29/24 Q1012 RMK CB TO E=
METAR WAFF 020900Z 32010KT 9999 SCT020 30/24 Q1011 NOSIG=
METAR WAFF 020800Z 33010KT 9999 FEW018CB SCT020 31/24 Q1010 RMK CB TO E=
METAR WAFF 020700Z 33012KT 9999 FEW018CB SCT020 31/23 Q1010 RMK CB TO E=
METAR WAFF 020600Z 33014KT 9999 TS FEW018CB SCT020 32/23 Q1011 RMK CB TO E=
METAR WAFF 020500Z 33011KT 8000 SCT019 34/23 Q1012 NOSIG=
METAR WAFF 020400Z 07002KT 8000 SCT019 32/23 Q1013 NOSIG=
METAR WAFF 020300Z 00000KT 7000 SCT019 29/24 Q1015 RMK RERA=
METAR WAFF 020205Z 18003KT 7000 -RA SCT018 BKN020 28/23 Q1015 NOSIG=
METAR WAFF 020200Z 18003KT 7000 SCT018 BKN020 28/23 Q1015 NOSIG=
METAR WAFF 020100Z 18003KT 7000 SCT019 27/23 Q1015 NOSIG=
METAR WAFF 020000Z 20002KT 7000 SCT018 BKN020 26/24 Q1015 NOSIG=
METAR WAFF 032300Z 00000KT 6000 SCT019 24/23 Q1016 NOSIG=
METAR WAFF 032200Z 00000KT 5000 -RA OVC018 24/23 Q1015=
METAR WAFF 032100Z 00000KT 5000 SCT018 OVC020 24/23 Q1015 NOSIG=
METAR WAFF 032000Z 00000KT 5000 SCT018 BKN020 24/23 Q1014 NOSIG=
METAR WAFF 031900Z 00000KT 5000 SCT018 BKN020 24/23 Q1014 NOSIG=
METAR WAFF 031800Z 00000KT 5000 SCT018 BKN020 25/24 Q1014 NOSIG=
METAR WAFF 031700Z 14002KT 5000 OVC019 24/23 Q1014 RERA=
METAR WAFF 031600Z 00000KT 4000 -RA OVC019 25/24 Q1016=
METAR WAFF 031500Z 14004KT 4000 -RA OVC019 25/24 Q1017=
METAR WAFF 031400Z 15003KT 3000 -RA FEW017CB OVC019 25/24 Q1017=
METAR WAFF 031300Z 10002KT 5000 SCT017 BKN019 25/24 Q1017 RMK RERA=
METAR WAFF 031200Z 17002KT 5000 -RA SCT017 BKN019 26/24 Q1016=
METAR WAFF 031100Z 29002KT 4000 -RA FEW017CB SCT017 26/24 Q1016 RMK CB TO NW=
METAR WAFF 031000Z 31007KT 4000 RERA FEW017CB BKN017 27/24 Q1013 RMK CB TO NW=
METAR WAFF 030900Z 36007KT 4000 -TSRA FEW017CB BKN017 27/24 Q1013 RMK CB TO N=
METAR WAFF 030800Z 15003KT 6000 FEW018CB BKN018 30/25 Q1012 RMK CB TO N E=
METAR WAFF 030700Z 27004KT 8000 FEW018CB SCT019 32/24 Q1011 RMK CB TO N W=
METAR WAFF 030600Z 30005KT 8000 SCT020 32/25 Q1012 NOSIG=
METAR WAFF 030500Z 32009KT 9999 SCT020 32/24 Q1013 NOSIG=
METAR WAFF 030400Z 31007KT 8000 FEW018CB SCT019 33/23 Q1014 RMK CB TO E=
METAR WAFF 030300Z 21004KT 8000 FEW018CB SCT019 32/23 Q1014 CB TO E=
METAR WAFF 030200Z 18003KT 8000 SCT019 30/24 Q1015 NOSIG=
METAR WAFF 030130Z 17004KT 8000 SCT019 28/24 Q1015 NOSIG=
METAR WAFF 030100Z 15002KT 9999 SCT020 28/24 Q1016 NOSIG=
METAR WAFF 030000Z 20003KT 9999 SCT020 27/24 Q1015 NOSIG=
METAR WAFF 022300Z 09002KT 6000 SCT019 25/24 Q1014 NOSIG=
METAR WAFF 022200Z 14002KT 6000 SCT019 25/24 Q1013 NOSIG=
METAR WAFF 022100Z 17002KT 5000 SCT019 25/24 Q1013 NOSIG=
METAR WAFF 021800Z 15003KT 5000 -RA SCT019 25/24 Q1013=
METAR WAFF 021500Z 13002KT 6000 -RA SCT019 27/25 Q1014=
METAR WAFF 021430Z 32005KT 5000 -RA BKN018 28/25 Q1015=
METAR WAFF 021400Z 32005KT 7000 FEW020 28/25 Q1015=
METAR WAFF 021300Z 34003KT 7000 FEW020 28/25 Q1014=
METAR WAFF 021200Z 33006KT 7000 FEWCB018 SCT019 28/25 Q1013 RMK CB TO N E=
METAR WAFF 021000Z 32009KT 8000 FEW018CB SCT020 29/24 Q1012 RMK CB TO E=
METAR WAFF 020900Z 32010KT 9999 SCT020 30/24 Q1011 NOSIG=
METAR WAFF 020800Z 33010KT 9999 FEW018CB SCT020 31/24 Q1010 RMK CB TO E=
METAR WAFF 020700Z 33012KT 9999 FEW018CB SCT020 31/23 Q1010 RMK CB TO E=
METAR WAFF 020600Z 33014KT 9999 TS FEW018CB SCT020 32/23 Q1011 RMK CB TO E=
METAR WAFF 020500Z 33011KT 8000 SCT019 34/23 Q1012 NOSIG=
METAR WAFF 020400Z 07002KT 8000 SCT019 32/23 Q1013 NOSIG=
METAR WAFF 020300Z 00000KT 7000 SCT019 29/24 Q1015 RMK RERA=
METAR WAFF 020205Z 18003KT 7000 -RA SCT018 BKN020 28/23 Q1015 NOSIG=
METAR WAFF 020200Z 18003KT 7000 SCT018 BKN020 28/23 Q1015 NOSIG=
METAR WAFF 020100Z 18003KT 7000 SCT019 27/23 Q1015 NOSIG=
METAR WAFF 020000Z 20002KT 7000 SCT018 BKN020 26/24 Q1015 NOSIG=
METAR WAFF 032300Z 00000KT 6000 SCT019 24/23 Q1016 NOSIG=
METAR WAFF 032200Z 00000KT 5000 -RA OVC018 24/23 Q1015=
METAR WAFF 032100Z 00000KT 5000 SCT018 OVC020 24/23 Q1015 NOSIG=
METAR WAFF 032000Z 00000KT 5000 SCT018 BKN020 24/23 Q1014 NOSIG=
METAR WAFF 031900Z 00000KT 5000 SCT018 BKN020 24/23 Q1014 NOSIG=
METAR WAFF 031800Z 00000KT 5000 SCT018 BKN020 25/24 Q1014 NOSIG=
METAR WAFF 031700Z 14002KT 5000 OVC019 24/23 Q1014 RERA=
METAR WAFF 031600Z 00000KT 4000 -RA OVC019 25/24 Q1016=
METAR WAFF 031500Z 14004KT 4000 -RA OVC019 25/24 Q1017=
METAR WAFF 031400Z 15003KT 3000 -RA FEW017CB OVC019 25/24 Q1017=
METAR WAFF 031300Z 10002KT 5000 SCT017 BKN019 25/24 Q1017 RMK RERA=
METAR WAFF 031200Z 17002KT 5000 -RA SCT017 BKN019 26/24 Q1016=
METAR WAFF 031100Z 29002KT 4000 -RA FEW017CB SCT017 26/24 Q1016 RMK CB TO NW=
METAR WAFF 031000Z 31007KT 4000 RERA FEW017CB BKN017 27/24 Q1013 RMK CB TO NW=
METAR WAFF 030900Z 36007KT 4000 -TSRA FEW017CB BKN017 27/24 Q1013 RMK CB TO N=
METAR WAFF 030800Z 15003KT 6000 FEW018CB BKN018 30/25 Q1012 RMK CB TO N E=
METAR WAFF 030700Z 27004KT 8000 FEW018CB SCT019 32/24 Q1011 RMK CB TO N W=
METAR WAFF 030600Z 30005KT 8000 SCT020 32/25 Q1012 NOSIG=
METAR WAFF 030500Z 32009KT 9999 SCT020 32/24 Q1013 NOSIG=
METAR WAFF 030400Z 31007KT 8000 FEW018CB SCT019 33/23 Q1014 RMK CB TO E=
METAR WAFF 030300Z 21004KT 8000 FEW018CB SCT019 32/23 Q1014 CB TO E=
METAR WAFF 030200Z 18003KT 8000 SCT019 30/24 Q1015 NOSIG=
METAR WAFF 030130Z 17004KT 8000 SCT019 28/24 Q1015 NOSIG=
METAR WAFF 030100Z 15002KT 9999 SCT020 28/24 Q1016 NOSIG=
METAR WAFF 030000Z 20003KT 9999 SCT020 27/24 Q1015 NOSIG=
METAR WAFF 022300Z 09002KT 6000 SCT019 25/24 Q1014 NOSIG=
METAR WAFF 022200Z 14002KT 6000 SCT019 25/24 Q1013 NOSIG=
METAR WAFF 022100Z 17002KT 5000 SCT019 25/24 Q1013 NOSIG=
METAR WAFF 021800Z 15003KT 5000 -RA SCT019 25/24 Q1013=
METAR WAFF 021500Z 13002KT 6000 -RA SCT019 27/25 Q1014=
METAR WAFF 021430Z 32005KT 5000 -RA BKN018 28/25 Q1015=
METAR WAFF 021400Z 32005KT 7000 FEW020 28/25 Q1015=
METAR WAFF 021300Z 34003KT 7000 FEW020 28/25 Q1014=
METAR WAFF 021200Z 33006KT 7000 FEWCB018 SCT019 28/25 Q1013 RMK CB TO N E=
METAR WAFF 021000Z 32009KT 8000 FEW018CB SCT020 29/24 Q1012 RMK CB TO E=
METAR WAFF 020900Z 32010KT 9999 SCT020 30/24 Q1011 NOSIG=
METAR WAFF 020800Z 33010KT 9999 FEW018CB SCT020 31/24 Q1010 RMK CB TO E=
METAR WAFF 020700Z 33012KT 9999 FEW018CB SCT020 31/23 Q1010 RMK CB TO E=
METAR WAFF 020600Z 33014KT 9999 TS FEW018CB SCT020 32/23 Q1011 RMK CB TO E=
METAR WAFF 020500Z 33011KT 8000 SCT019 34/23 Q1012 NOSIG=
METAR WAFF 020400Z 07002KT 8000 SCT019 32/23 Q1013 NOSIG=
METAR WAFF 020300Z 00000KT 7000 SCT019 29/24 Q1015 RMK RERA=
METAR WAFF 020205Z 18003KT 7000 -RA SCT018 BKN020 28/23 Q1015 NOSIG=
METAR WAFF 020200Z 18003KT 7000 SCT018 BKN020 28/23 Q1015 NOSIG=
METAR WAFF 020100Z 18003KT 7000 SCT019 27/23 Q1015 NOSIG=
METAR WAFF 020000Z 20002KT 7000 SCT018 BKN020 26/24 Q1015 NOSIG=
METAR WAFF 032300Z 00000KT 6000 SCT019 24/23 Q1016 NOSIG=
METAR WAFF 032200Z 00000KT 5000 -RA OVC018 24/23 Q1015=
METAR WAFF 032100Z 00000KT 5000 SCT018 OVC020 24/23 Q1015 NOSIG=
METAR WAFF 032000Z 00000KT 5000 SCT018 BKN020 24/23 Q1014 NOSIG=
METAR WAFF 031900Z 00000KT 5000 SCT018 BKN020 24/23 Q1014 NOSIG=
METAR WAFF 031800Z 00000KT 5000 SCT018 BKN020 25/24 Q1014 NOSIG=
METAR WAFF 031700Z 14002KT 5000 OVC019 24/23 Q1014 RERA=
METAR WAFF 031600Z 00000KT 4000 -RA OVC019 25/24 Q1016=
METAR WAFF 031500Z 14004KT 4000 -RA OVC019 25/24 Q1017=
METAR WAFF 031400Z 15003KT 3000 -RA FEW017CB OVC019 25/24 Q1017=
METAR WAFF 031300Z 10002KT 5000 SCT017 BKN019 25/24 Q1017 RMK RERA=
METAR WAFF 031200Z 17002KT 5000 -RA SCT017 BKN019 26/24 Q1016=
METAR WAFF 031100Z 29002KT 4000 -RA FEW017CB SCT017 26/24 Q1016 RMK CB TO NW=
METAR WAFF 031000Z 31007KT 4000 RERA FEW017CB BKN017 27/24 Q1013 RMK CB TO NW=
METAR WAFF 030900Z 36007KT 4000 -TSRA FEW017CB BKN017 27/24 Q1013 RMK CB TO N=
METAR WAFF 030800Z 15003KT 6000 FEW018CB BKN018 30/25 Q1012 RMK CB TO N E=
METAR WAFF 030700Z 27004KT 8000 FEW018CB SCT019 32/24 Q1011 RMK CB TO N W=
METAR WAFF 030600Z 30005KT 8000 SCT020 32/25 Q1012 NOSIG=
METAR WAFF 030500Z 32009KT 9999 SCT020 32/24 Q1013 NOSIG=
METAR WAFF 030400Z 31007KT 8000 FEW018CB SCT019 33/23 Q1014 RMK CB TO E=
METAR WAFF 030300Z 21004KT 8000 FEW018CB SCT019 32/23 Q1014 CB TO E=
METAR WAFF 030200Z 18003KT 8000 SCT019 30/24 Q1015 NOSIG=
METAR WAFF 030130Z 17004KT 8000 SCT019 28/24 Q1015 NOSIG=
METAR WAFF 030100Z 15002KT 9999 SCT020 28/24 Q1016 NOSIG=
METAR WAFF 030000Z 20003KT 9999 SCT020 27/24 Q1015 NOSIG=
METAR WAFF 022300Z 09002KT 6000 SCT019 25/24 Q1014 NOSIG=
METAR WAFF 022200Z 14002KT 6000 SCT019 25/24 Q1013 NOSIG=
METAR WAFF 022100Z 17002KT 5000 SCT019 25/24 Q1013 NOSIG=
METAR WAFF 021800Z 15003KT 5000 -RA SCT019 25/24 Q1013=
METAR WAFF 021500Z 13002KT 6000 -RA SCT019 27/25 Q1014=
METAR WAFF 021430Z 32005KT 5000 -RA BKN018 28/25 Q1015=
METAR WAFF 021400Z 32005KT 7000 FEW020 28/25 Q1015=
METAR WAFF 021300Z 34003KT 7000 FEW020 28/25 Q1014=
METAR WAFF 021200Z 33006KT 7000 FEWCB018 SCT019 28/25 Q1013 RMK CB TO N E=
METAR WAFF 021000Z 32009KT 8000 FEW018CB SCT020 29/24 Q1012 RMK CB TO E=
METAR WAFF 020900Z 32010KT 9999 SCT020 30/24 Q1011 NOSIG=
METAR WAFF 020800Z 33010KT 9999 FEW018CB SCT020 31/24 Q1010 RMK CB TO E=
METAR WAFF 020700Z 33012KT 9999 FEW018CB SCT020 31/23 Q1010 RMK CB TO E=
METAR WAFF 020600Z 33014KT 9999 TS FEW018CB SCT020 32/23 Q1011 RMK CB TO E=
METAR WAFF 020500Z 33011KT 8000 SCT019 34/23 Q1012 NOSIG=
METAR WAFF 020400Z 07002KT 8000 SCT019 32/23 Q1013 NOSIG=
METAR WAFF 020300Z 00000KT 7000 SCT019 29/24 Q1015 RMK RERA=
METAR WAFF 020205Z 18003KT 7000 -RA SCT018 BKN020 28/23 Q1015 NOSIG=
METAR WAFF 020200Z 18003KT 7000 SCT018 BKN020 28/23 Q1015 NOSIG=
METAR WAFF 020100Z 18003KT 7000 SCT019 27/23 Q1015 NOSIG=
METAR WAFF 020000Z 20002KT 7000 SCT018 BKN020 26/24 Q1015 NOSIG=
METAR WAFF 032300Z 00000KT 6000 SCT019 24/23 Q1016 NOSIG=
METAR WAFF 032200Z 00000KT 5000 -RA OVC018 24/23 Q1015=
METAR WAFF 032100Z 00000KT 5000 SCT018 OVC020 24/23 Q1015 NOSIG=
METAR WAFF 032000Z 00000KT 5000 SCT018 BKN020 24/23 Q1014 NOSIG=
METAR WAFF 031900Z 00000KT 5000 SCT018 BKN020 24/23 Q1014 NOSIG=
METAR WAFF 031800Z 00000KT 5000 SCT018 BKN020 25/24 Q1014 NOSIG=
METAR WAFF 031700Z 14002KT 5000 OVC019 24/23 Q1014 RERA=
METAR WAFF 031600Z 00000KT 4000 -RA OVC019 25/24 Q1016=
METAR WAFF 031500Z 14004KT 4000 -RA OVC019 25/24 Q1017=
METAR WAFF 031400Z 15003KT 3000 -RA FEW017CB OVC019 25/24 Q1017=
METAR WAFF 031300Z 10002KT 5000 SCT017 BKN019 25/24 Q1017 RMK RERA=
METAR WAFF 031200Z 17002KT 5000 -RA SCT017 BKN019 26/24 Q1016=
METAR WAFF 031100Z 29002KT 4000 -RA FEW017CB SCT017 26/24 Q1016 RMK CB TO NW=
METAR WAFF 031000Z 31007KT 4000 RERA FEW017CB BKN017 27/24 Q1013 RMK CB TO NW=
METAR WAFF 030900Z 36007KT 4000 -TSRA FEW017CB BKN017 27/24 Q1013 RMK CB TO N=
METAR WAFF 030800Z 15003KT 6000 FEW018CB BKN018 30/25 Q1012 RMK CB TO N E=
METAR WAFF 030700Z 27004KT 8000 FEW018CB SCT019 32/24 Q1011 RMK CB TO N W=
METAR WAFF 030600Z 30005KT 8000 SCT020 32/25 Q1012 NOSIG=
METAR WAFF 030500Z 32009KT 9999 SCT020 32/24 Q1013 NOSIG=
METAR WAFF 030400Z 31007KT 8000 FEW018CB SCT019 33/23 Q1014 RMK CB TO E=
METAR WAFF 030300Z 21004KT 8000 FEW018CB SCT019 32/23 Q1014 CB TO E=
METAR WAFF 030200Z 18003KT 8000 SCT019 30/24 Q1015 NOSIG=
METAR WAFF 030130Z 17004KT 8000 SCT019 28/24 Q1015 NOSIG=
METAR WAFF 030100Z 15002KT 9999 SCT020 28/24 Q1016 NOSIG=
METAR WAFF 030000Z 20003KT 9999 SCT020 27/24 Q1015 NOSIG=
METAR WAFF 022300Z 09002KT 6000 SCT019 25/24 Q1014 NOSIG=
METAR WAFF 022200Z 14002KT 6000 SCT019 25/24 Q1013 NOSIG=
METAR WAFF 022100Z 17002KT 5000 SCT019 25/24 Q1013 NOSIG=
METAR WAFF 021800Z 15003KT 5000 -RA SCT019 25/24 Q1013=
METAR WAFF 021500Z 13002KT 6000 -RA SCT019 27/25 Q1014=
METAR WAFF 021430Z 32005KT 5000 -RA BKN018 28/25 Q1015=
METAR WAFF 021400Z 32005KT 7000 FEW020 28/25 Q1015=
METAR WAFF 021300Z 34003KT 7000 FEW020 28/25 Q1014=
METAR WAFF 021200Z 33006KT 7000 FEWCB018 SCT019 28/25 Q1013 RMK CB TO N E=
METAR WAFF 021000Z 32009KT 8000 FEW018CB SCT020 29/24 Q1012 RMK CB TO E=
METAR WAFF 020900Z 32010KT 9999 SCT020 30/24 Q1011 NOSIG=
METAR WAFF 020800Z 33010KT 9999 FEW018CB SCT020 31/24 Q1010 RMK CB TO E=
METAR WAFF 020700Z 33012KT 9999 FEW018CB SCT020 31/23 Q1010 RMK CB TO E=
METAR WAFF 020600Z 33014KT 9999 TS FEW018CB SCT020 32/23 Q1011 RMK CB TO E=
METAR WAFF 020500Z 33011KT 8000 SCT019 34/23 Q1012 NOSIG=
METAR WAFF 020400Z 07002KT 8000 SCT019 32/23 Q1013 NOSIG=
METAR WAFF 020300Z 00000KT 7000 SCT019 29/24 Q1015 RMK RERA=
METAR WAFF 020205Z 18003KT 7000 -RA SCT018 BKN020 28/23 Q1015 NOSIG=
METAR WAFF 020200Z 18003KT 7000 SCT018 BKN020 28/23 Q1015 NOSIG=
METAR WAFF 020100Z 18003KT 7000 SCT019 27/23 Q1015 NOSIG=
METAR WAFF 020000Z 20002KT 7000 SCT018 BKN020 26/24 Q1015 NOSIG=
METAR WAFF 032300Z 00000KT 6000 SCT019 24/23 Q1016 NOSIG=
METAR WAFF 032200Z 00000KT 5000 -RA OVC018 24/23 Q1015=
METAR WAFF 032100Z 00000KT 5000 SCT018 OVC020 24/23 Q1015 NOSIG=
METAR WAFF 032000Z 00000KT 5000 SCT018 BKN020 24/23 Q1014 NOSIG=
METAR WAFF 031900Z 00000KT 5000 SCT018 BKN020 24/23 Q1014 NOSIG=
METAR WAFF 031800Z 00000KT 5000 SCT018 BKN020 25/24 Q1014 NOSIG=
METAR WAFF 031700Z 14002KT 5000 OVC019 24/23 Q1014 RERA=
METAR WAFF 031600Z 00000KT 4000 -RA OVC019 25/24 Q1016=
METAR WAFF 031500Z 14004KT 4000 -RA OVC019 25/24 Q1017=
METAR WAFF 031400Z 15003KT 3000 -RA FEW017CB OVC019 25/24 Q1017=
METAR WAFF 031300Z 10002KT 5000 SCT017 BKN019 25/24 Q1017 RMK RERA=
METAR WAFF 031200Z 17002KT 5000 -RA SCT017 BKN019 26/24 Q1016=
METAR WAFF 031100Z 29002KT 4000 -RA FEW017CB SCT017 26/24 Q1016 RMK CB TO NW=
METAR WAFF 031000Z 31007KT 4000 RERA FEW017CB BKN017 27/24 Q1013 RMK CB TO NW=
METAR WAFF 030900Z 36007KT 4000 -TSRA FEW017CB BKN017 27/24 Q1013 RMK CB TO N=
METAR WAFF 030800Z 15003KT 6000 FEW018CB BKN018 30/25 Q1012 RMK CB TO N E=
METAR WAFF 030700Z 27004KT 8000 FEW018CB SCT019 32/24 Q1011 RMK CB TO N W=
METAR WAFF 030600Z 30005KT 8000 SCT020 32/25 Q1012 NOSIG=
METAR WAFF 030500Z 32009KT 9999 SCT020 32/24 Q1013 NOSIG=
METAR WAFF 030400Z 31007KT 8000 FEW018CB SCT019 33/23 Q1014 RMK CB TO E=
METAR WAFF 030300Z 21004KT 8000 FEW018CB SCT019 32/23 Q1014 CB TO E=
METAR WAFF 030200Z 18003KT 8000 SCT019 30/24 Q1015 NOSIG=
METAR WAFF 030130Z 17004KT 8000 SCT019 28/24 Q1015 NOSIG=
METAR WAFF 030100Z 15002KT 9999 SCT020 28/24 Q1016 NOSIG=
METAR WAFF 030000Z 20003KT 9999 SCT020 27/24 Q1015 NOSIG=
METAR WAFF 022300Z 09002KT 6000 SCT019 25/24 Q1014 NOSIG=
METAR WAFF 022200Z 14002KT 6000 SCT019 25/24 Q1013 NOSIG=
METAR WAFF 022100Z 17002KT 5000 SCT019 25/24 Q1013 NOSIG=
METAR WAFF 021800Z 15003KT 5000 -RA SCT019 25/24 Q1013=
METAR WAFF 021500Z 13002KT 6000 -RA SCT019 27/25 Q1014=
METAR WAFF 021430Z 32005KT 5000 -RA BKN018 28/25 Q1015=
METAR WAFF 021400Z 32005KT 7000 FEW020 28/25 Q1015=
METAR WAFF 021300Z 34003KT 7000 FEW020 28/25 Q1014=
METAR WAFF 021200Z 33006KT 7000 FEWCB018 SCT019 28/25 Q1013 RMK CB TO N E=
METAR WAFF 021000Z 32009KT 8000 FEW018CB SCT020 29/24 Q1012 RMK CB TO E=
METAR WAFF 020900Z 32010KT 9999 SCT020 30/24 Q1011 NOSIG=
METAR WAFF 020800Z 33010KT 9999 FEW018CB SCT020 31/24 Q1010 RMK CB TO E=
METAR WAFF 020700Z 33012KT 9999 FEW018CB SCT020 31/23 Q1010 RMK CB TO E=
METAR WAFF 020600Z 33014KT 9999 TS FEW018CB SCT020 32/23 Q1011 RMK CB TO E=
METAR WAFF 020500Z 33011KT 8000 SCT019 34/23 Q1012 NOSIG=
METAR WAFF 020400Z 07002KT 8000 SCT019 32/23 Q1013 NOSIG=
METAR WAFF 020300Z 00000KT 7000 SCT019 29/24 Q1015 RMK RERA=
METAR WAFF 020205Z 18003KT 7000 -RA SCT018 BKN020 28/23 Q1015 NOSIG=
METAR WAFF 020200Z 18003KT 7000 SCT018 BKN020 28/23 Q1015 NOSIG=
METAR WAFF 020100Z 18003KT 7000 SCT019 27/23 Q1015 NOSIG=
METAR WAFF 020000Z 20002KT 7000 SCT018 BKN020 26/24 Q1015 NOSIG=
METAR WAFF 032300Z 00000KT 6000 SCT019 24/23 Q1016 NOSIG=
METAR WAFF 032200Z 00000KT 5000 -RA OVC018 24/23 Q1015=
METAR WAFF 032100Z 00000KT 5000 SCT018 OVC020 24/23 Q1015 NOSIG=
METAR WAFF 032000Z 00000KT 5000 SCT018 BKN020 24/23 Q1014 NOSIG=
METAR WAFF 031900Z 00000KT 5000 SCT018 BKN020 24/23 Q1014 NOSIG=
METAR WAFF 031800Z 00000KT 5000 SCT018 BKN020 25/24 Q1014 NOSIG=
METAR WAFF 031700Z 14002KT 5000 OVC019 24/23 Q1014 RERA=
METAR WAFF 031600Z 00000KT 4000 -RA OVC019 25/24 Q1016=
METAR WAFF 031500Z 14004KT 4000 -RA OVC019 25/24 Q1017=
METAR WAFF 031400Z 15003KT 3000 -RA FEW017CB OVC019 25/24 Q1017=
METAR WAFF 031300Z 10002KT 5000 SCT017 BKN019 25/24 Q1017 RMK RERA=
METAR WAFF 031200Z 17002KT 5000 -RA SCT017 BKN019 26/24 Q1016=
METAR WAFF 031100Z 29002KT 4000 -RA FEW017CB SCT017 26/24 Q1016 RMK CB TO NW=
METAR WAFF 031000Z 31007KT 4000 RERA FEW017CB BKN017 27/24 Q1013 RMK CB TO NW=
METAR WAFF 030900Z 36007KT 4000 -TSRA FEW017CB BKN017 27/24 Q1013 RMK CB TO N=
METAR WAFF 030800Z 15003KT 6000 FEW018CB BKN018 30/25 Q1012 RMK CB TO N E=
METAR WAFF 030700Z 27004KT 8000 FEW018CB SCT019 32/24 Q1011 RMK CB TO N W=
METAR WAFF 030600Z 30005KT 8000 SCT020 32/25 Q1012 NOSIG=
METAR WAFF 030500Z 32009KT 9999 SCT020 32/24 Q1013 NOSIG=
METAR WAFF 030400Z 31007KT 8000 FEW018CB SCT019 33/23 Q1014 RMK CB TO E=
METAR WAFF 030300Z 21004KT 8000 FEW018CB SCT019 32/23 Q1014 CB TO E=
METAR WAFF 030200Z 18003KT 8000 SCT019 30/24 Q1015 NOSIG=
METAR WAFF 030130Z 17004KT 8000 SCT019 28/24 Q1015 NOSIG=
METAR WAFF 030100Z 15002KT 9999 SCT020 28/24 Q1016 NOSIG=
METAR WAFF 030000Z 20003KT 9999 SCT020 27/24 Q1015 NOSIG=
METAR WAFF 022300Z 09002KT 6000 SCT019 25/24 Q1014 NOSIG=
METAR WAFF 022200Z 14002KT 6000 SCT019 25/24 Q1013 NOSIG=
METAR WAFF 022100Z 17002KT 5000 SCT019 25/24 Q1013 NOSIG=
METAR WAFF 021800Z 15003KT 5000 -RA SCT019 25/24 Q1013=
METAR WAFF 021500Z 13002KT 6000 -RA SCT019 27/25 Q1014=
METAR WAFF 021430Z 32005KT 5000 -RA BKN018 28/25 Q1015=
METAR WAFF 021400Z 32005KT 7000 FEW020 28/25 Q1015=
METAR WAFF 021300Z 34003KT 7000 FEW020 28/25 Q1014=
METAR WAFF 021200Z 33006KT 7000 FEWCB018 SCT019 28/25 Q1013 RMK CB TO N E=
METAR WAFF 021000Z 32009KT 8000 FEW018CB SCT020 29/24 Q1012 RMK CB TO E=
METAR WAFF 020900Z 32010KT 9999 SCT020 30/24 Q1011 NOSIG=
METAR WAFF 020800Z 33010KT 9999 FEW018CB SCT020 31/24 Q1010 RMK CB TO E=
METAR WAFF 020700Z 33012KT 9999 FEW018CB SCT020 31/23 Q1010 RMK CB TO E=
METAR WAFF 020600Z 33014KT 9999 TS FEW018CB SCT020 32/23 Q1011 RMK CB TO E=
METAR WAFF 020500Z 33011KT 8000 SCT019 34/23 Q1012 NOSIG=
METAR WAFF 020400Z 07002KT 8000 SCT019 32/23 Q1013 NOSIG=
METAR WAFF 020300Z 00000KT 7000 SCT019 29/24 Q1015 RMK RERA=
METAR WAFF 020205Z 18003KT 7000 -RA SCT018 BKN020 28/23 Q1015 NOSIG=
METAR WAFF 020200Z 18003KT 7000 SCT018 BKN020 28/23 Q1015 NOSIG=
METAR WAFF 020100Z 18003KT 7000 SCT019 27/23 Q1015 NOSIG=
METAR WAFF 020000Z 20002KT 7000 SCT018 BKN020 26/24 Q1015 NOSIG=
METAR WAFF 032300Z 00000KT 6000 SCT019 24/23 Q1016 NOSIG=
METAR WAFF 032200Z 00000KT 5000 -RA OVC018 24/23 Q1015=
METAR WAFF 032100Z 00000KT 5000 SCT018 OVC020 24/23 Q1015 NOSIG=
METAR WAFF 032000Z 00000KT 5000 SCT018 BKN020 24/23 Q1014 NOSIG=
METAR WAFF 031900Z 00000KT 5000 SCT018 BKN020 24/23 Q1014 NOSIG=
METAR WAFF 031800Z 00000KT 5000 SCT018 BKN020 25/24 Q1014 NOSIG=
METAR WAFF 031700Z 14002KT 5000 OVC019 24/23 Q1014 RERA=
METAR WAFF 031600Z 00000KT 4000 -RA OVC019 25/24 Q1016=
METAR WAFF 031500Z 14004KT 4000 -RA OVC019 25/24 Q1017=
METAR WAFF 031400Z 15003KT 3000 -RA FEW017CB OVC019 25/24 Q1017=
METAR WAFF 031300Z 10002KT 5000 SCT017 BKN019 25/24 Q1017 RMK RERA=
METAR WAFF 031200Z 17002KT 5000 -RA SCT017 BKN019 26/24 Q1016=
METAR WAFF 031100Z 29002KT 4000 -RA FEW017CB SCT017 26/24 Q1016 RMK CB TO NW=
METAR WAFF 031000Z 31007KT 4000 RERA FEW017CB BKN017 27/24 Q1013 RMK CB TO NW=
METAR WAFF 030900Z 36007KT 4000 -TSRA FEW017CB BKN017 27/24 Q1013 RMK CB TO N=
METAR WAFF 030800Z 15003KT 6000 FEW018CB BKN018 30/25 Q1012 RMK CB TO N E=
METAR WAFF 030700Z 27004KT 8000 FEW018CB SCT019 32/24 Q1011 RMK CB TO N W=
METAR WAFF 030600Z 30005KT 8000 SCT020 32/25 Q1012 NOSIG=
METAR WAFF 030500Z 32009KT 9999 SCT020 32/24 Q1013 NOSIG=
METAR WAFF 030400Z 31007KT 8000 FEW018CB SCT019 33/23 Q1014 RMK CB TO E=
METAR WAFF 030300Z 21004KT 8000 FEW018CB SCT019 32/23 Q1014 CB TO E=
METAR WAFF 030200Z 18003KT 8000 SCT019 30/24 Q1015 NOSIG=
METAR WAFF 030130Z 17004KT 8000 SCT019 28/24 Q1015 NOSIG=
METAR WAFF 030100Z 15002KT 9999 SCT020 28/24 Q1016 NOSIG=
METAR WAFF 030000Z 20003KT 9999 SCT020 27/24 Q1015 NOSIG=
METAR WAFF 022300Z 09002KT 6000 SCT019 25/24 Q1014 NOSIG=
METAR WAFF 022200Z 14002KT 6000 SCT019 25/24 Q1013 NOSIG=
METAR WAFF 022100Z 17002KT 5000 SCT019 25/24 Q1013 NOSIG=
METAR WAFF 021800Z 15003KT 5000 -RA SCT019 25/24 Q1013=
METAR WAFF 021500Z 13002KT 6000 -RA SCT019 27/25 Q1014=
METAR WAFF 021430Z 32005KT 5000 -RA BKN018 28/25 Q1015=
METAR WAFF 021400Z 32005KT 7000 FEW020 28/25 Q1015=
METAR WAFF 021300Z 34003KT 7000 FEW020 28/25 Q1014=
METAR WAFF 021200Z 33006KT 7000 FEWCB018 SCT019 28/25 Q1013 RMK CB TO N E=
METAR WAFF 021000Z 32009KT 8000 FEW018CB SCT020 29/24 Q1012 RMK CB TO E=
METAR WAFF 020900Z 32010KT 9999 SCT020 30/24 Q1011 NOSIG=
METAR WAFF 020800Z 33010KT 9999 FEW018CB SCT020 31/24 Q1010 RMK CB TO E=
METAR WAFF 020700Z 33012KT 9999 FEW018CB SCT020 31/23 Q1010 RMK CB TO E=
METAR WAFF 020600Z 33014KT 9999 TS FEW018CB SCT020 32/23 Q1011 RMK CB TO E=
METAR WAFF 020500Z 33011KT 8000 SCT019 34/23 Q1012 NOSIG=
METAR WAFF 020400Z 07002KT 8000 SCT019 32/23 Q1013 NOSIG=
METAR WAFF 020300Z 00000KT 7000 SCT019 29/24 Q1015 RMK RERA=
METAR WAFF 020205Z 18003KT 7000 -RA SCT018 BKN020 28/23 Q1015 NOSIG=
METAR WAFF 020200Z 18003KT 7000 SCT018 BKN020 28/23 Q1015 NOSIG=
METAR WAFF 020100Z 18003KT 7000 SCT019 27/23 Q1015 NOSIG=
METAR WAFF 020000Z 20002KT 7000 SCT018 BKN020 26/24 Q1015 NOSIG=
METAR WAFF 032300Z 00000KT 6000 SCT019 24/23 Q1016 NOSIG=
METAR WAFF 032200Z 00000KT 5000 -RA OVC018 24/23 Q1015=
METAR WAFF 032100Z 00000KT 5000 SCT018 OVC020 24/23 Q1015 NOSIG=
METAR WAFF 032000Z 00000KT 5000 SCT018 BKN020 24/23 Q1014 NOSIG=
METAR WAFF 031900Z 00000KT 5000 SCT018 BKN020 24/23 Q1014 NOSIG=
METAR WAFF 031800Z 00000KT 5000 SCT018 BKN020 25/24 Q1014 NOSIG=
METAR WAFF 031700Z 14002KT 5000 OVC019 24/23 Q1014 RERA=
METAR WAFF 031600Z 00000KT 4000 -RA OVC019 25/24 Q1016=
METAR WAFF 031500Z 14004KT 4000 -RA OVC019 25/24 Q1017=
METAR WAFF 031400Z 15003KT 3000 -RA FEW017CB OVC019 25/24 Q1017=
METAR WAFF 031300Z 10002KT 5000 SCT017 BKN019 25/24 Q1017 RMK RERA=
METAR WAFF 031200Z 17002KT 5000 -RA SCT017 BKN019 26/24 Q1016=
METAR WAFF 031100Z 29002KT 4000 -RA FEW017CB SCT017 26/24 Q1016 RMK CB TO NW=
METAR WAFF 031000Z 31007KT 4000 RERA FEW017CB BKN017 27/24 Q1013 RMK CB TO NW=
METAR WAFF 030900Z 36007KT 4000 -TSRA FEW017CB BKN017 27/24 Q1013 RMK CB TO N=
METAR WAFF 030800Z 15003KT 6000 FEW018CB BKN018 30/25 Q1012 RMK CB TO N E=
METAR WAFF 030700Z 27004KT 8000 FEW018CB SCT019 32/24 Q1011 RMK CB TO N W=
METAR WAFF 030600Z 30005KT 8000 SCT020 32/25 Q1012 NOSIG=
METAR WAFF 030500Z 32009KT 9999 SCT020 32/24 Q1013 NOSIG=
METAR WAFF 030400Z 31007KT 8000 FEW018CB SCT019 33/23 Q1014 RMK CB TO E=
METAR WAFF 030300Z 21004KT 8000 FEW018CB SCT019 32/23 Q1014 CB TO E=
METAR WAFF 030200Z 18003KT 8000 SCT019 30/24 Q1015 NOSIG=
METAR WAFF 030130Z 17004KT 8000 SCT019 28/24 Q1015 NOSIG=
METAR WAFF 030100Z 15002KT 9999 SCT020 28/24 Q1016 NOSIG=
METAR WAFF 030000Z 20003KT 9999 SCT020 27/24 Q1015 NOSIG=
METAR WAFF 022300Z 09002KT 6000 SCT019 25/24 Q1014 NOSIG=
METAR WAFF 022200Z 14002KT 6000 SCT019 25/24 Q1013 NOSIG=
METAR WAFF 022100Z 17002KT 5000 SCT019 25/24 Q1013 NOSIG=
METAR WAFF 021800Z 15003KT 5000 -RA SCT019 25/24 Q1013=
METAR WAFF 021500Z 13002KT 6000 -RA SCT019 27/25 Q1014=
METAR WAFF 021430Z 32005KT 5000 -RA BKN018 28/25 Q1015=
METAR WAFF 021400Z 32005KT 7000 FEW020 28/25 Q1015=
METAR WAFF 021300Z 34003KT 7000 FEW020 28/25 Q1014=
METAR WAFF 021200Z 33006KT 7000 FEWCB018 SCT019 28/25 Q1013 RMK CB TO N E=
METAR WAFF 021000Z 32009KT 8000 FEW018CB SCT020 29/24 Q1012 RMK CB TO E=
METAR WAFF 020900Z 32010KT 9999 SCT020 30/24 Q1011 NOSIG=
METAR WAFF 020800Z 33010KT 9999 FEW018CB SCT020 31/24 Q1010 RMK CB TO E=
METAR WAFF 020700Z 33012KT 9999 FEW018CB SCT020 31/23 Q1010 RMK CB TO E=
METAR WAFF 020600Z 33014KT 9999 TS FEW018CB SCT020 32/23 Q1011 RMK CB TO E=
METAR WAFF 020500Z 33011KT 8000 SCT019 34/23 Q1012 NOSIG=
METAR WAFF 020400Z 07002KT 8000 SCT019 32/23 Q1013 NOSIG=
METAR WAFF 020300Z 00000KT 7000 SCT019 29/24 Q1015 RMK RERA=
METAR WAFF 020205Z 18003KT 7000 -RA SCT018 BKN020 28/23 Q1015 NOSIG=
METAR WAFF 020200Z 18003KT 7000 SCT018 BKN020 28/23 Q1015 NOSIG=
METAR WAFF 020100Z 18003KT 7000 SCT019 27/23 Q1015 NOSIG=
METAR WAFF 020000Z 20002KT 7000 SCT018 BKN020 26/24 Q1015 NOSIG=
METAR WAFF 032300Z 00000KT 6000 SCT019 24/23 Q1016 NOSIG=
METAR WAFF 032200Z 00000KT 5000 -RA OVC018 24/23 Q1015=
METAR WAFF 032100Z 00000KT 5000 SCT018 OVC020 24/23 Q1015 NOSIG=
METAR WAFF 032000Z 00000KT 5000 SCT018 BKN020 24/23 Q1014 NOSIG=
METAR WAFF 031900Z 00000KT 5000 SCT018 BKN020 24/23 Q1014 NOSIG=
METAR WAFF 031800Z 00000KT 5000 SCT018 BKN020 25/24 Q1014 NOSIG=
METAR WAFF 031700Z 14002KT 5000 OVC019 24/23 Q1014 RERA=
METAR WAFF 031600Z 00000KT 4000 -RA OVC019 25/24 Q1016=
METAR WAFF 031500Z 14004KT 4000 -RA OVC019 25/24 Q1017=
METAR WAFF 031400Z 15003KT 3000 -RA FEW017CB OVC019 25/24 Q1017=
METAR WAFF 031300Z 10002KT 5000 SCT017 BKN019 25/24 Q1017 RMK RERA=
METAR WAFF 031200Z 17002KT 5000 -RA SCT017 BKN019 26/24 Q1016=
METAR WAFF 031100Z 29002KT 4000 -RA FEW017CB SCT017 26/24 Q1016 RMK CB TO NW=
METAR WAFF 031000Z 31007KT 4000 RERA FEW017CB BKN017 27/24 Q1013 RMK CB TO NW=
METAR WAFF 030900Z 36007KT 4000 -TSRA FEW017CB BKN017 27/24 Q1013 RMK CB TO N=
METAR WAFF 030800Z 15003KT 6000 FEW018CB BKN018 30/25 Q1012 RMK CB TO N E=
METAR WAFF 030700Z 27004KT 8000 FEW018CB SCT019 32/24 Q1011 RMK CB TO N W=
METAR WAFF 030600Z 30005KT 8000 SCT020 32/25 Q1012 NOSIG=
METAR WAFF 030500Z 32009KT 9999 SCT020 32/24 Q1013 NOSIG=
METAR WAFF 030400Z 31007KT 8000 FEW018CB SCT019 33/23 Q1014 RMK CB TO E=
METAR WAFF 030300Z 21004KT 8000 FEW018CB SCT019 32/23 Q1014 CB TO E=
METAR WAFF 030200Z 18003KT 8000 SCT019 30/24 Q1015 NOSIG=
METAR WAFF 030130Z 17004KT 8000 SCT019 28/24 Q1015 NOSIG=
METAR WAFF 030100Z 15002KT 9999 SCT020 28/24 Q1016 NOSIG=
METAR WAFF 030000Z 20003KT 9999 SCT020 27/24 Q1015 NOSIG=
METAR WAFF 022300Z 09002KT 6000 SCT019 25/24 Q1014 NOSIG=
METAR WAFF 022200Z 14002KT 6000 SCT019 25/24 Q1013 NOSIG=
METAR WAFF 022100Z 17002KT 5000 SCT019 25/24 Q1013 NOSIG=
METAR WAFF 021800Z 15003KT 5000 -RA SCT019 25/24 Q1013=
METAR WAFF 021500Z 13002KT 6000 -RA SCT019 27/25 Q1014=
METAR WAFF 021430Z 32005KT 5000 -RA BKN018 28/25 Q1015=
METAR WAFF 021400Z 32005KT 7000 FEW020 28/25 Q1015=
METAR WAFF 021300Z 34003KT 7000 FEW020 28/25 Q1014=
METAR WAFF 021200Z 33006KT 7000 FEWCB018 SCT019 28/25 Q1013 RMK CB TO N E=
METAR WAFF 021000Z 32009KT 8000 FEW018CB SCT020 29/24 Q1012 RMK CB TO E=
METAR WAFF 020900Z 32010KT 9999 SCT020 30/24 Q1011 NOSIG=
METAR WAFF 020800Z 33010KT 9999 FEW018CB SCT020 31/24 Q1010 RMK CB TO E=
METAR WAFF 020700Z 33012KT 9999 FEW018CB SCT020 31/23 Q1010 RMK CB TO E=
METAR WAFF 020600Z 33014KT 9999 TS FEW018CB SCT020 32/23 Q1011 RMK CB TO E=
METAR WAFF 020500Z 33011KT 8000 SCT019 34/23 Q1012 NOSIG=
METAR WAFF 020400Z 07002KT 8000 SCT019 32/23 Q1013 NOSIG=
METAR WAFF 020300Z 00000KT 7000 SCT019 29/24 Q1015 RMK RERA=
METAR WAFF 020205Z 18003KT 7000 -RA SCT018 BKN020 28/23 Q1015 NOSIG=
METAR WAFF 020200Z 18003KT 7000 SCT018 BKN020 28/23 Q1015 NOSIG=
METAR WAFF 020100Z 18003KT 7000 SCT019 27/23 Q1015 NOSIG=
METAR WAFF 020000Z 20002KT 7000 SCT018 BKN020 26/24 Q1015 NOSIG=
METAR WAFF 032300Z 00000KT 6000 SCT019 24/23 Q1016 NOSIG=
METAR WAFF 032200Z 00000KT 5000 -RA OVC018 24/23 Q1015=
METAR WAFF 032100Z 00000KT 5000 SCT018 OVC020 24/23 Q1015 NOSIG=
METAR WAFF 032000Z 00000KT 5000 SCT018 BKN020 24/23 Q1014 NOSIG=
METAR WAFF 031900Z 00000KT 5000 SCT018 BKN020 24/23 Q1014 NOSIG=
METAR WAFF 031800Z 00000KT 5000 SCT018 BKN020 25/24 Q1014 NOSIG=
METAR WAFF 031700Z 14002KT 5000 OVC019 24/23 Q1014 RERA=
METAR WAFF 031600Z 00000KT 4000 -RA OVC019 25/24 Q1016=
METAR WAFF 031500Z 14004KT 4000 -RA OVC019 25/24 Q1017=
METAR WAFF 031400Z 15003KT 3000 -RA FEW017CB OVC019 25/24 Q1017=
METAR WAFF 031300Z 10002KT 5000 SCT017 BKN019 25/24 Q1017 RMK RERA=
METAR WAFF 031200Z 17002KT 5000 -RA SCT017 BKN019 26/24 Q1016=
METAR WAFF 031100Z 29002KT 4000 -RA FEW017CB SCT017 26/24 Q1016 RMK CB TO NW=
METAR WAFF 031000Z 31007KT 4000 RERA FEW017CB BKN017 27/24 Q1013 RMK CB TO NW=
METAR WAFF 030900Z 36007KT 4000 -TSRA FEW017CB BKN017 27/24 Q1013 RMK CB TO N=
METAR WAFF 030800Z 15003KT 6000 FEW018CB BKN018 30/25 Q1012 RMK CB TO N E=
METAR WAFF 030700Z 27004KT 8000 FEW018CB SCT019 32/24 Q1011 RMK CB TO N W=
METAR WAFF 030600Z 30005KT 8000 SCT020 32/25 Q1012 NOSIG=
METAR WAFF 030500Z 32009KT 9999 SCT020 32/24 Q1013 NOSIG=
METAR WAFF 030400Z 31007KT 8000 FEW018CB SCT019 33/23 Q1014 RMK CB TO E=
METAR WAFF 030300Z 21004KT 8000 FEW018CB SCT019 32/23 Q1014 CB TO E=
METAR WAFF 030200Z 18003KT 8000 SCT019 30/24 Q1015 NOSIG=
METAR WAFF 030130Z 17004KT 8000 SCT019 28/24 Q1015 NOSIG=
METAR WAFF 030100Z 15002KT 9999 SCT020 28/24 Q1016 NOSIG=
METAR WAFF 030000Z 20003KT 9999 SCT020 27/24 Q1015 NOSIG=
METAR WAFF 022300Z 09002KT 6000 SCT019 25/24 Q1014 NOSIG=
METAR WAFF 022200Z 14002KT 6000 SCT019 25/24 Q1013 NOSIG=
METAR WAFF 022100Z 17002KT 5000 SCT019 25/24 Q1013 NOSIG=
METAR WAFF 021800Z 15003KT 5000 -RA SCT019 25/24 Q1013=
METAR WAFF 021500Z 13002KT 6000 -RA SCT019 27/25 Q1014=
METAR WAFF 021430Z 32005KT 5000 -RA BKN018 28/25 Q1015=
METAR WAFF 021400Z 32005KT 7000 FEW020 28/25 Q1015=
METAR WAFF 021300Z 34003KT 7000 FEW020 28/25 Q1014=
METAR WAFF 021200Z 33006KT 7000 FEWCB018 SCT019 28/25 Q1013 RMK CB TO N E=
METAR WAFF 021000Z 32009KT 8000 FEW018CB SCT020 29/24 Q1012 RMK CB TO E=
METAR WAFF 020900Z 32010KT 9999 SCT020 30/24 Q1011 NOSIG=
METAR WAFF 020800Z 33010KT 9999 FEW018CB SCT020 31/24 Q1010 RMK CB TO E=
METAR WAFF 020700Z 33012KT 9999 FEW018CB SCT020 31/23 Q1010 RMK CB TO E=
METAR WAFF 020600Z 33014KT 9999 TS FEW018CB SCT020 32/23 Q1011 RMK CB TO E=
METAR WAFF 020500Z 33011KT 8000 SCT019 34/23 Q1012 NOSIG=
METAR WAFF 020400Z 07002KT 8000 SCT019 32/23 Q1013 NOSIG=
METAR WAFF 020300Z 00000KT 7000 SCT019 29/24 Q1015 RMK RERA=
METAR WAFF 020205Z 18003KT 7000 -RA SCT018 BKN020 28/23 Q1015 NOSIG=
METAR WAFF 020200Z 18003KT 7000 SCT018 BKN020 28/23 Q1015 NOSIG=
METAR WAFF 020100Z 18003KT 7000 SCT019 27/23 Q1015 NOSIG=
METAR WAFF 020000Z 20002KT 7000 SCT018 BKN020 26/24 Q1015 NOSIG=
METAR WAFF 032300Z 00000KT 6000 SCT019 24/23 Q1016 NOSIG=
METAR WAFF 032200Z 00000KT 5000 -RA OVC018 24/23 Q1015=
METAR WAFF 032100Z 00000KT 5000 SCT018 OVC020 24/23 Q1015 NOSIG=
METAR WAFF 032000Z 00000KT 5000 SCT018 BKN020 24/23 Q1014 NOSIG=
METAR WAFF 031900Z 00000KT 5000 SCT018 BKN020 24/23 Q1014 NOSIG=
METAR WAFF 031800Z 00000KT 5000 SCT018 BKN020 25/24 Q1014 NOSIG=
METAR WAFF 031700Z 14002KT 5000 OVC019 24/23 Q1014 RERA=
METAR WAFF 031600Z 00000KT 4000 -RA OVC019 25/24 Q1016=
METAR WAFF 031500Z 14004KT 4000 -RA OVC019 25/24 Q1017=
METAR WAFF 031400Z 15003KT 3000 -RA FEW017CB OVC019 25/24 Q1017=
METAR WAFF 031300Z 10002KT 5000 SCT017 BKN019 25/24 Q1017 RMK RERA=
METAR WAFF 031200Z 17002KT 5000 -RA SCT017 BKN019 26/24 Q1016=
METAR WAFF 031100Z 29002KT 4000 -RA FEW017CB SCT017 26/24 Q1016 RMK CB TO NW=
METAR WAFF 031000Z 31007KT 4000 RERA FEW017CB BKN017 27/24 Q1013 RMK CB TO NW=
METAR WAFF 030900Z 36007KT 4000 -TSRA FEW017CB BKN017 27/24 Q1013 RMK CB TO N=
METAR WAFF 030800Z 15003KT 6000 FEW018CB BKN018 30/25 Q1012 RMK CB TO N E=
METAR WAFF 030700Z 27004KT 8000 FEW018CB SCT019 32/24 Q1011 RMK CB TO N W=
METAR WAFF 030600Z 30005KT 8000 SCT020 32/25 Q1012 NOSIG=
METAR WAFF 030500Z 32009KT 9999 SCT020 32/24 Q1013 NOSIG=
METAR WAFF 030400Z 31007KT 8000 FEW018CB SCT019 33/23 Q1014 RMK CB TO E=
METAR WAFF 030300Z 21004KT 8000 FEW018CB SCT019 32/23 Q1014 CB TO E=
METAR WAFF 030200Z 18003KT 8000 SCT019 30/24 Q1015 NOSIG=
METAR WAFF 030130Z 17004KT 8000 SCT019 28/24 Q1015 NOSIG=
METAR WAFF 030100Z 15002KT 9999 SCT020 28/24 Q1016 NOSIG=
METAR WAFF 030000Z 20003KT 9999 SCT020 27/24 Q1015 NOSIG=
METAR WAFF 022300Z 09002KT 6000 SCT019 25/24 Q1014 NOSIG=
METAR WAFF 022200Z 14002KT 6000 SCT019 25/24 Q1013 NOSIG=
METAR WAFF 022100Z 17002KT 5000 SCT019 25/24 Q1013 NOSIG=
METAR WAFF 021800Z 15003KT 5000 -RA SCT019 25/24 Q1013=
METAR WAFF 021500Z 13002KT 6000 -RA SCT019 27/25 Q1014=
METAR WAFF 021430Z 32005KT 5000 -RA BKN018 28/25 Q1015=
METAR WAFF 021400Z 32005KT 7000 FEW020 28/25 Q1015=
METAR WAFF 021300Z 34003KT 7000 FEW020 28/25 Q1014=
METAR WAFF 021200Z 33006KT 7000 FEWCB018 SCT019 28/25 Q1013 RMK CB TO N E=
METAR WAFF 021000Z 32009KT 8000 FEW018CB SCT020 29/24 Q1012 RMK CB TO E=
METAR WAFF 020900Z 32010KT 9999 SCT020 30/24 Q1011 NOSIG=
METAR WAFF 020800Z 33010KT 9999 FEW018CB SCT020 31/24 Q1010 RMK CB TO E=
METAR WAFF 020700Z 33012KT 9999 FEW018CB SCT020 31/23 Q1010 RMK CB TO E=
METAR WAFF 020600Z 33014KT 9999 TS FEW018CB SCT020 32/23 Q1011 RMK CB TO E=
METAR WAFF 020500Z 33011KT 8000 SCT019 34/23 Q1012 NOSIG=
METAR WAFF 020400Z 07002KT 8000 SCT019 32/23 Q1013 NOSIG=
METAR WAFF 020300Z 00000KT 7000 SCT019 29/24 Q1015 RMK RERA=
METAR WAFF 020205Z 18003KT 7000 -RA SCT018 BKN020 28/23 Q1015 NOSIG=
METAR WAFF 020200Z 18003KT 7000 SCT018 BKN020 28/23 Q1015 NOSIG=
METAR WAFF 020100Z 18003KT 7000 SCT019 27/23 Q1015 NOSIG=
METAR WAFF 020000Z 20002KT 7000 SCT018 BKN020 26/24 Q1015 NOSIG=
METAR WAFF 032300Z 00000KT 6000 SCT019 24/23 Q1016 NOSIG=
METAR WAFF 032200Z 00000KT 5000 -RA OVC018 24/23 Q1015=
METAR WAFF 032100Z 00000KT 5000 SCT018 OVC020 24/23 Q1015 NOSIG=
METAR WAFF 032000Z 00000KT 5000 SCT018 BKN020 24/23 Q1014 NOSIG=
METAR WAFF 031900Z 00000KT 5000 SCT018 BKN020 24/23 Q1014 NOSIG=
METAR WAFF 031800Z 00000KT 5000 SCT018 BKN020 25/24 Q1014 NOSIG=
METAR WAFF 031700Z 14002KT 5000 OVC019 24/23 Q1014 RERA=
METAR WAFF 031600Z 00000KT 4000 -RA OVC019 25/24 Q1016=
METAR WAFF 031500Z 14004KT 4000 -RA OVC019 25/24 Q1017=
METAR WAFF 031400Z 15003KT 3000 -RA FEW017CB OVC019 25/24 Q1017=
METAR WAFF 031300Z 10002KT 5000 SCT017 BKN019 25/24 Q1017 RMK RERA=
METAR WAFF 031200Z 17002KT 5000 -RA SCT017 BKN019 26/24 Q1016=
METAR WAFF 031100Z 29002KT 4000 -RA FEW017CB SCT017 26/24 Q1016 RMK CB TO NW=
METAR WAFF 031000Z 31007KT 4000 RERA FEW017CB BKN017 27/24 Q1013 RMK CB TO NW=
METAR WAFF 030900Z 36007KT 4000 -TSRA FEW017CB BKN017 27/24 Q1013 RMK CB TO N=
METAR WAFF 030800Z 15003KT 6000 FEW018CB BKN018 30/25 Q1012 RMK CB TO N E=
METAR WAFF 030700Z 27004KT 8000 FEW018CB SCT019 32/24 Q1011 RMK CB TO N W=
METAR WAFF 030600Z 30005KT 8000 SCT020 32/25 Q1012 NOSIG=
METAR WAFF 030500Z 32009KT 9999 SCT020 32/24 Q1013 NOSIG=
METAR WAFF 030400Z 31007KT 8000 FEW018CB SCT019 33/23 Q1014 RMK CB TO E=
METAR WAFF 030300Z 21004KT 8000 FEW018CB SCT019 32/23 Q1014 CB TO E=
METAR WAFF 030200Z 18003KT 8000 SCT019 30/24 Q1015 NOSIG=
METAR WAFF 030130Z 17004KT 8000 SCT019 28/24 Q1015 NOSIG=
METAR WAFF 030100Z 15002KT 9999 SCT020 28/24 Q1016 NOSIG=
METAR WAFF 030000Z 20003KT 9999 SCT020 27/24 Q1015 NOSIG=
METAR WAFF 022300Z 09002KT 6000 SCT019 25/24 Q1014 NOSIG=
METAR WAFF 022200Z 14002KT 6000 SCT019 25/24 Q1013 NOSIG=
METAR WAFF 022100Z 17002KT 5000 SCT019 25/24 Q1013 NOSIG=
METAR WAFF 021800Z 15003KT 5000 -RA SCT019 25/24 Q1013=
METAR WAFF 021500Z 13002KT 6000 -RA SCT019 27/25 Q1014=
METAR WAFF 021430Z 32005KT 5000 -RA BKN018 28/25 Q1015=
METAR WAFF 021400Z 32005KT 7000 FEW020 28/25 Q1015=
METAR WAFF 021300Z 34003KT 7000 FEW020 28/25 Q1014=
METAR WAFF 021200Z 33006KT 7000 FEWCB018 SCT019 28/25 Q1013 RMK CB TO N E=
METAR WAFF 021000Z 32009KT 8000 FEW018CB SCT020 29/24 Q1012 RMK CB TO E=
METAR WAFF 020900Z 32010KT 9999 SCT020 30/24 Q1011 NOSIG=
METAR WAFF 020800Z 33010KT 9999 FEW018CB SCT020 31/24 Q1010 RMK CB TO E=
METAR WAFF 020700Z 33012KT 9999 FEW018CB SCT020 31/23 Q1010 RMK CB TO E=
METAR WAFF 020600Z 33014KT 9999 TS FEW018CB SCT020 32/23 Q1011 RMK CB TO E=
METAR WAFF 020500Z 33011KT 8000 SCT019 34/23 Q1012 NOSIG=
METAR WAFF 020400Z 07002KT 8000 SCT019 32/23 Q1013 NOSIG=
METAR WAFF 020300Z 00000KT 7000 SCT019 29/24 Q1015 RMK RERA=
METAR WAFF 020205Z 18003KT 7000 -RA SCT018 BKN020 28/23 Q1015 NOSIG=
METAR WAFF 020200Z 18003KT 7000 SCT018 BKN020 28/23 Q1015 NOSIG=
METAR WAFF 020100Z 18003KT 7000 SCT019 27/23 Q1015 NOSIG=
METAR WAFF 020000Z 20002KT 7000 SCT018 BKN020 26/24 Q1015 NOSIG=
METAR WAFF 032300Z 00000KT 6000 SCT019 24/23 Q1016 NOSIG=
METAR WAFF 032200Z 00000KT 5000 -RA OVC018 24/23 Q1015=
METAR WAFF 032100Z 00000KT 5000 SCT018 OVC020 24/23 Q1015 NOSIG=
METAR WAFF 032000Z 00000KT 5000 SCT018 BKN020 24/23 Q1014 NOSIG=
METAR WAFF 031900Z 00000KT 5000 SCT018 BKN020 24/23 Q1014 NOSIG=
METAR WAFF 031800Z 00000KT 5000 SCT018 BKN020 25/24 Q1014 NOSIG=
METAR WAFF 031700Z 14002KT 5000 OVC019 24/23 Q1014 RERA=
METAR WAFF 031600Z 00000KT 4000 -RA OVC019 25/24 Q1016=
METAR WAFF 031500Z 14004KT 4000 -RA OVC019 25/24 Q1017=
METAR WAFF 031400Z 15003KT 3000 -RA FEW017CB OVC019 25/24 Q1017=
METAR WAFF 031300Z 10002KT 5000 SCT017 BKN019 25/24 Q1017 RMK RERA=
METAR WAFF 031200Z 17002KT 5000 -RA SCT017 BKN019 26/24 Q1016=
METAR WAFF 031100Z 29002KT 4000 -RA FEW017CB SCT017 26/24 Q1016 RMK CB TO NW=
METAR WAFF 031000Z 31007KT 4000 RERA FEW017CB BKN017 27/24 Q1013 RMK CB TO NW=
METAR WAFF 030900Z 36007KT 4000 -TSRA FEW017CB BKN017 27/24 Q1013 RMK CB TO N=
METAR WAFF 030800Z 15003KT 6000 FEW018CB BKN018 30/25 Q1012 RMK CB TO N E=
METAR WAFF 030700Z 27004KT 8000 FEW018CB SCT019 32/24 Q1011 RMK CB TO N W=
METAR WAFF 030600Z 30005KT 8000 SCT020 32/25 Q1012 NOSIG=
METAR WAFF 030500Z 32009KT 9999 SCT020 32/24 Q1013 NOSIG=
METAR WAFF 030400Z 31007KT 8000 FEW018CB SCT019 33/23 Q1014 RMK CB TO E=
METAR WAFF 030300Z 21004KT 8000 FEW018CB SCT019 32/23 Q1014 CB TO E=
METAR WAFF 030200Z 18003KT 8000 SCT019 30/24 Q1015 NOSIG=
METAR WAFF 030130Z 17004KT 8000 SCT019 28/24 Q1015 NOSIG=
METAR WAFF 030100Z 15002KT 9999 SCT020 28/24 Q1016 NOSIG=
METAR WAFF 030000Z 20003KT 9999 SCT020 27/24 Q1015 NOSIG=
METAR WAFF 022300Z 09002KT 6000 SCT019 25/24 Q1014 NOSIG=
METAR WAFF 022200Z 14002KT 6000 SCT019 25/24 Q1013 NOSIG=
METAR WAFF 022100Z 17002KT 5000 SCT019 25/24 Q1013 NOSIG=
METAR WAFF 021800Z 15003KT 5000 -RA SCT019 25/24 Q1013=
METAR WAFF 021500Z 13002KT 6000 -RA SCT019 27/25 Q1014=
METAR WAFF 021430Z 32005KT 5000 -RA BKN018 28/25 Q1015=
METAR WAFF 021400Z 32005KT 7000 FEW020 28/25 Q1015=
METAR WAFF 021300Z 34003KT 7000 FEW020 28/25 Q1014=
METAR WAFF 021200Z 33006KT 7000 FEWCB018 SCT019 28/25 Q1013 RMK CB TO N E=
METAR WAFF 021000Z 32009KT 8000 FEW018CB SCT020 29/24 Q1012 RMK CB TO E=
METAR WAFF 020900Z 32010KT 9999 SCT020 30/24 Q1011 NOSIG=
METAR WAFF 020800Z 33010KT 9999 FEW018CB SCT020 31/24 Q1010 RMK CB TO E=
METAR WAFF 020700Z 33012KT 9999 FEW018CB SCT020 31/23 Q1010 RMK CB TO E=
METAR WAFF 020600Z 33014KT 9999 TS FEW018CB SCT020 32/23 Q1011 RMK CB TO E=
METAR WAFF 020500Z 33011KT 8000 SCT019 34/23 Q1012 NOSIG=
METAR WAFF 020400Z 07002KT 8000 SCT019 32/23 Q1013 NOSIG=
METAR WAFF 020300Z 00000KT 7000 SCT019 29/24 Q1015 RMK RERA=
METAR WAFF 020205Z 18003KT 7000 -RA SCT018 BKN020 28/23 Q1015 NOSIG=
METAR WAFF 020200Z 18003KT 7000 SCT018 BKN020 28/23 Q1015 NOSIG=
METAR WAFF 020100Z 18003KT 7000 SCT019 27/23 Q1015 NOSIG=
METAR WAFF 020000Z 20002KT 7000 SCT018 BKN020 26/24 Q1015 NOSIG=
METAR WAFF 032300Z 00000KT 6000 SCT019 24/23 Q1016 NOSIG=
METAR WAFF 032200Z 00000KT 5000 -RA OVC018 24/23 Q1015=
METAR WAFF 032100Z 00000KT 5000 SCT018 OVC020 24/23 Q1015 NOSIG=
METAR WAFF 032000Z 00000KT 5000 SCT018 BKN020 24/23 Q1014 NOSIG=
METAR WAFF 031900Z 00000KT 5000 SCT018 BKN020 24/23 Q1014 NOSIG=
METAR WAFF 031800Z 00000KT 5000 SCT018 BKN020 25/24 Q1014 NOSIG=
METAR WAFF 031700Z 14002KT 5000 OVC019 24/23 Q1014 RERA=
METAR WAFF 031600Z 00000KT 4000 -RA OVC019 25/24 Q1016=
METAR WAFF 031500Z 14004KT 4000 -RA OVC019 25/24 Q1017=
METAR WAFF 031400Z 15003KT 3000 -RA FEW017CB OVC019 25/24 Q1017=
METAR WAFF 031300Z 10002KT 5000 SCT017 BKN019 25/24 Q1017 RMK RERA=
METAR WAFF 031200Z 17002KT 5000 -RA SCT017 BKN019 26/24 Q1016=
METAR WAFF 031100Z 29002KT 4000 -RA FEW017CB SCT017 26/24 Q1016 RMK CB TO NW=
METAR WAFF 031000Z 31007KT 4000 RERA FEW017CB BKN017 27/24 Q1013 RMK CB TO NW=
METAR WAFF 030900Z 36007KT 4000 -TSRA FEW017CB BKN017 27/24 Q1013 RMK CB TO N=
METAR WAFF 030800Z 15003KT 6000 FEW018CB BKN018 30/25 Q1012 RMK CB TO N E=
METAR WAFF 030700Z 27004KT 8000 FEW018CB SCT019 32/24 Q1011 RMK CB TO N W=
METAR WAFF 030600Z 30005KT 8000 SCT020 32/25 Q1012 NOSIG=
METAR WAFF 030500Z 32009KT 9999 SCT020 32/24 Q1013 NOSIG=
METAR WAFF 030400Z 31007KT 8000 FEW018CB SCT019 33/23 Q1014 RMK CB TO E=
METAR WAFF 030300Z 21004KT 8000 FEW018CB SCT019 32/23 Q1014 CB TO E=
METAR WAFF 030200Z 18003KT 8000 SCT019 30/24 Q1015 NOSIG=
METAR WAFF 030130Z 17004KT 8000 SCT019 28/24 Q1015 NOSIG=
METAR WAFF 030100Z 15002KT 9999 SCT020 28/24 Q1016 NOSIG=
METAR WAFF 030000Z 20003KT 9999 SCT020 27/24 Q1015 NOSIG=
METAR WAFF 022300Z 09002KT 6000 SCT019 25/24 Q1014 NOSIG=
METAR WAFF 022200Z 14002KT 6000 SCT019 25/24 Q1013 NOSIG=
METAR WAFF 022100Z 17002KT 5000 SCT019 25/24 Q1013 NOSIG=
METAR WAFF 021800Z 15003KT 5000 -RA SCT019 25/24 Q1013=
METAR WAFF 021500Z 13002KT 6000 -RA SCT019 27/25 Q1014=
METAR WAFF 021430Z 32005KT 5000 -RA BKN018 28/25 Q1015=
METAR WAFF 021400Z 32005KT 7000 FEW020 28/25 Q1015=
METAR WAFF 021300Z 34003KT 7000 FEW020 28/25 Q1014=
METAR WAFF 021200Z 33006KT 7000 FEWCB018 SCT019 28/25 Q1013 RMK CB TO N E=
METAR WAFF 021000Z 32009KT 8000 FEW018CB SCT020 29/24 Q1012 RMK CB TO E=
METAR WAFF 020900Z 32010KT 9999 SCT020 30/24 Q1011 NOSIG=
METAR WAFF 020800Z 33010KT 9999 FEW018CB SCT020 31/24 Q1010 RMK CB TO E=
METAR WAFF 020700Z 33012KT 9999 FEW018CB SCT020 31/23 Q1010 RMK CB TO E=
METAR WAFF 020600Z 33014KT 9999 TS FEW018CB SCT020 32/23 Q1011 RMK CB TO E=
METAR WAFF 020500Z 33011KT 8000 SCT019 34/23 Q1012 NOSIG=
METAR WAFF 020400Z 07002KT 8000 SCT019 32/23 Q1013 NOSIG=
METAR WAFF 020300Z 00000KT 7000 SCT019 29/24 Q1015 RMK RERA=
METAR WAFF 020205Z 18003KT 7000 -RA SCT018 BKN020 28/23 Q1015 NOSIG=
METAR WAFF 020200Z 18003KT 7000 SCT018 BKN020 28/23 Q1015 NOSIG=
METAR WAFF 020100Z 18003KT 7000 SCT019 27/23 Q1015 NOSIG=
METAR WAFF 020000Z 20002KT 7000 SCT018 BKN020 26/24 Q1015 NOSIG=
METAR WAFF 032300Z 00000KT 6000 SCT019 24/23 Q1016 NOSIG=
METAR WAFF 032200Z 00000KT 5000 -RA OVC018 24/23 Q1015=
METAR WAFF 032100Z 00000KT 5000 SCT018 OVC020 24/23 Q1015 NOSIG=
METAR WAFF 032000Z 00000KT 5000 SCT018 BKN020 24/23 Q1014 NOSIG=
METAR WAFF 031900Z 00000KT 5000 SCT018 BKN020 24/23 Q1014 NOSIG=
METAR WAFF 031800Z 00000KT 5000 SCT018 BKN020 25/24 Q1014 NOSIG=
METAR WAFF 031700Z 14002KT 5000 OVC019 24/23 Q1014 RERA=
METAR WAFF 031600Z 00000KT 4000 -RA OVC019 25/24 Q1016=
METAR WAFF 031500Z 14004KT 4000 -RA OVC019 25/24 Q1017=
METAR WAFF 031400Z 15003KT 3000 -RA FEW017CB OVC019 25/24 Q1017=
METAR WAFF 031300Z 10002KT 5000 SCT017 BKN019 25/24 Q1017 RMK RERA=
METAR WAFF 031200Z 17002KT 5000 -RA SCT017 BKN019 26/24 Q1016=
METAR WAFF 031100Z 29002KT 4000 -RA FEW017CB SCT017 26/24 Q1016 RMK CB TO NW=
METAR WAFF 031000Z 31007KT 4000 RERA FEW017CB BKN017 27/24 Q1013 RMK CB TO NW=
METAR WAFF 030900Z 36007KT 4000 -TSRA FEW017CB BKN017 27/24 Q1013 RMK CB TO N=
METAR WAFF 030800Z 15003KT 6000 FEW018CB BKN018 30/25 Q1012 RMK CB TO N E=
METAR WAFF 030700Z 27004KT 8000 FEW018CB SCT019 32/24 Q1011 RMK CB TO N W=
METAR WAFF 030600Z 30005KT 8000 SCT020 32/25 Q1012 NOSIG=
METAR WAFF 030500Z 32009KT 9999 SCT020 32/24 Q1013 NOSIG=
METAR WAFF 030400Z 31007KT 8000 FEW018CB SCT019 33/23 Q1014 RMK CB TO E=
METAR WAFF 030300Z 21004KT 8000 FEW018CB SCT019 32/23 Q1014 CB TO E=
METAR WAFF 030200Z 18003KT 8000 SCT019 30/24 Q1015 NOSIG=
METAR WAFF 030130Z 17004KT 8000 SCT019 28/24 Q1015 NOSIG=
METAR WAFF 030100Z 15002KT 9999 SCT020 28/24 Q1016 NOSIG=
METAR WAFF 030000Z 20003KT 9999 SCT020 27/24 Q1015 NOSIG=
METAR WAFF 022300Z 09002KT 6000 SCT019 25/24 Q1014 NOSIG=
METAR WAFF 022200Z 14002KT 6000 SCT019 25/24 Q1013 NOSIG=
METAR WAFF 022100Z 17002KT 5000 SCT019 25/24 Q1013 NOSIG=
METAR WAFF 021800Z 15003KT 5000 -RA SCT019 25/24 Q1013=
METAR WAFF 021500Z 13002KT 6000 -RA SCT019 27/25 Q1014=
METAR WAFF 021430Z 32005KT 5000 -RA BKN018 28/25 Q1015=
METAR WAFF 021400Z 32005KT 7000 FEW020 28/25 Q1015=
METAR WAFF 021300Z 34003KT 7000 FEW020 28/25 Q1014=
METAR WAFF 021200Z 33006KT 7000 FEWCB018 SCT019 28/25 Q1013 RMK CB TO N E=
METAR WAFF 021000Z 32009KT 8000 FEW018CB SCT020 29/24 Q1012 RMK CB TO E=
METAR WAFF 020900Z 32010KT 9999 SCT020 30/24 Q1011 NOSIG=
METAR WAFF 020800Z 33010KT 9999 FEW018CB SCT020 31/24 Q1010 RMK CB TO E=
METAR WAFF 020700Z 33012KT 9999 FEW018CB SCT020 31/23 Q1010 RMK CB TO E=
METAR WAFF 020600Z 33014KT 9999 TS FEW018CB SCT020 32/23 Q1011 RMK CB TO E=
METAR WAFF 020500Z 33011KT 8000 SCT019 34/23 Q1012 NOSIG=
METAR WAFF 020400Z 07002KT 8000 SCT019 32/23 Q1013 NOSIG=
METAR WAFF 020300Z 00000KT 7000 SCT019 29/24 Q1015 RMK RERA=
METAR WAFF 020205Z 18003KT 7000 -RA SCT018 BKN020 28/23 Q1015 NOSIG=
METAR WAFF 020200Z 18003KT 7000 SCT018 BKN020 28/23 Q1015 NOSIG=
METAR WAFF 020100Z 18003KT 7000 SCT019 27/23 Q1015 NOSIG=
METAR WAFF 020000Z 20002KT 7000 SCT018 BKN020 26/24 Q1015 NOSIG=
METAR WAFF 032300Z 00000KT 6000 SCT019 24/23 Q1016 NOSIG=
METAR WAFF 032200Z 00000KT 5000 -RA OVC018 24/23 Q1015=
METAR WAFF 032100Z 00000KT 5000 SCT018 OVC020 24/23 Q1015 NOSIG=
METAR WAFF 032000Z 00000KT 5000 SCT018 BKN020 24/23 Q1014 NOSIG=
METAR WAFF 031900Z 00000KT 5000 SCT018 BKN020 24/23 Q1014 NOSIG=
METAR WAFF 031800Z 00000KT 5000 SCT018 BKN020 25/24 Q1014 NOSIG=
METAR WAFF 031700Z 14002KT 5000 OVC019 24/23 Q1014 RERA=
METAR WAFF 031600Z 00000KT 4000 -RA OVC019 25/24 Q1016=
METAR WAFF 031500Z 14004KT 4000 -RA OVC019 25/24 Q1017=
METAR WAFF 031400Z 15003KT 3000 -RA FEW017CB OVC019 25/24 Q1017=
METAR WAFF 031300Z 10002KT 5000 SCT017 BKN019 25/24 Q1017 RMK RERA=
METAR WAFF 031200Z 17002KT 5000 -RA SCT017 BKN019 26/24 Q1016=
METAR WAFF 031100Z 29002KT 4000 -RA FEW017CB SCT017 26/24 Q1016 RMK CB TO NW=
METAR WAFF 031000Z 31007KT 4000 RERA FEW017CB BKN017 27/24 Q1013 RMK CB TO NW=
METAR WAFF 030900Z 36007KT 4000 -TSRA FEW017CB BKN017 27/24 Q1013 RMK CB TO N=
METAR WAFF 030800Z 15003KT 6000 FEW018CB BKN018 30/25 Q1012 RMK CB TO N E=
METAR WAFF 030700Z 27004KT 8000 FEW018CB SCT019 32/24 Q1011 RMK CB TO N W=
METAR WAFF 030600Z 30005KT 8000 SCT020 32/25 Q1012 NOSIG=
METAR WAFF 030500Z 32009KT 9999 SCT020 32/24 Q1013 NOSIG=
METAR WAFF 030400Z 31007KT 8000 FEW018CB SCT019 33/23 Q1014 RMK CB TO E=
METAR WAFF 030300Z 21004KT 8000 FEW018CB SCT019 32/23 Q1014 CB TO E=
METAR WAFF 030200Z 18003KT 8000 SCT019 30/24 Q1015 NOSIG=
METAR WAFF 030130Z 17004KT 8000 SCT019 28/24 Q1015 NOSIG=
METAR WAFF 030100Z 15002KT 9999 SCT020 28/24 Q1016 NOSIG=
METAR WAFF 030000Z 20003KT 9999 SCT020 27/24 Q1015 NOSIG=
METAR WAFF 022300Z 09002KT 6000 SCT019 25/24 Q1014 NOSIG=
METAR WAFF 022200Z 14002KT 6000 SCT019 25/24 Q1013 NOSIG=
METAR WAFF 022100Z 17002KT 5000 SCT019 25/24 Q1013 NOSIG=
METAR WAFF 021800Z 15003KT 5000 -RA SCT019 25/24 Q1013=
METAR WAFF 021500Z 13002KT 6000 -RA SCT019 27/25 Q1014=
METAR WAFF 021430Z 32005KT 5000 -RA BKN018 28/25 Q1015=
METAR WAFF 021400Z 32005KT 7000 FEW020 28/25 Q1015=
METAR WAFF 021300Z 34003KT 7000 FEW020 28/25 Q1014=
METAR WAFF 021200Z 33006KT 7000 FEWCB018 SCT019 28/25 Q1013 RMK CB TO N E=
METAR WAFF 021000Z 32009KT 8000 FEW018CB SCT020 29/24 Q1012 RMK CB TO E=
METAR WAFF 020900Z 32010KT 9999 SCT020 30/24 Q1011 NOSIG=
METAR WAFF 020800Z 33010KT 9999 FEW018CB SCT020 31/24 Q1010 RMK CB TO E=
METAR WAFF 020700Z 33012KT 9999 FEW018CB SCT020 31/23 Q1010 RMK CB TO E=
METAR WAFF 020600Z 33014KT 9999 TS FEW018CB SCT020 32/23 Q1011 RMK CB TO E=
METAR WAFF 020500Z 33011KT 8000 SCT019 34/23 Q1012 NOSIG=
METAR WAFF 020400Z 07002KT 8000 SCT019 32/23 Q1013 NOSIG=
METAR WAFF 020300Z 00000KT 7000 SCT019 29/24 Q1015 RMK RERA=
METAR WAFF 020205Z 18003KT 7000 -RA SCT018 BKN020 28/23 Q1015 NOSIG=
METAR WAFF 020200Z 18003KT 7000 SCT018 BKN020 28/23 Q1015 NOSIG=
METAR WAFF 020100Z 18003KT 7000 SCT019 27/23 Q1015 NOSIG=
METAR WAFF 020000Z 20002KT 7000 SCT018 BKN020 26/24 Q1015 NOSIG=
METAR WAFF 032300Z 00000KT 6000 SCT019 24/23 Q1016 NOSIG=
METAR WAFF 032200Z 00000KT 5000 -RA OVC018 24/23 Q1015=
METAR WAFF 032100Z 00000KT 5000 SCT018 OVC020 24/23 Q1015 NOSIG=
METAR WAFF 032000Z 00000KT 5000 SCT018 BKN020 24/23 Q1014 NOSIG=
METAR WAFF 031900Z 00000KT 5000 SCT018 BKN020 24/23 Q1014 NOSIG=
METAR WAFF 031800Z 00000KT 5000 SCT018 BKN020 25/24 Q1014 NOSIG=
METAR WAFF 031700Z 14002KT 5000 OVC019 24/23 Q1014 RERA=
METAR WAFF 031600Z 00000KT 4000 -RA OVC019 25/24 Q1016=
METAR WAFF 031500Z 14004KT 4000 -RA OVC019 25/24 Q1017=
METAR WAFF 031400Z 15003KT 3000 -RA FEW017CB OVC019 25/24 Q1017=
METAR WAFF 031300Z 10002KT 5000 SCT017 BKN019 25/24 Q1017 RMK RERA=
METAR WAFF 031200Z 17002KT 5000 -RA SCT017 BKN019 26/24 Q1016=
METAR WAFF 031100Z 29002KT 4000 -RA FEW017CB SCT017 26/24 Q1016 RMK CB TO NW=
METAR WAFF 031000Z 31007KT 4000 RERA FEW017CB BKN017 27/24 Q1013 RMK CB TO NW=
METAR WAFF 030900Z 36007KT 4000 -TSRA FEW017CB BKN017 27/24 Q1013 RMK CB TO N=
METAR WAFF 030800Z 15003KT 6000 FEW018CB BKN018 30/25 Q1012 RMK CB TO N E=
METAR WAFF 030700Z 27004KT 8000 FEW018CB SCT019 32/24 Q1011 RMK CB TO N W=
METAR WAFF 030600Z 30005KT 8000 SCT020 32/25 Q1012 NOSIG=
METAR WAFF 030500Z 32009KT 9999 SCT020 32/24 Q1013 NOSIG=
METAR WAFF 030400Z 31007KT 8000 FEW018CB SCT019 33/23 Q1014 RMK CB TO E=
METAR WAFF 030300Z 21004KT 8000 FEW018CB SCT019 32/23 Q1014 CB TO E=
METAR WAFF 030200Z 18003KT 8000 SCT019 30/24 Q1015 NOSIG=
METAR WAFF 030130Z 17004KT 8000 SCT019 28/24 Q1015 NOSIG=
METAR WAFF 030100Z 15002KT 9999 SCT020 28/24 Q1016 NOSIG=
METAR WAFF 030000Z 20003KT 9999 SCT020 27/24 Q1015 NOSIG=
METAR WAFF 022300Z 09002KT 6000 SCT019 25/24 Q1014 NOSIG=
METAR WAFF 022200Z 14002KT 6000 SCT019 25/24 Q1013 NOSIG=
METAR WAFF 022100Z 17002KT 5000 SCT019 25/24 Q1013 NOSIG=
METAR WAFF 021800Z 15003KT 5000 -RA SCT019 25/24 Q1013=
METAR WAFF 021500Z 13002KT 6000 -RA SCT019 27/25 Q1014=
METAR WAFF 021430Z 32005KT 5000 -RA BKN018 28/25 Q1015=
METAR WAFF 021400Z 32005KT 7000 FEW020 28/25 Q1015=
METAR WAFF 021300Z 34003KT 7000 FEW020 28/25 Q1014=
METAR WAFF 021200Z 33006KT 7000 FEWCB018 SCT019 28/25 Q1013 RMK CB TO N E=
METAR WAFF 021000Z 32009KT 8000 FEW018CB SCT020 29/24 Q1012 RMK CB TO E=
METAR WAFF 020900Z 32010KT 9999 SCT020 30/24 Q1011 NOSIG=
METAR WAFF 020800Z 33010KT 9999 FEW018CB SCT020 31/24 Q1010 RMK CB TO E=
METAR WAFF 020700Z 33012KT 9999 FEW018CB SCT020 31/23 Q1010 RMK CB TO E=
METAR WAFF 020600Z 33014KT 9999 TS FEW018CB SCT020 32/23 Q1011 RMK CB TO E=
METAR WAFF 020500Z 33011KT 8000 SCT019 34/23 Q1012 NOSIG=
METAR WAFF 020400Z 07002KT 8000 SCT019 32/23 Q1013 NOSIG=
METAR WAFF 020300Z 00000KT 7000 SCT019 29/24 Q1015 RMK RERA=
METAR WAFF 020205Z 18003KT 7000 -RA SCT018 BKN020 28/23 Q1015 NOSIG=
METAR WAFF 020200Z 18003KT 7000 SCT018 BKN020 28/23 Q1015 NOSIG=
METAR WAFF 020100Z 18003KT 7000 SCT019 27/23 Q1015 NOSIG=
METAR WAFF 020000Z 20002KT 7000 SCT018 BKN020 26/24 Q1015 NOSIG=
METAR WAFF 032300Z 00000KT 6000 SCT019 24/23 Q1016 NOSIG=
METAR WAFF 032200Z 00000KT 5000 -RA OVC018 24/23 Q1015=
METAR WAFF 032100Z 00000KT 5000 SCT018 OVC020 24/23 Q1015 NOSIG=
METAR WAFF 032000Z 00000KT 5000 SCT018 BKN020 24/23 Q1014 NOSIG=
METAR WAFF 031900Z 00000KT 5000 SCT018 BKN020 24/23 Q1014 NOSIG=
METAR WAFF 031800Z 00000KT 5000 SCT018 BKN020 25/24 Q1014 NOSIG=
METAR WAFF 031700Z 14002KT 5000 OVC019 24/23 Q1014 RERA=
METAR WAFF 031600Z 00000KT 4000 -RA OVC019 25/24 Q1016=
METAR WAFF 031500Z 14004KT 4000 -RA OVC019 25/24 Q1017=
METAR WAFF 031400Z 15003KT 3000 -RA FEW017CB OVC019 25/24 Q1017=
METAR WAFF 031300Z 10002KT 5000 SCT017 BKN019 25/24 Q1017 RMK RERA=
METAR WAFF 031200Z 17002KT 5000 -RA SCT017 BKN019 26/24 Q1016=
METAR WAFF 031100Z 29002KT 4000 -RA FEW017CB SCT017 26/24 Q1016 RMK CB TO NW=
METAR WAFF 031000Z 31007KT 4000 RERA FEW017CB BKN017 27/24 Q1013 RMK CB TO NW=
METAR WAFF 030900Z 36007KT 4000 -TSRA FEW017CB BKN017 27/24 Q1013 RMK CB TO N=
METAR WAFF 030800Z 15003KT 6000 FEW018CB BKN018 30/25 Q1012 RMK CB TO N E=
METAR WAFF 030700Z 27004KT 8000 FEW018CB SCT019 32/24 Q1011 RMK CB TO N W=
METAR WAFF 030600Z 30005KT 8000 SCT020 32/25 Q1012 NOSIG=
METAR WAFF 030500Z 32009KT 9999 SCT020 32/24 Q1013 NOSIG=
METAR WAFF 030400Z 31007KT 8000 FEW018CB SCT019 33/23 Q1014 RMK CB TO E=
METAR WAFF 030300Z 21004KT 8000 FEW018CB SCT019 32/23 Q1014 CB TO E=
METAR WAFF 030200Z 18003KT 8000 SCT019 30/24 Q1015 NOSIG=
METAR WAFF 030130Z 17004KT 8000 SCT019 28/24 Q1015 NOSIG=
METAR WAFF 030100Z 15002KT 9999 SCT020 28/24 Q1016 NOSIG=
METAR WAFF 030000Z 20003KT 9999 SCT020 27/24 Q1015 NOSIG=
METAR WAFF 022300Z 09002KT 6000 SCT019 25/24 Q1014 NOSIG=
METAR WAFF 022200Z 14002KT 6000 SCT019 25/24 Q1013 NOSIG=
METAR WAFF 022100Z 17002KT 5000 SCT019 25/24 Q1013 NOSIG=
METAR WAFF 021800Z 15003KT 5000 -RA SCT019 25/24 Q1013=
METAR WAFF 021500Z 13002KT 6000 -RA SCT019 27/25 Q1014=
METAR WAFF 021430Z 32005KT 5000 -RA BKN018 28/25 Q1015=
METAR WAFF 021400Z 32005KT 7000 FEW020 28/25 Q1015=
METAR WAFF 021300Z 34003KT 7000 FEW020 28/25 Q1014=
METAR WAFF 021200Z 33006KT 7000 FEWCB018 SCT019 28/25 Q1013 RMK CB TO N E=
METAR WAFF 021000Z 32009KT 8000 FEW018CB SCT020 29/24 Q1012 RMK CB TO E=
METAR WAFF 020900Z 32010KT 9999 SCT020 30/24 Q1011 NOSIG=
METAR WAFF 020800Z 33010KT 9999 FEW018CB SCT020 31/24 Q1010 RMK CB TO E=
METAR WAFF 020700Z 33012KT 9999 FEW018CB SCT020 31/23 Q1010 RMK CB TO E=
METAR WAFF 020600Z 33014KT 9999 TS FEW018CB SCT020 32/23 Q1011 RMK CB TO E=
METAR WAFF 020500Z 33011KT 8000 SCT019 34/23 Q1012 NOSIG=
METAR WAFF 020400Z 07002KT 8000 SCT019 32/23 Q1013 NOSIG=
METAR WAFF 020300Z 00000KT 7000 SCT019 29/24 Q1015 RMK RERA=
METAR WAFF 020205Z 18003KT 7000 -RA SCT018 BKN020 28/23 Q1015 NOSIG=
METAR WAFF 020200Z 18003KT 7000 SCT018 BKN020 28/23 Q1015 NOSIG=
METAR WAFF 020100Z 18003KT 7000 SCT019 27/23 Q1015 NOSIG=
METAR WAFF 020000Z 20002KT 7000 SCT018 BKN020 26/24 Q1015 NOSIG=
METAR WAFF 032300Z 00000KT 6000 SCT019 24/23 Q1016 NOSIG=
METAR WAFF 032200Z 00000KT 5000 -RA OVC018 24/23 Q1015=
METAR WAFF 032100Z 00000KT 5000 SCT018 OVC020 24/23 Q1015 NOSIG=
METAR WAFF 032000Z 00000KT 5000 SCT018 BKN020 24/23 Q1014 NOSIG=
METAR WAFF 031900Z 00000KT 5000 SCT018 BKN020 24/23 Q1014 NOSIG=
METAR WAFF 031800Z 00000KT 5000 SCT018 BKN020 25/24 Q1014 NOSIG=
METAR WAFF 031700Z 14002KT 5000 OVC019 24/23 Q1014 RERA=
METAR WAFF 031600Z 00000KT 4000 -RA OVC019 25/24 Q1016=
METAR WAFF 031500Z 14004KT 4000 -RA OVC019 25/24 Q1017=
METAR WAFF 031400Z 15003KT 3000 -RA FEW017CB OVC019 25/24 Q1017=
METAR WAFF 031300Z 10002KT 5000 SCT017 BKN019 25/24 Q1017 RMK RERA=
METAR WAFF 031200Z 17002KT 5000 -RA SCT017 BKN019 26/24 Q1016=
METAR WAFF 031100Z 29002KT 4000 -RA FEW017CB SCT017 26/24 Q1016 RMK CB TO NW=
METAR WAFF 031000Z 31007KT 4000 RERA FEW017CB BKN017 27/24 Q1013 RMK CB TO NW=
METAR WAFF 030900Z 36007KT 4000 -TSRA FEW017CB BKN017 27/24 Q1013 RMK CB TO N=
METAR WAFF 030800Z 15003KT 6000 FEW018CB BKN018 30/25 Q1012 RMK CB TO N E=
METAR WAFF 030700Z 27004KT 8000 FEW018CB SCT019 32/24 Q1011 RMK CB TO N W=
METAR WAFF 030600Z 30005KT 8000 SCT020 32/25 Q1012 NOSIG=
METAR WAFF 030500Z 32009KT 9999 SCT020 32/24 Q1013 NOSIG=
METAR WAFF 030400Z 31007KT 8000 FEW018CB SCT019 33/23 Q1014 RMK CB TO E=
METAR WAFF 030300Z 21004KT 8000 FEW018CB SCT019 32/23 Q1014 CB TO E=
METAR WAFF 030200Z 18003KT 8000 SCT019 30/24 Q1015 NOSIG=
METAR WAFF 030130Z 17004KT 8000 SCT019 28/24 Q1015 NOSIG=
METAR WAFF 030100Z 15002KT 9999 SCT020 28/24 Q1016 NOSIG=
METAR WAFF 030000Z 20003KT 9999 SCT020 27/24 Q1015 NOSIG=
METAR WAFF 022300Z 09002KT 6000 SCT019 25/24 Q1014 NOSIG=
METAR WAFF 022200Z 14002KT 6000 SCT019 25/24 Q1013 NOSIG=
METAR WAFF 022100Z 17002KT 5000 SCT019 25/24 Q1013 NOSIG=
METAR WAFF 021800Z 15003KT 5000 -RA SCT019 25/24 Q1013=
METAR WAFF 021500Z 13002KT 6000 -RA SCT019 27/25 Q1014=
METAR WAFF 021430Z 32005KT 5000 -RA BKN018 28/25 Q1015=
METAR WAFF 021400Z 32005KT 7000 FEW020 28/25 Q1015=
METAR WAFF 021300Z 34003KT 7000 FEW020 28/25 Q1014=
METAR WAFF 021200Z 33006KT 7000 FEWCB018 SCT019 28/25 Q1013 RMK CB TO N E=
METAR WAFF 021000Z 32009KT 8000 FEW018CB SCT020 29/24 Q1012 RMK CB TO E=
METAR WAFF 020900Z 32010KT 9999 SCT020 30/24 Q1011 NOSIG=
METAR WAFF 020800Z 33010KT 9999 FEW018CB SCT020 31/24 Q1010 RMK CB TO E=
METAR WAFF 020700Z 33012KT 9999 FEW018CB SCT020 31/23 Q1010 RMK CB TO E=
METAR WAFF 020600Z 33014KT 9999 TS FEW018CB SCT020 32/23 Q1011 RMK CB TO E=
METAR WAFF 020500Z 33011KT 8000 SCT019 34/23 Q1012 NOSIG=
METAR WAFF 020400Z 07002KT 8000 SCT019 32/23 Q1013 NOSIG=
METAR WAFF 020300Z 00000KT 7000 SCT019 29/24 Q1015 RMK RERA=
METAR WAFF 020205Z 18003KT 7000 -RA SCT018 BKN020 28/23 Q1015 NOSIG=
METAR WAFF 020200Z 18003KT 7000 SCT018 BKN020 28/23 Q1015 NOSIG=
METAR WAFF 020100Z 18003KT 7000 SCT019 27/23 Q1015 NOSIG=
METAR WAFF 020000Z 20002KT 7000 SCT018 BKN020 26/24 Q1015 NOSIG=
METAR WAFF 032300Z 00000KT 6000 SCT019 24/23 Q1016 NOSIG=
METAR WAFF 032200Z 00000KT 5000 -RA OVC018 24/23 Q1015=
METAR WAFF 032100Z 00000KT 5000 SCT018 OVC020 24/23 Q1015 NOSIG=
METAR WAFF 032000Z 00000KT 5000 SCT018 BKN020 24/23 Q1014 NOSIG=
METAR WAFF 031900Z 00000KT 5000 SCT018 BKN020 24/23 Q1014 NOSIG=
METAR WAFF 031800Z 00000KT 5000 SCT018 BKN020 25/24 Q1014 NOSIG=
METAR WAFF 031700Z 14002KT 5000 OVC019 24/23 Q1014 RERA=
METAR WAFF 031600Z 00000KT 4000 -RA OVC019 25/24 Q1016=
METAR WAFF 031500Z 14004KT 4000 -RA OVC019 25/24 Q1017=
METAR WAFF 031400Z 15003KT 3000 -RA FEW017CB OVC019 25/24 Q1017=
METAR WAFF 031300Z 10002KT 5000 SCT017 BKN019 25/24 Q1017 RMK RERA=
METAR WAFF 031200Z 17002KT 5000 -RA SCT017 BKN019 26/24 Q1016=
METAR WAFF 031100Z 29002KT 4000 -RA FEW017CB SCT017 26/24 Q1016 RMK CB TO NW=
METAR WAFF 031000Z 31007KT 4000 RERA FEW017CB BKN017 27/24 Q1013 RMK CB TO NW=
METAR WAFF 030900Z 36007KT 4000 -TSRA FEW017CB BKN017 27/24 Q1013 RMK CB TO N=
METAR WAFF 030800Z 15003KT 6000 FEW018CB BKN018 30/25 Q1012 RMK CB TO N E=
METAR WAFF 030700Z 27004KT 8000 FEW018CB SCT019 32/24 Q1011 RMK CB TO N W=
METAR WAFF 030600Z 30005KT 8000 SCT020 32/25 Q1012 NOSIG=
METAR WAFF 030500Z 32009KT 9999 SCT020 32/24 Q1013 NOSIG=
METAR WAFF 030400Z 31007KT 8000 FEW018CB SCT019 33/23 Q1014 RMK CB TO E=
METAR WAFF 030300Z 21004KT 8000 FEW018CB SCT019 32/23 Q1014 CB TO E=
METAR WAFF 030200Z 18003KT 8000 SCT019 30/24 Q1015 NOSIG=
METAR WAFF 030130Z 17004KT 8000 SCT019 28/24 Q1015 NOSIG=
METAR WAFF 030100Z 15002KT 9999 SCT020 28/24 Q1016 NOSIG=
METAR WAFF 030000Z 20003KT 9999 SCT020 27/24 Q1015 NOSIG=
METAR WAFF 022300Z 09002KT 6000 SCT019 25/24 Q1014 NOSIG=
METAR WAFF 022200Z 14002KT 6000 SCT019 25/24 Q1013 NOSIG=
METAR WAFF 022100Z 17002KT 5000 SCT019 25/24 Q1013 NOSIG=
METAR WAFF 021800Z 15003KT 5000 -RA SCT019 25/24 Q1013=
METAR WAFF 021500Z 13002KT 6000 -RA SCT019 27/25 Q1014=
METAR WAFF 021430Z 32005KT 5000 -RA BKN018 28/25 Q1015=
METAR WAFF 021400Z 32005KT 7000 FEW020 28/25 Q1015=
METAR WAFF 021300Z 34003KT 7000 FEW020 28/25 Q1014=
METAR WAFF 021200Z 33006KT 7000 FEWCB018 SCT019 28/25 Q1013 RMK CB TO N E=
METAR WAFF 021000Z 32009KT 8000 FEW018CB SCT020 29/24 Q1012 RMK CB TO E=
METAR WAFF 020900Z 32010KT 9999 SCT020 30/24 Q1011 NOSIG=
METAR WAFF 020800Z 33010KT 9999 FEW018CB SCT020 31/24 Q1010 RMK CB TO E=
METAR WAFF 020700Z 33012KT 9999 FEW018CB SCT020 31/23 Q1010 RMK CB TO E=
METAR WAFF 020600Z 33014KT 9999 TS FEW018CB SCT020 32/23 Q1011 RMK CB TO E=
METAR WAFF 020500Z 33011KT 8000 SCT019 34/23 Q1012 NOSIG=
METAR WAFF 020400Z 07002KT 8000 SCT019 32/23 Q1013 NOSIG=
METAR WAFF 020300Z 00000KT 7000 SCT019 29/24 Q1015 RMK RERA=
METAR WAFF 020205Z 18003KT 7000 -RA SCT018 BKN020 28/23 Q1015 NOSIG=
METAR WAFF 020200Z 18003KT 7000 SCT018 BKN020 28/23 Q1015 NOSIG=
METAR WAFF 020100Z 18003KT 7000 SCT019 27/23 Q1015 NOSIG=
METAR WAFF 020000Z 20002KT 7000 SCT018 BKN020 26/24 Q1015 NOSIG=
METAR WAFF 032300Z 00000KT 6000 SCT019 24/23 Q1016 NOSIG=
METAR WAFF 032200Z 00000KT 5000 -RA OVC018 24/23 Q1015=
METAR WAFF 032100Z 00000KT 5000 SCT018 OVC020 24/23 Q1015 NOSIG=
METAR WAFF 032000Z 00000KT 5000 SCT018 BKN020 24/23 Q1014 NOSIG=
METAR WAFF 031900Z 00000KT 5000 SCT018 BKN020 24/23 Q1014 NOSIG=
METAR WAFF 031800Z 00000KT 5000 SCT018 BKN020 25/24 Q1014 NOSIG=
METAR WAFF 031700Z 14002KT 5000 OVC019 24/23 Q1014 RERA=
METAR WAFF 031600Z 00000KT 4000 -RA OVC019 25/24 Q1016=
METAR WAFF 031500Z 14004KT 4000 -RA OVC019 25/24 Q1017=
METAR WAFF 031400Z 15003KT 3000 -RA FEW017CB OVC019 25/24 Q1017=
METAR WAFF 031300Z 10002KT 5000 SCT017 BKN019 25/24 Q1017 RMK RERA=
METAR WAFF 031200Z 17002KT 5000 -RA SCT017 BKN019 26/24 Q1016=
METAR WAFF 031100Z 29002KT 4000 -RA FEW017CB SCT017 26/24 Q1016 RMK CB TO NW=
METAR WAFF 031000Z 31007KT 4000 RERA FEW017CB BKN017 27/24 Q1013 RMK CB TO NW=
METAR WAFF 030900Z 36007KT 4000 -TSRA FEW017CB BKN017 27/24 Q1013 RMK CB TO N=
METAR WAFF 030800Z 15003KT 6000 FEW018CB BKN018 30/25 Q1012 RMK CB TO N E=
METAR WAFF 030700Z 27004KT 8000 FEW018CB SCT019 32/24 Q1011 RMK CB TO N W=
METAR WAFF 030600Z 30005KT 8000 SCT020 32/25 Q1012 NOSIG=
METAR WAFF 030500Z 32009KT 9999 SCT020 32/24 Q1013 NOSIG=
METAR WAFF 030400Z 31007KT 8000 FEW018CB SCT019 33/23 Q1014 RMK CB TO E=
METAR WAFF 030300Z 21004KT 8000 FEW018CB SCT019 32/23 Q1014 CB TO E=
METAR WAFF 030200Z 18003KT 8000 SCT019 30/24 Q1015 NOSIG=
METAR WAFF 030130Z 17004KT 8000 SCT019 28/24 Q1015 NOSIG=
METAR WAFF 030100Z 15002KT 9999 SCT020 28/24 Q1016 NOSIG=
METAR WAFF 030000Z 20003KT 9999 SCT020 27/24 Q1015 NOSIG=
METAR WAFF 022300Z 09002KT 6000 SCT019 25/24 Q1014 NOSIG=
METAR WAFF 022200Z 14002KT 6000 SCT019 25/24 Q1013 NOSIG=
METAR WAFF 022100Z 17002KT 5000 SCT019 25/24 Q1013 NOSIG=
METAR WAFF 021800Z 15003KT 5000 -RA SCT019 25/24 Q1013=
METAR WAFF 021500Z 13002KT 6000 -RA SCT019 27/25 Q1014=
METAR WAFF 021430Z 32005KT 5000 -RA BKN018 28/25 Q1015=
METAR WAFF 021400Z 32005KT 7000 FEW020 28/25 Q1015=
METAR WAFF 021300Z 34003KT 7000 FEW020 28/25 Q1014=
METAR WAFF 021200Z 33006KT 7000 FEWCB018 SCT019 28/25 Q1013 RMK CB TO N E=
METAR WAFF 021000Z 32009KT 8000 FEW018CB SCT020 29/24 Q1012 RMK CB TO E=
METAR WAFF 020900Z 32010KT 9999 SCT020 30/24 Q1011 NOSIG=
METAR WAFF 020800Z 33010KT 9999 FEW018CB SCT020 31/24 Q1010 RMK CB TO E=
METAR WAFF 020700Z 33012KT 9999 FEW018CB SCT020 31/23 Q1010 RMK CB TO E=
METAR WAFF 020600Z 33014KT 9999 TS FEW018CB SCT020 32/23 Q1011 RMK CB TO E=
METAR WAFF 020500Z 33011KT 8000 SCT019 34/23 Q1012 NOSIG=
METAR WAFF 020400Z 07002KT 8000 SCT019 32/23 Q1013 NOSIG=
METAR WAFF 020300Z 00000KT 7000 SCT019 29/24 Q1015 RMK RERA=
METAR WAFF 020205Z 18003KT 7000 -RA SCT018 BKN020 28/23 Q1015 NOSIG=
METAR WAFF 020200Z 18003KT 7000 SCT018 BKN020 28/23 Q1015 NOSIG=
METAR WAFF 020100Z 18003KT 7000 SCT019 27/23 Q1015 NOSIG=
METAR WAFF 020000Z 20002KT 7000 SCT018 BKN020 26/24 Q1015 NOSIG=
METAR WAFF 032300Z 00000KT 6000 SCT019 24/23 Q1016 NOSIG=
METAR WAFF 032200Z 00000KT 5000 -RA OVC018 24/23 Q1015=
METAR WAFF 032100Z 00000KT 5000 SCT018 OVC020 24/23 Q1015 NOSIG=
METAR WAFF 032000Z 00000KT 5000 SCT018 BKN020 24/23 Q1014 NOSIG=
METAR WAFF 031900Z 00000KT 5000 SCT018 BKN020 24/23 Q1014 NOSIG=
METAR WAFF 031800Z 00000KT 5000 SCT018 BKN020 25/24 Q1014 NOSIG=
METAR WAFF 031700Z 14002KT 5000 OVC019 24/23 Q1014 RERA=
METAR WAFF 031600Z 00000KT 4000 -RA OVC019 25/24 Q1016=
METAR WAFF 031500Z 14004KT 4000 -RA OVC019 25/24 Q1017=
METAR WAFF 031400Z 15003KT 3000 -RA FEW017CB OVC019 25/24 Q1017=
METAR WAFF 031300Z 10002KT 5000 SCT017 BKN019 25/24 Q1017 RMK RERA=
METAR WAFF 031200Z 17002KT 5000 -RA SCT017 BKN019 26/24 Q1016=
METAR WAFF 031100Z 29002KT 4000 -RA FEW017CB SCT017 26/24 Q1016 RMK CB TO NW=
METAR WAFF 031000Z 31007KT 4000 RERA FEW017CB BKN017 27/24 Q1013 RMK CB TO NW=
METAR WAFF 030900Z 36007KT 4000 -TSRA FEW017CB BKN017 27/24 Q1013 RMK CB TO N=
METAR WAFF 030800Z 15003KT 6000 FEW018CB BKN018 30/25 Q1012 RMK CB TO N E=
METAR WAFF 030700Z 27004KT 8000 FEW018CB SCT019 32/24 Q1011 RMK CB TO N W=
METAR WAFF 030600Z 30005KT 8000 SCT020 32/25 Q1012 NOSIG=
METAR WAFF 030500Z 32009KT 9999 SCT020 32/24 Q1013 NOSIG=
METAR WAFF 030400Z 31007KT 8000 FEW018CB SCT019 33/23 Q1014 RMK CB TO E=
METAR WAFF 030300Z 21004KT 8000 FEW018CB SCT019 32/23 Q1014 CB TO E=
METAR WAFF 030200Z 18003KT 8000 SCT019 30/24 Q1015 NOSIG=
METAR WAFF 030130Z 17004KT 8000 SCT019 28/24 Q1015 NOSIG=
METAR WAFF 030100Z 15002KT 9999 SCT020 28/24 Q1016 NOSIG=
METAR WAFF 030000Z 20003KT 9999 SCT020 27/24 Q1015 NOSIG=
METAR WAFF 022300Z 09002KT 6000 SCT019 25/24 Q1014 NOSIG=
METAR WAFF 022200Z 14002KT 6000 SCT019 25/24 Q1013 NOSIG=
METAR WAFF 022100Z 17002KT 5000 SCT019 25/24 Q1013 NOSIG=
METAR WAFF 021800Z 15003KT 5000 -RA SCT019 25/24 Q1013=
METAR WAFF 021500Z 13002KT 6000 -RA SCT019 27/25 Q1014=
METAR WAFF 021430Z 32005KT 5000 -RA BKN018 28/25 Q1015=
METAR WAFF 021400Z 32005KT 7000 FEW020 28/25 Q1015=
METAR WAFF 021300Z 34003KT 7000 FEW020 28/25 Q1014=
METAR WAFF 021200Z 33006KT 7000 FEWCB018 SCT019 28/25 Q1013 RMK CB TO N E=
METAR WAFF 021000Z 32009KT 8000 FEW018CB SCT020 29/24 Q1012 RMK CB TO E=
METAR WAFF 020900Z 32010KT 9999 SCT020 30/24 Q1011 NOSIG=
METAR WAFF 020800Z 33010KT 9999 FEW018CB SCT020 31/24 Q1010 RMK CB TO E=
METAR WAFF 020700Z 33012KT 9999 FEW018CB SCT020 31/23 Q1010 RMK CB TO E=
METAR WAFF 020600Z 33014KT 9999 TS FEW018CB SCT020 32/23 Q1011 RMK CB TO E=
METAR WAFF 020500Z 33011KT 8000 SCT019 34/23 Q1012 NOSIG=
METAR WAFF 020400Z 07002KT 8000 SCT019 32/23 Q1013 NOSIG=
METAR WAFF 020300Z 00000KT 7000 SCT019 29/24 Q1015 RMK RERA=
METAR WAFF 020205Z 18003KT 7000 -RA SCT018 BKN020 28/23 Q1015 NOSIG=
METAR WAFF 020200Z 18003KT 7000 SCT018 BKN020 28/23 Q1015 NOSIG=
METAR WAFF 020100Z 18003KT 7000 SCT019 27/23 Q1015 NOSIG=
METAR WAFF 020000Z 20002KT 7000 SCT018 BKN020 26/24 Q1015 NOSIG=
METAR WAFF 032300Z 00000KT 6000 SCT019 24/23 Q1016 NOSIG=
METAR WAFF 032200Z 00000KT 5000 -RA OVC018 24/23 Q1015=
METAR WAFF 032100Z 00000KT 5000 SCT018 OVC020 24/23 Q1015 NOSIG=
METAR WAFF 032000Z 00000KT 5000 SCT018 BKN020 24/23 Q1014 NOSIG=
METAR WAFF 031900Z 00000KT 5000 SCT018 BKN020 24/23 Q1014 NOSIG=
METAR WAFF 031800Z 00000KT 5000 SCT018 BKN020 25/24 Q1014 NOSIG=
METAR WAFF 031700Z 14002KT 5000 OVC019 24/23 Q1014 RERA=
METAR WAFF 031600Z 00000KT 4000 -RA OVC019 25/24 Q1016=
METAR WAFF 031500Z 14004KT 4000 -RA OVC019 25/24 Q1017=
METAR WAFF 031400Z 15003KT 3000 -RA FEW017CB OVC019 25/24 Q1017=
METAR WAFF 031300Z 10002KT 5000 SCT017 BKN019 25/24 Q1017 RMK RERA=
METAR WAFF 031200Z 17002KT 5000 -RA SCT017 BKN019 26/24 Q1016=
METAR WAFF 031100Z 29002KT 4000 -RA FEW017CB SCT017 26/24 Q1016 RMK CB TO NW=
METAR WAFF 031000Z 31007KT 4000 RERA FEW017CB BKN017 27/24 Q1013 RMK CB TO NW=
METAR WAFF 030900Z 36007KT 4000 -TSRA FEW017CB BKN017 27/24 Q1013 RMK CB TO N=
METAR WAFF 030800Z 15003KT 6000 FEW018CB BKN018 30/25 Q1012 RMK CB TO N E=
METAR WAFF 030700Z 27004KT 8000 FEW018CB SCT019 32/24 Q1011 RMK CB TO N W=
METAR WAFF 030600Z 30005KT 8000 SCT020 32/25 Q1012 NOSIG=
METAR WAFF 030500Z 32009KT 9999 SCT020 32/24 Q1013 NOSIG=
METAR WAFF 030400Z 31007KT 8000 FEW018CB SCT019 33/23 Q1014 RMK CB TO E=
METAR WAFF 030300Z 21004KT 8000 FEW018CB SCT019 32/23 Q1014 CB TO E=
METAR WAFF 030200Z 18003KT 8000 SCT019 30/24 Q1015 NOSIG=
METAR WAFF 030130Z 17004KT 8000 SCT019 28/24 Q1015 NOSIG=
METAR WAFF 030100Z 15002KT 9999 SCT020 28/24 Q1016 NOSIG=
METAR WAFF 030000Z 20003KT 9999 SCT020 27/24 Q1015 NOSIG=
METAR WAFF 022300Z 09002KT 6000 SCT019 25/24 Q1014 NOSIG=
METAR WAFF 022200Z 14002KT 6000 SCT019 25/24 Q1013 NOSIG=
METAR WAFF 022100Z 17002KT 5000 SCT019 25/24 Q1013 NOSIG=
METAR WAFF 021800Z 15003KT 5000 -RA SCT019 25/24 Q1013=
METAR WAFF 021500Z 13002KT 6000 -RA SCT019 27/25 Q1014=
METAR WAFF 021430Z 32005KT 5000 -RA BKN018 28/25 Q1015=
METAR WAFF 021400Z 32005KT 7000 FEW020 28/25 Q1015=
METAR WAFF 021300Z 34003KT 7000 FEW020 28/25 Q1014=
METAR WAFF 021200Z 33006KT 7000 FEWCB018 SCT019 28/25 Q1013 RMK CB TO N E=
METAR WAFF 021000Z 32009KT 8000 FEW018CB SCT020 29/24 Q1012 RMK CB TO E=
METAR WAFF 020900Z 32010KT 9999 SCT020 30/24 Q1011 NOSIG=
METAR WAFF 020800Z 33010KT 9999 FEW018CB SCT020 31/24 Q1010 RMK CB TO E=
METAR WAFF 020700Z 33012KT 9999 FEW018CB SCT020 31/23 Q1010 RMK CB TO E=
METAR WAFF 020600Z 33014KT 9999 TS FEW018CB SCT020 32/23 Q1011 RMK CB TO E=
METAR WAFF 020500Z 33011KT 8000 SCT019 34/23 Q1012 NOSIG=
METAR WAFF 020400Z 07002KT 8000 SCT019 32/23 Q1013 NOSIG=
METAR WAFF 020300Z 00000KT 7000 SCT019 29/24 Q1015 RMK RERA=
METAR WAFF 020205Z 18003KT 7000 -RA SCT018 BKN020 28/23 Q1015 NOSIG=
METAR WAFF 020200Z 18003KT 7000 SCT018 BKN020 28/23 Q1015 NOSIG=
METAR WAFF 020100Z 18003KT 7000 SCT019 27/23 Q1015 NOSIG=
METAR WAFF 020000Z 20002KT 7000 SCT018 BKN020 26/24 Q1015 NOSIG=
METAR WAFF 032300Z 00000KT 6000 SCT019 24/23 Q1016 NOSIG=
METAR WAFF 032200Z 00000KT 5000 -RA OVC018 24/23 Q1015=
METAR WAFF 032100Z 00000KT 5000 SCT018 OVC020 24/23 Q1015 NOSIG=
METAR WAFF 032000Z 00000KT 5000 SCT018 BKN020 24/23 Q1014 NOSIG=
METAR WAFF 031900Z 00000KT 5000 SCT018 BKN020 24/23 Q1014 NOSIG=
METAR WAFF 031800Z 00000KT 5000 SCT018 BKN020 25/24 Q1014 NOSIG=
METAR WAFF 031700Z 14002KT 5000 OVC019 24/23 Q1014 RERA=
METAR WAFF 031600Z 00000KT 4000 -RA OVC019 25/24 Q1016=
METAR WAFF 031500Z 14004KT 4000 -RA OVC019 25/24 Q1017=
METAR WAFF 031400Z 15003KT 3000 -RA FEW017CB OVC019 25/24 Q1017=
METAR WAFF 031300Z 10002KT 5000 SCT017 BKN019 25/24 Q1017 RMK RERA=
METAR WAFF 031200Z 17002KT 5000 -RA SCT017 BKN019 26/24 Q1016=
METAR WAFF 031100Z 29002KT 4000 -RA FEW017CB SCT017 26/24 Q1016 RMK CB TO NW=
METAR WAFF 031000Z 31007KT 4000 RERA FEW017CB BKN017 27/24 Q1013 RMK CB TO NW=
METAR WAFF 030900Z 36007KT 4000 -TSRA FEW017CB BKN017 27/24 Q1013 RMK CB TO N=
METAR WAFF 030800Z 15003KT 6000 FEW018CB BKN018 30/25 Q1012 RMK CB TO N E=
METAR WAFF 030700Z 27004KT 8000 FEW018CB SCT019 32/24 Q1011 RMK CB TO N W=
METAR WAFF 030600Z 30005KT 8000 SCT020 32/25 Q1012 NOSIG=
METAR WAFF 030500Z 32009KT 9999 SCT020 32/24 Q1013 NOSIG=
METAR WAFF 030400Z 31007KT 8000 FEW018CB SCT019 33/23 Q1014 RMK CB TO E=
METAR WAFF 030300Z 21004KT 8000 FEW018CB SCT019 32/23 Q1014 CB TO E=
METAR WAFF 030200Z 18003KT 8000 SCT019 30/24 Q1015 NOSIG=
METAR WAFF 030130Z 17004KT 8000 SCT019 28/24 Q1015 NOSIG=
METAR WAFF 030100Z 15002KT 9999 SCT020 28/24 Q1016 NOSIG=
METAR WAFF 030000Z 20003KT 9999 SCT020 27/24 Q1015 NOSIG=
METAR WAFF 022300Z 09002KT 6000 SCT019 25/24 Q1014 NOSIG=
METAR WAFF 022200Z 14002KT 6000 SCT019 25/24 Q1013 NOSIG=
METAR WAFF 022100Z 17002KT 5000 SCT019 25/24 Q1013 NOSIG=
METAR WAFF 021800Z 15003KT 5000 -RA SCT019 25/24 Q1013=
METAR WAFF 021500Z 13002KT 6000 -RA SCT019 27/25 Q1014=
METAR WAFF 021430Z 32005KT 5000 -RA BKN018 28/25 Q1015=
METAR WAFF 021400Z 32005KT 7000 FEW020 28/25 Q1015=
METAR WAFF 021300Z 34003KT 7000 FEW020 28/25 Q1014=
METAR WAFF 021200Z 33006KT 7000 FEWCB018 SCT019 28/25 Q1013 RMK CB TO N E=
METAR WAFF 021000Z 32009KT 8000 FEW018CB SCT020 29/24 Q1012 RMK CB TO E=
METAR WAFF 020900Z 32010KT 9999 SCT020 30/24 Q1011 NOSIG=
METAR WAFF 020800Z 33010KT 9999 FEW018CB SCT020 31/24 Q1010 RMK CB TO E=
METAR WAFF 020700Z 33012KT 9999 FEW018CB SCT020 31/23 Q1010 RMK CB TO E=
METAR WAFF 020600Z 33014KT 9999 TS FEW018CB SCT020 32/23 Q1011 RMK CB TO E=
METAR WAFF 020500Z 33011KT 8000 SCT019 34/23 Q1012 NOSIG=
METAR WAFF 020400Z 07002KT 8000 SCT019 32/23 Q1013 NOSIG=
METAR WAFF 020300Z 00000KT 7000 SCT019 29/24 Q1015 RMK RERA=
METAR WAFF 020205Z 18003KT 7000 -RA SCT018 BKN020 28/23 Q1015 NOSIG=
METAR WAFF 020200Z 18003KT 7000 SCT018 BKN020 28/23 Q1015 NOSIG=
METAR WAFF 020100Z 18003KT 7000 SCT019 27/23 Q1015 NOSIG=
METAR WAFF 020000Z 20002KT 7000 SCT018 BKN020 26/24 Q1015 NOSIG=
METAR WAFF 032300Z 00000KT 6000 SCT019 24/23 Q1016 NOSIG=
METAR WAFF 032200Z 00000KT 5000 -RA OVC018 24/23 Q1015=
METAR WAFF 032100Z 00000KT 5000 SCT018 OVC020 24/23 Q1015 NOSIG=
METAR WAFF 032000Z 00000KT 5000 SCT018 BKN020 24/23 Q1014 NOSIG=
METAR WAFF 031900Z 00000KT 5000 SCT018 BKN020 24/23 Q1014 NOSIG=
METAR WAFF 031800Z 00000KT 5000 SCT018 BKN020 25/24 Q1014 NOSIG=
METAR WAFF 031700Z 14002KT 5000 OVC019 24/23 Q1014 RERA=
METAR WAFF 031600Z 00000KT 4000 -RA OVC019 25/24 Q1016=
METAR WAFF 031500Z 14004KT 4000 -RA OVC019 25/24 Q1017=
METAR WAFF 031400Z 15003KT 3000 -RA FEW017CB OVC019 25/24 Q1017=
METAR WAFF 031300Z 10002KT 5000 SCT017 BKN019 25/24 Q1017 RMK RERA=
METAR WAFF 031200Z 17002KT 5000 -RA SCT017 BKN019 26/24 Q1016=
METAR WAFF 031100Z 29002KT 4000 -RA FEW017CB SCT017 26/24 Q1016 RMK CB TO NW=
METAR WAFF 031000Z 31007KT 4000 RERA FEW017CB BKN017 27/24 Q1013 RMK CB TO NW=
METAR WAFF 030900Z 36007KT 4000 -TSRA FEW017CB BKN017 27/24 Q1013 RMK CB TO N=
METAR WAFF 030800Z 15003KT 6000 FEW018CB BKN018 30/25 Q1012 RMK CB TO N E=
METAR WAFF 030700Z 27004KT 8000 FEW018CB SCT019 32/24 Q1011 RMK CB TO N W=
METAR WAFF 030600Z 30005KT 8000 SCT020 32/25 Q1012 NOSIG=
METAR WAFF 030500Z 32009KT 9999 SCT020 32/24 Q1013 NOSIG=
METAR WAFF 030400Z 31007KT 8000 FEW018CB SCT019 33/23 Q1014 RMK CB TO E=
METAR WAFF 030300Z 21004KT 8000 FEW018CB SCT019 32/23 Q1014 CB TO E=
METAR WAFF 030200Z 18003KT 8000 SCT019 30/24 Q1015 NOSIG=
METAR WAFF 030130Z 17004KT 8000 SCT019 28/24 Q1015 NOSIG=
METAR WAFF 030100Z 15002KT 9999 SCT020 28/24 Q1016 NOSIG=
METAR WAFF 030000Z 20003KT 9999 SCT020 27/24 Q1015 NOSIG=
METAR WAFF 022300Z 09002KT 6000 SCT019 25/24 Q1014 NOSIG=
METAR WAFF 022200Z 14002KT 6000 SCT019 25/24 Q1013 NOSIG=
METAR WAFF 022100Z 17002KT 5000 SCT019 25/24 Q1013 NOSIG=
METAR WAFF 021800Z 15003KT 5000 -RA SCT019 25/24 Q1013=
METAR WAFF 021500Z 13002KT 6000 -RA SCT019 27/25 Q1014=
METAR WAFF 021430Z 32005KT 5000 -RA BKN018 28/25 Q1015=
METAR WAFF 021400Z 32005KT 7000 FEW020 28/25 Q1015=
METAR WAFF 021300Z 34003KT 7000 FEW020 28/25 Q1014=
METAR WAFF 021200Z 33006KT 7000 FEWCB018 SCT019 28/25 Q1013 RMK CB TO N E=
METAR WAFF 021000Z 32009KT 8000 FEW018CB SCT020 29/24 Q1012 RMK CB TO E=
METAR WAFF 020900Z 32010KT 9999 SCT020 30/24 Q1011 NOSIG=
METAR WAFF 020800Z 33010KT 9999 FEW018CB SCT020 31/24 Q1010 RMK CB TO E=
METAR WAFF 020700Z 33012KT 9999 FEW018CB SCT020 31/23 Q1010 RMK CB TO E=
METAR WAFF 020600Z 33014KT 9999 TS FEW018CB SCT020 32/23 Q1011 RMK CB TO E=
METAR WAFF 020500Z 33011KT 8000 SCT019 34/23 Q1012 NOSIG=
METAR WAFF 020400Z 07002KT 8000 SCT019 32/23 Q1013 NOSIG=
METAR WAFF 020300Z 00000KT 7000 SCT019 29/24 Q1015 RMK RERA=
METAR WAFF 020205Z 18003KT 7000 -RA SCT018 BKN020 28/23 Q1015 NOSIG=
METAR WAFF 020200Z 18003KT 7000 SCT018 BKN020 28/23 Q1015 NOSIG=
METAR WAFF 020100Z 18003KT 7000 SCT019 27/23 Q1015 NOSIG=
METAR WAFF 020000Z 20002KT 7000 SCT018 BKN020 26/24 Q1015 NOSIG=
